12001,2022,07,25,06,00,AAXX 25061 12001 46/// /1705 10183 20150 30115 40153 58007 333 10184 20164==
12001,2022,07,25,12,00,AAXX 25121 12001 46/// /1408 10195 20158 30092 40130 58014==
12001,2022,07,26,00,00,AAXX 26001 12001 46/// /2006 10227 20145 30022 40059 58004==
12001,2022,07,26,06,00,AAXX 26061 12001 46/// /2610 10182 20158 30023 40061 52006 333 10230 20179==
12001,2022,07,26,12,00,AAXX 26121 12001 46/// /2412 10182 20154 30044 40082 51007==
12001,2022,07,26,18,00,AAXX 26181 12001 46/// /2612 10176 20116 30058 40096 52008 333 10184 20174==
12001,2022,07,27,00,00,AAXX 27001 12001 46/// /2813 10163 20099 30068 40106 52003==
12001,2022,07,27,06,00,AAXX 27061 12001 46/// /2612 10157 20082 30071 40109 52004 333 10177 20154==
12001,2022,07,27,12,00,AAXX 27121 12001 46/// /2512 10153 20099 30086 40124 52006 333 90760 91116==
12100,2022,07,25,06,00,AAXX 25061 12100 11970 41705 10211 20120 30134 40141 58013 60002 701// 80002 333 10211 20159 30016 55073 91205 93000=
12100,2022,07,25,07,00,AAXX 25071 12100 42970 31606 10234 20118 30127 40133 58018 80002 333 91011 90710 91112==
12100,2022,07,25,08,00,AAXX 25081 12100 42970 21608 10256 20114 30120 40126 57020 80002 333 90710 91112==
12100,2022,07,25,10,00,AAXX 25101 12100 42970 41607 10283 20105 30111 40117 57016 80002 333 91014 90710 91114==
12100,2022,07,25,11,00,AAXX 25111 12100 42970 61607 10286 20116 30102 40108 58018 80002 333 91012 90710 91118==
12100,2022,07,25,12,00,AAXX 25121 12100 12970 61607 10291 20112 30093 40099 58023 60001 80002 333 91013 90760 91118==
12100,2022,07,25,13,00,AAXX 25131 12100 42970 51607 10301 20111 30084 40090 57027 80002 333 91012 90710 91114==
12100,2022,07,25,14,00,AAXX 25141 12100 42970 61606 10300 20120 30077 40083 57025 80002 333 90710 91112==
12100,2022,07,25,16,00,AAXX 25161 12100 42/70 61606 10302 20126 30055 40061 58029 81032 333 91011 90710 91113==
12100,2022,07,25,17,00,AAXX 25171 12100 42/70 71506 10297 20126 30047 40053 56030 86072 333 91011 90710 91111==
12100,2022,07,25,18,00,AAXX 25181 12100 12670 71507 10289 20119 30043 40049 56022 60002 82972 333 10312 20211 91012 91114 91207 93000=
12100,2022,07,25,19,00,AAXX 25191 12100 41664 72507 10236 20178 30061 40067 53006 79592 8697/ 333 91019 90710 91119==
12100,2022,07,25,20,00,AAXX 25201 12100 41664 72303 10205 20193 30065 40071 53018 78098 8397/ 333 90710 91111==
12100,2022,07,25,22,00,AAXX 25221 12100 45970 /2707 10208 20191 30060 40066 57001 333 91014 90710 91114==
12100,2022,07,25,23,00,AAXX 25231 12100 47968 /3011 10197 20187 30063 40070 55002 721// 333 90710 91114==
12100,2022,07,26,00,00,AAXX 26001 12100 17/47 /2911 10189 20179 30070 40077 53012 60041 781// 333 91018 90760 91119==
12100,2022,07,26,01,00,AAXX 26011 12100 47770 /2807 10179 20161 30071 40078 52011 761// 333 90710 91119==
12100,2022,07,26,02,00,AAXX 26021 12100 45970 /2104 10166 20160 30073 40080 51010==
12100,2022,07,26,04,00,AAXX 26041 12100 45/68 /2104 10168 20165 30077 40084 52006==
12100,2022,07,26,05,00,AAXX 26051 12100 42470 62204 10172 20169 30079 40086 53006 85202==
12100,2022,07,26,06,00,AAXX 26061 12100 12470 62609 10185 20161 30078 40085 50005 60072 83202 333 10289 20166 31018 55115 70070 91014 90760 91119==
12100,2022,07,26,07,00,AAXX 26071 12100 42470 62710 10189 20159 30084 40091 53007 84302 333 90710 91114==
12100,2022,07,26,08,00,AAXX 26081 12100 42470 52709 10195 20160 30087 40094 53008 83202 333 90710 91113==
12100,2022,07,26,10,00,AAXX 26101 12100 42470 72710 10201 20155 30095 40102 52011 8423/ 333 90710 91114==
12100,2022,07,26,11,00,AAXX 26111 12100 41470 62707 10207 20165 30099 40106 52012 72582 86200 333 91013 90710 91114==
12100,2022,07,26,12,00,AAXX 26121 12100 11570 72708 10202 20162 30100 40107 52007 69911 70382 86202 333 91014 90760 91114==
12100,2022,07,26,13,00,AAXX 26131 12100 41570 63009 10191 20148 30107 40114 53012 72582 84230 333 91014 90710 91114==
12100,2022,07,26,14,00,AAXX 26141 12100 42570 72910 10187 20140 30113 40120 53014 8523/ 333 91014 90710 91114==
12100,2022,07,26,16,00,AAXX 26161 12100 42670 63008 10188 20145 30119 40126 51012 83231 333 91014 90710 91114==
12100,2022,07,26,17,00,AAXX 26171 12100 42570 42912 10191 20111 30120 40127 51007 82230 333 90710 91114==
12100,2022,07,26,18,00,AAXX 26181 12100 11570 12912 10188 20118 30124 40131 53006 69922 70181 81100 333 10207 20178 90760 91114==
12100,2022,07,26,19,00,AAXX 26191 12100 42570 12910 10184 20105 30126 40133 52007 81200==
12100,2022,07,26,20,00,AAXX 26201 12100 42570 12912 10181 20109 30129 40136 52009 81200==
12100,2022,07,26,22,00,AAXX 26221 12100 45/70 /2912 10174 20093 30132 40139 52006 333 90710 91118==
12100,2022,07,26,23,00,AAXX 26231 12100 45/70 /2913 10174 20103 30131 40138 50002==
12100,2022,07,27,00,00,AAXX 27001 12100 15/70 /2812 10170 20108 30128 40135 58001 60001 333 90760 91118==
12100,2022,07,27,01,00,AAXX 27011 12100 45/70 /2811 10168 20109 30130 40137 55002==
12100,2022,07,27,02,00,AAXX 27021 12100 45670 /2811 10165 20101 30129 40136 57002==
12100,2022,07,27,04,00,AAXX 27041 12100 45570 /2004 10130 20104 30131 40138 53001 333 91009 90710 91112==
12100,2022,07,27,05,00,AAXX 27051 12100 41570 72809 10150 20110 30132 40139 53003 725// 872// 333 90710 91112==
12100,2022,07,27,06,00,AAXX 27061 12100 11570 72203 10136 20118 30134 40141 52005 60012 70182 85202 333 10188 20122 31014 55085 70012 90760 91112==
12100,2022,07,27,07,00,AAXX 27071 12100 42570 72606 10152 20104 30137 40144 53006 84230 333 91012 90710 91112==
12100,2022,07,27,08,00,AAXX 27081 12100 42570 72505 10158 20108 30140 40147 52008 872// 333 91011 90710 91114==
12100,2022,07,27,10,00,AAXX 27101 12100 42670 72607 10152 20102 30147 40154 52010 872//==
12100,2022,07,27,11,00,AAXX 27111 12100 42670 72709 10163 20097 30148 40155 51008 872// 333 90710 91118==
12100,2022,07,27,12,00,AAXX 27121 12100 12670 62710 10173 20113 30149 40156 52005 60001 86200 333 90760 91119==
12105,2022,07,25,06,00,AAXX 25061 12105 11981 31603 10200 20127 30109 40150 57012 60002 701// 80002 333 10200 20151 31013 55049 91203 93000=
12105,2022,07,25,07,00,AAXX 25071 12105 42983 31604 10222 20122 30103 40143 57015 80002==
12105,2022,07,25,08,00,AAXX 25081 12105 42981 21705 10243 20123 30096 40136 58017 80002==
12105,2022,07,25,09,00,AAXX 25091 12105 42979 21704 10262 20111 30092 40132 57017 80002 333 90730 91109==
12105,2022,07,25,10,00,AAXX 25101 12105 42982 31505 10273 20121 30089 40129 56014 80002 333 90710 91110==
12105,2022,07,25,11,00,AAXX 25111 12105 42980 41605 10278 20114 30081 40120 58015 80002 333 90710 91110==
12105,2022,07,25,12,00,AAXX 25121 12105 12982 61605 10286 20107 30071 40110 58021 60001 80002 333 90760 91110==
12105,2022,07,25,13,00,AAXX 25131 12105 42981 61605 10293 20114 30062 40101 57027 80002 333 90710 91109==
12105,2022,07,25,14,00,AAXX 25141 12105 42982 61605 10293 20109 30055 40094 56026 80002 333 90710 91110==
12105,2022,07,25,15,00,AAXX 25151 12105 42981 61604 10299 20114 30047 40086 57024 80002 333 90730 91110==
12105,2022,07,25,16,00,AAXX 25161 12105 42/82 61505 10308 20102 30036 40075 58026 81035==
12105,2022,07,25,17,00,AAXX 25171 12105 42/83 71403 10298 20104 30026 40065 57029 82056 333 90710 91109==
12105,2022,07,25,18,00,AAXX 25181 12105 12/84 71503 10284 20101 30023 40062 56024 60002 8707/ 333 10309 20200 90760 91110==
12105,2022,07,25,19,00,AAXX 25191 12105 42684 71403 10271 20112 30020 40059 56016 8297/==
12105,2022,07,25,20,00,AAXX 25201 12105 41673 82605 10246 20150 30041 40081 53015 79122 8397/ 333 91010 90710 91111==
12105,2022,07,25,21,00,AAXX 25211 12105 47969 /2001 10217 20173 30031 40071 52008 781// 333 90730 91111==
12105,2022,07,25,22,00,AAXX 25221 12105 47982 /1703 10216 20163 30029 40069 50009 781//==
12105,2022,07,25,23,00,AAXX 25231 12105 47984 /1902 10211 20163 30021 40061 57020 723//==
12105,2022,07,26,00,00,AAXX 26001 12105 15962 /2806 10193 20178 30029 40069 55002 69991 333 90760 91111==
12105,2022,07,26,01,00,AAXX 26011 12105 45876 /2804 10187 20167 30036 40076 53007==
12105,2022,07,26,02,00,AAXX 26021 12105 47966 /2702 10172 20161 30039 40080 51018 761//==
12105,2022,07,26,03,00,AAXX 26031 12105 47870 /2102 10169 20156 30043 40084 51014 781//==
12105,2022,07,26,04,00,AAXX 26041 12105 47970 /1802 10167 20157 30044 40085 52008 723//==
12105,2022,07,26,05,00,AAXX 26051 12105 42570 72303 10170 20160 30043 40084 50004 81238==
12105,2022,07,26,06,00,AAXX 26061 12105 12574 72303 10180 20167 30045 40086 52002 60072 82202 333 10284 20166 31016 55125 70074==
12105,2022,07,26,07,00,AAXX 26071 12105 42476 72503 10190 20159 30050 40090 53006 84202 333 84815==
12105,2022,07,26,08,00,AAXX 26081 12105 42580 62604 10196 20155 30052 40092 52009 862//==
12105,2022,07,26,09,00,AAXX 26091 12105 42581 72804 10205 20146 30057 40097 52012 872//==
12105,2022,07,26,10,00,AAXX 26101 12105 42583 62705 10200 20144 30062 40102 53012 8426/ 333 90710 91109==
12105,2022,07,26,11,00,AAXX 26111 12105 42582 62905 10214 20148 30062 40102 51010 8326/==
12105,2022,07,26,12,00,AAXX 26121 12105 12681 62905 10219 20143 30065 40105 52008 60001 8226/ 333 90760 91109==
12105,2022,07,26,13,00,AAXX 26131 12105 42583 72806 10207 20141 30069 40109 53007 8523/ 333 91011 90710 91111==
12105,2022,07,26,14,00,AAXX 26141 12105 42582 63006 10190 20134 30078 40119 53016 85230 333 90710 91112==
12105,2022,07,26,15,00,AAXX 26151 12105 42583 72906 10183 20132 30080 40121 52015 8423/ 333 90730 91112==
12105,2022,07,26,16,00,AAXX 26161 12105 42683 52806 10180 20118 30084 40125 51015 82230==
12105,2022,07,26,17,00,AAXX 26171 12105 42583 52805 10179 20115 30085 40126 52007 83231==
12105,2022,07,26,18,00,AAXX 26181 12105 12583 32805 10179 20098 30090 40131 52010 60002 83200 333 10223 20177 90760 91112==
12105,2022,07,26,19,00,AAXX 26191 12105 42582 32703 10165 20097 30091 40132 52007 82201==
12105,2022,07,26,20,00,AAXX 26201 12105 42582 12702 10154 20086 30093 40134 51008 81200==
12105,2022,07,26,21,00,AAXX 26211 12105 45/82 /2302 10146 20085 30093 40134 51003==
12105,2022,07,26,22,00,AAXX 26221 12105 45681 /2502 10145 20087 30095 40136 52004==
12105,2022,07,26,23,00,AAXX 26231 12105 45/82 /2201 10139 20083 30095 40136 52002==
12105,2022,07,27,00,00,AAXX 27001 12105 15/82 /2302 10135 20083 30094 40135 50001 60001==
12105,2022,07,27,01,00,AAXX 27011 12105 45/82 /1802 10121 20082 30095 40137 54000==
12105,2022,07,27,02,00,AAXX 27021 12105 45681 /2102 10116 20083 30094 40136 57001==
12105,2022,07,27,03,00,AAXX 27031 12105 45682 /2103 10120 20088 30095 40137 52001==
12105,2022,07,27,04,00,AAXX 27041 12105 45781 /2003 10124 20092 30096 40138 53001==
12105,2022,07,27,05,00,AAXX 27051 12105 41558 82404 10128 20100 30098 40140 52004 780// 889//==
12105,2022,07,27,06,00,AAXX 27061 12105 11681 72403 10130 20109 30100 40142 52005 69912 725// 8553/ 333 10179 20115 31010 55059==
12105,2022,07,27,07,00,AAXX 27071 12105 42681 82304 10138 20110 30103 40144 52007 885//==
12105,2022,07,27,08,00,AAXX 27081 12105 41660 82504 10133 20105 30107 40149 53009 72522 885//==
12105,2022,07,27,09,00,AAXX 27091 12105 41562 82706 10142 20108 30110 40151 52010 78082 889//==
12105,2022,07,27,10,00,AAXX 27101 12105 41681 82403 10155 20109 30110 40151 51007 72522 882//==
12105,2022,07,27,11,00,AAXX 27111 12105 41582 82403 10152 20102 30114 40155 52007 72522 882// 333 90710 91110==
12105,2022,07,27,12,00,AAXX 27121 12105 11660 82404 10135 20112 30117 40159 53007 69961 72582 889// 333 91009 90760 91110==
12115,2022,07,25,06,00,AAXX 25061 12115 11984 51805 10199 20134 30136 40150 58010 60002 702// 80008 333 10199 20147 30014 55039 91205 93000=
12115,2022,07,25,07,00,AAXX 25071 12115 42984 51905 10222 20130 30132 40146 57013 80008==
12115,2022,07,25,08,00,AAXX 25081 12115 42984 42005 10243 20123 30125 40138 57016 80008==
12115,2022,07,25,09,00,AAXX 25091 12115 42984 41806 10256 20106 30121 40134 57015 80008 333 91011 90730 91111==
12115,2022,07,25,10,00,AAXX 25101 12115 42984 51805 10270 20115 30118 40131 56014 80006 333 90710 91110==
12115,2022,07,25,11,00,AAXX 25111 12115 42980 71806 10278 20096 30113 40126 57012 80006==
12115,2022,07,25,12,00,AAXX 25121 12115 12980 71705 10287 20099 30103 40116 58018 60001 80008 333 90760 91111==
12115,2022,07,25,13,00,AAXX 25131 12115 42980 61706 10297 20098 30093 40106 58025 80008 333 90710 91111==
12115,2022,07,25,14,00,AAXX 25141 12115 42/80 71705 10300 20100 30085 40098 57028 81046 333 90710 91111==
12115,2022,07,25,15,00,AAXX 25151 12115 42/80 71804 10298 20108 30079 40092 56024 81048 333 90730 91111==
12115,2022,07,25,16,00,AAXX 25161 12115 42/80 61604 10296 20112 30071 40084 57022 81038==
12115,2022,07,25,17,00,AAXX 25171 12115 42980 51504 10297 20112 30058 40071 58027 80008 333 90710 91110==
12115,2022,07,25,18,00,AAXX 25181 12115 12980 71604 10281 20108 30055 40068 56024 60002 80006 333 10302 20199 91111 91207 93000=
12115,2022,07,25,19,00,AAXX 25191 12115 42/80 71505 10271 20107 30050 40063 56021 81038==
12115,2022,07,25,20,00,AAXX 25201 12115 42/80 71605 10265 20110 30048 40061 57010 82038 333 90710 91110==
12115,2022,07,25,21,00,AAXX 25211 12115 47/70 /2304 10250 20132 30062 40075 53007 781// 333 90730 91110==
12115,2022,07,25,22,00,AAXX 25221 12115 47/70 /2302 10216 20161 30049 40062 58001 781//==
12115,2022,07,25,23,00,AAXX 25231 12115 45/70 /1803 10208 20162 30045 40059 58003==
12115,2022,07,26,00,00,AAXX 26001 12115 17/70 /1903 10207 20163 30043 40057 56019 69931 721// 333 90760 91110==
12115,2022,07,26,01,00,AAXX 26011 12115 45/70 /2403 10208 20174 30051 40065 53002==
12115,2022,07,26,02,00,AAXX 26021 12115 47/64 /2905 10195 20171 30058 40072 53013 761//==
12115,2022,07,26,03,00,AAXX 26031 12115 47/66 /2804 10183 20166 30058 40072 51015 761//==
12115,2022,07,26,04,00,AAXX 26041 12115 47/58 /2403 10176 20163 30062 40076 51011 782//==
12115,2022,07,26,05,00,AAXX 26051 12115 42380 72404 10182 20170 30063 40077 53005 879//==
12115,2022,07,26,06,00,AAXX 26061 12115 12482 62605 10188 20166 30065 40079 52007 60032 85902 333 10281 20176 31017 55132 70033 90760 91111==
12115,2022,07,26,07,00,AAXX 26071 12115 42482 72405 10190 20164 30069 40083 53007 86901 333 90710 91111==
12115,2022,07,26,08,00,AAXX 26081 12115 42482 62606 10193 20156 30073 40087 53010 86901 333 91011 90710 91111==
12115,2022,07,26,09,00,AAXX 26091 12115 42482 22707 10195 20156 30079 40093 53014 82301 333 90730 91112==
12115,2022,07,26,10,00,AAXX 26101 12115 42582 62708 10194 20159 30085 40099 53016 86200 333 90710 91112==
12115,2022,07,26,11,00,AAXX 26111 12115 42582 72707 10196 20155 30088 40102 51015 8636/ 333 90710 91112==
12115,2022,07,26,12,00,AAXX 26121 12115 12582 62607 10202 20154 30090 40104 51011 60001 83330 333 90760 91112==
12115,2022,07,26,13,00,AAXX 26131 12115 42582 32706 10206 20158 30088 40102 50003 82230 333 90710 91112==
12115,2022,07,26,14,00,AAXX 26141 12115 42582 32908 10191 20144 30096 40110 53008 81230 333 90710 91114==
12115,2022,07,26,15,00,AAXX 26151 12115 42582 22706 10191 20135 30096 40110 51006 81230 333 90730 91114==
12115,2022,07,26,16,00,AAXX 26161 12115 42582 42707 10185 20129 30101 40115 52013 84200 333 90710 91113==
12115,2022,07,26,17,00,AAXX 26171 12115 42582 22807 10181 20119 30102 40116 53006 82200 333 91013 90710 91113==
12115,2022,07,26,18,00,AAXX 26181 12115 12582 22807 10183 20116 30109 40123 52013 60002 82200 333 10208 20181 91012 90760 91114==
12115,2022,07,26,19,00,AAXX 26191 12115 42582 12908 10179 20110 30113 40127 52012 81202 333 90710 91112==
12115,2022,07,26,20,00,AAXX 26201 12115 42582 12807 10178 20099 30114 40128 51012 81200 333 90710 91112==
12115,2022,07,26,21,00,AAXX 26211 12115 45/69 /2807 10178 20107 30112 40126 50003 333 90730 91112==
12115,2022,07,26,22,00,AAXX 26221 12115 45/70 /2908 10176 20102 30112 40126 56001 333 90710 91112==
12115,2022,07,26,23,00,AAXX 26231 12115 45/70 /2907 10176 20105 30113 40127 55001 333 91012 90710 91112==
12115,2022,07,27,00,00,AAXX 27001 12115 15/70 /2908 10173 20097 30111 40125 58001 60001 333 90760 91113==
12115,2022,07,27,01,00,AAXX 27011 12115 45/70 /2906 10170 20106 30112 40126 54000 333 90710 91112==
12115,2022,07,27,02,00,AAXX 27021 12115 45/70 /2707 10169 20098 30110 40124 57003 333 90710 91112==
12115,2022,07,27,03,00,AAXX 27031 12115 45/70 /2707 10166 20090 30109 40123 58002 333 90730 91112==
12115,2022,07,27,04,00,AAXX 27041 12115 45/70 /2706 10165 20087 30110 40124 55002 333 91011 90710 91111==
12115,2022,07,27,05,00,AAXX 27051 12115 42582 72706 10161 20102 30112 40126 53002 872// 333 91011 90710 91112==
12115,2022,07,27,06,00,AAXX 27061 12115 11561 72507 10152 20104 30115 40129 53006 69922 780// 873// 333 10183 20149 31015 55078 70002 91012 90760 91116==
12115,2022,07,27,07,00,AAXX 27071 12115 41580 72906 10155 20100 30119 40133 53009 72522 873// 333 90710 91112==
12115,2022,07,27,08,00,AAXX 27081 12115 42580 72707 10165 20103 30121 40135 52009 872// 333 90710 91119==
12115,2022,07,27,09,00,AAXX 27091 12115 41580 72708 10164 20096 30124 40138 52009 70282 872// 333 90730 91119==
12115,2022,07,27,10,00,AAXX 27101 12115 42580 72505 10157 20115 30127 40141 52008 872// 333 91010 90710 91113==
12115,2022,07,27,11,00,AAXX 27111 12115 41569 72608 10162 20105 30130 40144 52009 78022 873// 333 91013 90710 91113==
12115,2022,07,27,12,00,AAXX 27121 12115 11580 72706 10157 20121 30132 40146 52008 60021 72582 873// 333 91013 90760 91119==
12120,2022,07,25,06,00,AAXX 25061 12120 12881 61803 10181 20144 30151 40155 58010 60002 85502 333 10181 20126 31010 5///3 55036 91203 93000=
12120,2022,07,25,07,00,AAXX 25071 12120 42981 51803 10209 20157 30144 40148 58015 80002==
12120,2022,07,25,08,00,AAXX 25081 12120 42981 32004 10238 20158 30140 40144 57016 80002==
12120,2022,07,25,09,00,AAXX 25091 12120 42981 21905 10255 20146 30137 40141 56014 80002==
12120,2022,07,25,10,00,AAXX 25101 12120 42981 61805 10265 20152 30133 40137 57011 80006==
12120,2022,07,25,11,00,AAXX 25111 12120 42981 71706 10268 20149 30128 40132 58012 80008==
12120,2022,07,25,12,00,AAXX 25121 12120 12981 71806 10278 20155 30119 40123 58018 60001 80008==
12120,2022,07,25,13,00,AAXX 25131 12120 42981 71807 10290 20159 30110 40114 58023 80008==
12120,2022,07,25,14,00,AAXX 25141 12120 42981 71606 10285 20151 30100 40104 57028 80008==
12120,2022,07,25,15,00,AAXX 25151 12120 42981 61707 10289 20132 30093 40097 57026 80002==
12120,2022,07,25,16,00,AAXX 25161 12120 42981 71704 10274 20141 30088 40092 56022 80008==
12120,2022,07,25,17,00,AAXX 25171 12120 42981 71704 10278 20137 30078 40082 58022 80008==
12120,2022,07,25,18,00,AAXX 25181 12120 12/81 41605 10258 20136 30071 40075 57022 60002 81032 333 10293 20181==
12120,2022,07,25,19,00,AAXX 25191 12120 42/81 61605 10238 20133 30067 40071 56021 84052==
12120,2022,07,25,20,00,AAXX 25201 12120 42/81 61606 10245 20131 30064 40068 56014 8607/==
12120,2022,07,25,21,00,AAXX 25211 12120 42/81 71606 10245 20128 30058 40062 57013 8707/==
12120,2022,07,25,22,00,AAXX 25221 12120 42881 72405 10226 20173 30064 40068 55003 8333/ 333 90710 91115==
12120,2022,07,25,23,00,AAXX 25231 12120 42981 71703 10215 20137 30058 40062 57006 80007==
12120,2022,07,26,00,00,AAXX 26001 12120 12/81 71802 10214 20138 30050 40054 58008 60001 8707/ 333 90760 91115==
12120,2022,07,26,01,00,AAXX 26011 12120 42/81 72403 10211 20161 30053 40057 55011 8707/==
12120,2022,07,26,02,00,AAXX 26021 12120 42881 62804 10204 20172 30055 40059 55003 8253/==
12120,2022,07,26,03,00,AAXX 26031 12120 41859 72805 10192 20179 30064 40068 53014 78022 879//==
12120,2022,07,26,04,00,AAXX 26041 12120 41570 72805 10180 20170 30066 40070 52013 78088 879//==
12120,2022,07,26,05,00,AAXX 26051 12120 41475 72607 10183 20175 30071 40075 51016 72582 879//==
12120,2022,07,26,06,00,AAXX 26061 12120 11480 72606 10185 20175 30070 40074 50006 60042 70182 872// 333 10258 20178 31017 55122 70037==
12120,2022,07,26,07,00,AAXX 26071 12120 42581 72607 10197 20169 30074 40078 52008 85202==
12120,2022,07,26,08,00,AAXX 26081 12120 42481 72708 10206 20162 30077 40081 53006 84202==
12120,2022,07,26,09,00,AAXX 26091 12120 41581 72608 10203 20163 30083 40087 52013 70382 85202==
12120,2022,07,26,10,00,AAXX 26101 12120 42581 62609 10214 20170 30087 40091 52013 83202==
12120,2022,07,26,11,00,AAXX 26111 12120 42581 62710 10214 20168 30091 40095 52014 85202==
12120,2022,07,26,12,00,AAXX 26121 12120 11581 52710 10214 20161 30091 40095 51008 69911 70182 83202 333 90760 91113==
12120,2022,07,26,13,00,AAXX 26131 12120 42581 62610 10214 20166 30091 40095 51004 83232 333 90710 91114==
12120,2022,07,26,14,00,AAXX 26141 12120 42581 62709 10204 20156 30095 40099 53004 84202 333 90710 91115==
12120,2022,07,26,15,00,AAXX 26151 12120 42681 62709 10197 20141 30100 40104 53009 862// 333 90730 91115==
12120,2022,07,26,16,00,AAXX 26161 12120 42681 22710 10194 20129 30103 40107 52012 82201==
12120,2022,07,26,17,00,AAXX 26171 12120 42681 32710 10182 20113 30107 40111 52012 83200 333 90710 91114==
12120,2022,07,26,18,00,AAXX 26181 12120 12581 32709 10175 20120 30112 40116 53012 69912 83200 333 10221 20173 90760 91115==
12120,2022,07,26,19,00,AAXX 26191 12120 42581 52808 10170 20108 30115 40119 52012 85200 333 91013 90710 91113==
12120,2022,07,26,20,00,AAXX 26201 12120 42681 12708 10165 20101 30116 40120 51009 81200==
12120,2022,07,26,21,00,AAXX 26211 12120 42681 12708 10165 20099 30117 40121 52005 81200 333 90730 91113==
12120,2022,07,26,22,00,AAXX 26221 12120 42681 32807 10171 20102 30116 40120 50001 83200==
12120,2022,07,26,23,00,AAXX 26231 12120 42681 32808 10167 20086 30117 40121 52001 83200 333 90710 91112==
12120,2022,07,27,00,00,AAXX 27001 12120 12681 32806 10163 20099 30115 40119 57002 60001 83200 333 90760 91113==
12120,2022,07,27,01,00,AAXX 27011 12120 42681 72906 10166 20104 30117 40121 52001 872//==
12120,2022,07,27,02,00,AAXX 27021 12120 42681 62904 10157 20100 30116 40120 57001 863//==
12120,2022,07,27,03,00,AAXX 27031 12120 41581 72705 10155 20103 30116 40120 51001 78081 873//==
12120,2022,07,27,04,00,AAXX 27041 12120 41681 72005 10134 20111 30119 40123 53002 78082 873//==
12120,2022,07,27,05,00,AAXX 27051 12120 41566 72207 10137 20109 30119 40123 52003 78082 873//==
12120,2022,07,27,06,00,AAXX 27061 12120 11459 72306 10134 20118 30124 40128 52008 60022 78081 873// 333 10175 20133 31013 55111 70017==
12120,2022,07,27,07,00,AAXX 27071 12120 41460 72307 10143 20128 30124 40128 52005 78182 879// 333 91014 90710 91114==
12120,2022,07,27,08,00,AAXX 27081 12120 41481 72508 10169 20120 30125 40129 51006 72522 879// 333 90710 91114==
12120,2022,07,27,09,00,AAXX 27091 12120 41481 72708 10149 20126 30131 40135 53007 72582 873// 333 90730 91114==
12120,2022,07,27,10,00,AAXX 27101 12120 41481 72709 10155 20115 30134 40138 52010 72522 879// 333 90710 91112==
12120,2022,07,27,11,00,AAXX 27111 12120 42581 72709 10163 20112 30136 40140 51011 873//==
12120,2022,07,27,12,00,AAXX 27121 12120 11570 72610 10150 20125 30139 40143 52008 60021 78082 873// 333 90760 91114==
12125,2022,07,25,06,00,AAXX 25061 12125 15/81 /1601 10194 20151 30110 40157 58010 69912 333 10194 20125 3/010 55018 70002 91203 91302 93000=
12125,2022,07,25,07,00,AAXX 25071 12125 45/81 /1802 10222 20153 30103 40149 58015==
12125,2022,07,25,08,00,AAXX 25081 12125 45/81 /1804 10239 20143 30099 40145 57016==
12125,2022,07,25,09,00,AAXX 25091 12125 45/81 /1904 10255 20140 30095 40141 56015==
12125,2022,07,25,10,00,AAXX 25101 12125 45/81 /1704 10264 20138 30092 40138 57011==
12125,2022,07,25,11,00,AAXX 25111 12125 45/81 /1805 10274 20148 30088 40134 57011==
12125,2022,07,25,12,00,AAXX 25121 12125 15/81 /1504 10279 20142 30078 40123 58017 69941==
12125,2022,07,25,13,00,AAXX 25131 12125 45/81 /1505 10280 20139 30069 40114 58023==
12125,2022,07,25,14,00,AAXX 25141 12125 45/81 /1604 10283 20145 30060 40105 57028 333 90710 91109==
12125,2022,07,25,15,00,AAXX 25151 12125 45/81 /1604 10287 20141 30053 40098 57025 333 90730 91109==
12125,2022,07,25,16,00,AAXX 25161 12125 45/81 /1602 10281 20136 30047 40092 56022==
12125,2022,07,25,17,00,AAXX 25171 12125 45/81 /1702 10283 20134 30039 40084 57021==
12125,2022,07,25,18,00,AAXX 25181 12125 15/81 /1502 10275 20119 30031 40076 57022 60012 333 10290 20194 91109 91205 91303 93001=
12125,2022,07,25,19,00,AAXX 25191 12125 45/81 /0902 10236 20146 30029 40075 56018==
12125,2022,07,25,20,00,AAXX 25201 12125 45/81 /1302 10239 20131 30026 40072 56013==
12125,2022,07,25,21,00,AAXX 25211 12125 45/81 /1404 10243 20126 30019 40065 58012==
12125,2022,07,25,22,00,AAXX 25221 12125 45/81 /2604 10247 20123 30022 40068 55007 333 90710 91109==
12125,2022,07,25,23,00,AAXX 25231 12125 45/81 /3501 10223 20142 30018 40064 56008==
12125,2022,07,26,00,00,AAXX 26001 12125 15/81 /1503 10230 20129 30009 40055 58010 69911 333 90760 91109==
12125,2022,07,26,01,00,AAXX 26011 12125 45/81 /2003 10224 20129 30011 40057 55011==
12125,2022,07,26,02,00,AAXX 26021 12125 45/81 /2603 10209 20141 30013 40059 55005==
12125,2022,07,26,03,00,AAXX 26031 12125 47/57 /2704 10199 20173 30019 40065 53010 762// 333 90730 91109==
12125,2022,07,26,04,00,AAXX 26041 12125 47/64 /2603 10187 20177 30023 40070 52012 761//==
12125,2022,07,26,05,00,AAXX 26051 12125 47/62 /2602 10177 20166 30029 40076 52016 782//==
12125,2022,07,26,06,00,AAXX 26061 12125 17/72 /2603 10179 20171 30028 40075 50009 60022 723// 333 10275 20177 3/017 55125 70032 90760 91109==
12125,2022,07,26,07,00,AAXX 26071 12125 45/76 /2303 10183 20170 30034 40081 52011==
12125,2022,07,26,08,00,AAXX 26081 12125 45/81 /2504 10191 20171 30038 40085 53009==
12125,2022,07,26,09,00,AAXX 26091 12125 45/81 /2205 10207 20159 30038 40084 51010==
12125,2022,07,26,10,00,AAXX 26101 12125 45/81 /2605 10209 20150 30043 40089 52009==
12125,2022,07,26,11,00,AAXX 26111 12125 45/81 /2705 10217 20151 30047 40093 53009==
12125,2022,07,26,12,00,AAXX 26121 12125 15/81 /2805 10213 20149 30048 40094 51010 69921==
12125,2022,07,26,13,00,AAXX 26131 12125 45/81 /2805 10218 20149 30048 40094 51005==
12125,2022,07,26,14,00,AAXX 26141 12125 45/81 /2705 10221 20140 30050 40096 52003==
12125,2022,07,26,15,00,AAXX 26151 12125 45/81 /2705 10213 20147 30053 40099 53005 333 91010 90730 91110==
12125,2022,07,26,16,00,AAXX 26161 12125 45/81 /2705 10196 20133 30061 40108 53013 333 90710 91113==
12125,2022,07,26,17,00,AAXX 26171 12125 45/81 /2806 10181 20116 30066 40113 52016==
12125,2022,07,26,18,00,AAXX 26181 12125 15/81 /2704 10175 20111 30071 40118 51018 69922 333 10233 20175 90760 91113==
12125,2022,07,26,19,00,AAXX 26191 12125 45/81 /2603 10158 20108 30075 40122 52014==
12125,2022,07,26,20,00,AAXX 26201 12125 45/81 /2602 10144 20106 30076 40124 51010==
12125,2022,07,26,21,00,AAXX 26211 12125 45/81 /2602 10130 20100 30076 40124 51005==
12125,2022,07,26,22,00,AAXX 26221 12125 45/81 /2502 10121 20097 30076 40124 51001==
12125,2022,07,26,23,00,AAXX 26231 12125 45/81 /2403 10123 20100 30077 40125 53001==
12125,2022,07,27,00,00,AAXX 27001 12125 15/81 /2502 10121 20098 30076 40124 54000 69911==
12125,2022,07,27,01,00,AAXX 27011 12125 45/81 /2502 10125 20100 30078 40126 52002==
12125,2022,07,27,02,00,AAXX 27021 12125 45/81 /2602 10113 20094 30076 40124 57001==
12125,2022,07,27,03,00,AAXX 27031 12125 45/81 /2701 10110 20094 30076 40124 54000==
12125,2022,07,27,04,00,AAXX 27041 12125 45/81 /2501 10118 20100 30078 40126 55000==
12125,2022,07,27,05,00,AAXX 27051 12125 45/81 /2502 10135 20103 30080 40128 53004==
12125,2022,07,27,06,00,AAXX 27061 12125 15/81 /2304 10149 20101 30080 40127 51004 69912 333 10175 20108 3/007 55055 70003==
12125,2022,07,27,07,00,AAXX 27071 12125 45/81 /2404 10155 20109 30083 40130 52005 333 90710 91110==
12125,2022,07,27,08,00,AAXX 27081 12125 47/60 /2405 10142 20117 30088 40136 53008 752//==
12125,2022,07,27,09,00,AAXX 27091 12125 47/73 /2505 10148 20116 30092 40140 52012 781// 333 91010 90730 91110==
12125,2022,07,27,10,00,AAXX 27101 12125 47/59 /2506 10141 20120 30096 40144 52013 781// 333 90710 91110==
12125,2022,07,27,11,00,AAXX 27111 12125 45/81 /2506 10175 20117 30095 40142 50007==
12125,2022,07,27,12,00,AAXX 27121 12125 17/81 /2606 10153 20121 30097 40144 52005 69901 721// 333 90760 91111==
12135,2022,07,25,06,00,AAXX 25061 12135 11784 52102 10179 20153 30161 40165 57007 60002 701// 84502 333 10181 20131 30011 55023 91203 93000=
12135,2022,07,25,07,00,AAXX 25071 12135 42784 51902 10189 20156 30156 40160 58010 82502==
12135,2022,07,25,08,00,AAXX 25081 12135 42782 51802 10210 20162 30151 40155 57013 82502==
12135,2022,07,25,09,00,AAXX 25091 12135 42982 51602 10231 20159 30151 40154 56010 80002==
12135,2022,07,25,10,00,AAXX 25101 12135 42982 31403 10247 20169 30147 40150 57009 80002==
12135,2022,07,25,11,00,AAXX 25111 12135 42981 41203 10249 20169 30143 40146 58008 80002==
12135,2022,07,25,12,00,AAXX 25121 12135 12981 51104 10246 20176 30136 40139 58015 60001 80002==
12135,2022,07,25,13,00,AAXX 25131 12135 42981 51105 10246 20178 30128 40131 58019 80002==
12135,2022,07,25,14,00,AAXX 25141 12135 42981 51106 10245 20180 30120 40123 57023 80002==
12135,2022,07,25,15,00,AAXX 25151 12135 42981 51005 10237 20179 30111 40114 57025 80002==
12135,2022,07,25,16,00,AAXX 25161 12135 42981 61105 10231 20178 30106 40109 56022 80006==
12135,2022,07,25,17,00,AAXX 25171 12135 42981 61105 10221 20183 30095 40098 57025 80008==
12135,2022,07,25,18,00,AAXX 25181 12135 12982 51205 10217 20181 30089 40092 57022 60002 80002 333 10254 20179 91206 93000=
12135,2022,07,25,19,00,AAXX 25191 12135 42982 61405 10211 20183 30088 40092 56018 80006==
12135,2022,07,25,20,00,AAXX 25201 12135 42982 61405 10208 20182 30083 40087 57012 80008==
12135,2022,07,25,21,00,AAXX 25211 12135 45/82 /1505 10208 20182 30081 40085 57008 333 90730 91109==
12135,2022,07,25,22,00,AAXX 25221 12135 45/82 /1504 10201 20179 30073 40077 58015==
12135,2022,07,25,23,00,AAXX 25231 12135 45/81 /1705 10205 20163 30066 40070 58017==
12135,2022,07,26,00,00,AAXX 26001 12135 15983 /1904 10203 20163 30064 40068 56017 60001 333 90760 91109==
12135,2022,07,26,01,00,AAXX 26011 12135 45983 /1903 10202 20158 30060 40064 56013==
12135,2022,07,26,02,00,AAXX 26021 12135 45983 /1804 10201 20161 30057 40061 57009==
12135,2022,07,26,03,00,AAXX 26031 12135 45982 /2104 10200 20164 30060 40064 55004==
12135,2022,07,26,04,00,AAXX 26041 12135 47/64 /2303 10191 20174 30066 40070 53006 781//==
12135,2022,07,26,05,00,AAXX 26051 12135 41656 72702 10189 20184 30067 40071 52010 710// 872//==
12135,2022,07,26,06,00,AAXX 26061 12135 11462 73003 10189 20184 30072 40076 52012 60022 780// 873// 333 10218 20187 32017 55120 70016 87911 90760 91110==
12135,2022,07,26,07,00,AAXX 26071 12135 41265 72805 10183 20178 30077 40081 53011 72522 873// 333 87906==
12135,2022,07,26,08,00,AAXX 26081 12135 42670 72704 10181 20175 30083 40087 52016 872// 333 90710 91109==
12135,2022,07,26,09,00,AAXX 26091 12135 41675 42703 10194 20179 30084 40088 51012 70181 84200 333 90730 91109==
12135,2022,07,26,10,00,AAXX 26101 12135 42681 62704 10215 20167 30086 40089 51009 83232==
12135,2022,07,26,11,00,AAXX 26111 12135 42581 73103 10210 20164 30090 40094 53007 85202==
12135,2022,07,26,12,00,AAXX 26121 12135 11681 72803 10220 20165 30093 40096 52009 69961 70281 85202 333 90760 91109==
12135,2022,07,26,13,00,AAXX 26131 12135 42681 62803 10224 20160 30093 40096 51007 84202==
12135,2022,07,26,14,00,AAXX 26141 12135 42882 52803 10227 20165 30094 40097 52004 83202==
12135,2022,07,26,15,00,AAXX 26151 12135 42782 52903 10224 20160 30095 40098 53002 83232==
12135,2022,07,26,16,00,AAXX 26161 12135 42681 62503 10213 20165 30097 40101 52004 84202==
12135,2022,07,26,17,00,AAXX 26171 12135 42580 62907 10202 20154 30099 40103 52005 85202 333 91013 90710 91113==
12135,2022,07,26,18,00,AAXX 26181 12135 12680 42906 10192 20134 30106 40110 53011 69962 83202 333 10231 20181 91013 90760 91113==
12135,2022,07,26,19,00,AAXX 26191 12135 42682 42906 10178 20120 30112 40116 53015 82202 333 91012 90710 91114==
12135,2022,07,26,20,00,AAXX 26201 12135 42782 22807 10170 20115 30114 40118 51015 82101 333 90710 91114==
12135,2022,07,26,21,00,AAXX 26211 12135 45/84 /2806 10166 20115 30116 40120 51010 333 90730 91114==
12135,2022,07,26,22,00,AAXX 26221 12135 45/83 /2805 10161 20115 30118 40122 52006 333 90710 91111==
12135,2022,07,26,23,00,AAXX 26231 12135 45/83 /2805 10156 20114 30118 40122 51004 333 90710 91109==
12135,2022,07,27,00,00,AAXX 27001 12135 15682 /2605 10157 20113 30120 40124 52004 60001 333 90760 91114==
12135,2022,07,27,01,00,AAXX 27011 12135 45/82 /2704 10156 20110 30122 40126 53004==
12135,2022,07,27,02,00,AAXX 27021 12135 45/81 /2503 10153 20109 30120 40124 50002==
12135,2022,07,27,03,00,AAXX 27031 12135 45680 /2604 10156 20110 30120 40124 54000==
12135,2022,07,27,04,00,AAXX 27041 12135 45/81 /2604 10150 20110 30122 40126 55000==
12135,2022,07,27,05,00,AAXX 27051 12135 42681 42605 10152 20108 30124 40128 53004 84501==
12135,2022,07,27,06,00,AAXX 27061 12135 12781 32605 10158 20108 30124 40128 51004 60002 83501 333 10192 20150 31014 55051 70006==
12135,2022,07,27,07,00,AAXX 27071 12135 42781 62607 10171 20102 30126 40130 52004 86500==
12135,2022,07,27,08,00,AAXX 27081 12135 42682 62707 10173 20097 30130 40134 53006 86200==
12135,2022,07,27,09,00,AAXX 27091 12135 42582 72706 10173 20109 30135 40139 53011 872// 333 91011 90730 91111==
12135,2022,07,27,10,00,AAXX 27101 12135 41582 72505 10161 20121 30137 40141 52011 72522 873// 333 90710 91113==
12135,2022,07,27,11,00,AAXX 27111 12135 41482 72706 10162 20116 30140 40144 52010 72522 873// 333 90710 91114==
12135,2022,07,27,12,00,AAXX 27121 12135 11682 72607 10171 20111 30139 40143 50004 69901 70181 872// 333 91012 90760 91114==
12155,2022,07,25,06,00,AAXX 25061 12155 12/70 61902 10183 20155 30156 40167 57008 60002 81032 333 10186 20130 30012 55011==
12155,2022,07,25,07,00,AAXX 25071 12155 42970 62003 10214 20150 30151 40162 57012 80002==
12155,2022,07,25,08,00,AAXX 25081 12155 42970 61904 10234 20141 30146 40157 57013 80002==
12155,2022,07,25,09,00,AAXX 25091 12155 42970 61904 10245 20124 30144 40155 56012 80002==
12155,2022,07,25,10,00,AAXX 25101 12155 42970 31604 10259 20134 30140 40151 57011 80001==
12155,2022,07,25,11,00,AAXX 25111 12155 42970 31704 10270 20141 30135 40145 57011 80001==
12155,2022,07,25,12,00,AAXX 25121 12155 12970 61804 10274 20137 30128 40138 57016 60001 80002==
12155,2022,07,25,13,00,AAXX 25131 12155 42970 61705 10278 20133 30120 40130 57020 80002==
12155,2022,07,25,14,00,AAXX 25141 12155 42970 61705 10279 20138 30111 40121 57024 80002==
12155,2022,07,25,15,00,AAXX 25151 12155 42970 71605 10275 20155 30104 40114 57024 80006==
12155,2022,07,25,16,00,AAXX 25161 12155 42970 71406 10273 20150 30097 40107 57023 80008==
12155,2022,07,25,17,00,AAXX 25171 12155 42970 71406 10271 20151 30089 40099 57022 80008==
12155,2022,07,25,18,00,AAXX 25181 12155 12970 71405 10253 20159 30083 40093 57021 60002 80008 333 10283 20183==
12155,2022,07,25,19,00,AAXX 25191 12155 47/70 /1404 10224 20157 30082 40093 56015 781//==
12155,2022,07,25,20,00,AAXX 25201 12155 47/59 /1403 10207 20153 30079 40090 56010 761//==
12155,2022,07,25,21,00,AAXX 25211 12155 47/70 /1503 10198 20146 30077 40088 57006 781//==
12155,2022,07,25,22,00,AAXX 25221 12155 45/64 /1504 10189 20152 30071 40082 58011==
12155,2022,07,25,23,00,AAXX 25231 12155 45/70 /1604 10190 20149 30065 40076 58014==
12155,2022,07,26,00,00,AAXX 26001 12155 15/70 /1404 10196 20148 30056 40067 58021 69901==
12155,2022,07,26,01,00,AAXX 26011 12155 45/70 /1604 10194 20151 30054 40065 56017==
12155,2022,07,26,02,00,AAXX 26021 12155 45/70 /1803 10195 20149 30052 40063 56013==
12155,2022,07,26,03,00,AAXX 26031 12155 47/70 /1804 10200 20148 30053 40064 55003 761//==
12155,2022,07,26,04,00,AAXX 26041 12155 47/47 /2002 10184 20151 30064 40075 53010 783//==
12155,2022,07,26,05,00,AAXX 26051 12155 47/58 /2401 10182 20165 30056 40067 50004 723//==
12155,2022,07,26,06,00,AAXX 26061 12155 11540 72501 10182 20170 30070 40081 53017 60052 780// 873// 333 10253 20179 31017 55143 70049==
12155,2022,07,26,07,00,AAXX 26071 12155 41550 72202 10184 20176 30073 40084 53009 78088 873//==
12155,2022,07,26,08,00,AAXX 26081 12155 41560 72602 10182 20174 30077 40088 51021 72522 873//==
12155,2022,07,26,09,00,AAXX 26091 12155 41560 72601 10191 20183 30079 40090 52009 70282 873//==
12155,2022,07,26,10,00,AAXX 26101 12155 42564 72403 10204 20180 30081 40092 52008 872//==
12155,2022,07,26,11,00,AAXX 26111 12155 42565 52504 10232 20165 30082 40093 52005 85200==
12155,2022,07,26,12,00,AAXX 26121 12155 11567 62604 10234 20152 30084 40095 52005 60031 70382 86200==
12155,2022,07,26,13,00,AAXX 26131 12155 42570 60203 10219 20162 30086 40097 52005 86200==
12155,2022,07,26,14,00,AAXX 26141 12155 42580 60502 10220 20167 30088 40099 52006 86200==
12155,2022,07,26,15,00,AAXX 26151 12155 42580 60402 10220 20169 30088 40099 51004 85202==
12155,2022,07,26,16,00,AAXX 26161 12155 42680 70402 10210 20170 30090 40101 52004 86202==
12155,2022,07,26,17,00,AAXX 26171 12155 42680 60502 10206 20172 30092 40103 53004 84232==
12155,2022,07,26,18,00,AAXX 26181 12155 12680 73204 10200 20162 30099 40110 53011 60032 872// 333 10238 20180==
12155,2022,07,26,19,00,AAXX 26191 12155 45/70 /2906 10191 20126 30104 40115 53014 333 91011 90710 91111==
12155,2022,07,26,20,00,AAXX 26201 12155 45/70 /2906 10177 20110 30107 40118 51015==
12155,2022,07,26,21,00,AAXX 26211 12155 45/70 /2804 10164 20096 30113 40124 52014 333 90730 91111==
12155,2022,07,26,22,00,AAXX 26221 12155 45/70 /2804 10156 20097 30114 40125 52010==
12155,2022,07,26,23,00,AAXX 26231 12155 45/70 /2502 10138 20098 30118 40129 52011==
12155,2022,07,27,00,00,AAXX 27001 12155 15/70 /2002 10129 20097 30119 40130 52006 60001 333 90760 91111==
12155,2022,07,27,01,00,AAXX 27011 12155 45/70 /2302 10121 20097 30120 40131 51006==
12155,2022,07,27,02,00,AAXX 27021 12155 45/70 /2303 10117 20099 30119 40130 50001==
12155,2022,07,27,03,00,AAXX 27031 12155 45/70 /2303 10115 20097 30118 40129 58001==
12155,2022,07,27,04,00,AAXX 27041 12155 45/70 /2303 10116 20100 30120 40131 55000==
12155,2022,07,27,05,00,AAXX 27051 12155 45/70 /2402 10137 20114 30121 40132 53002==
12155,2022,07,27,06,00,AAXX 27061 12155 12680 32304 10163 20112 30123 40134 52005 60002 83500 333 10201 20112 31010 55034 70034==
12155,2022,07,27,07,00,AAXX 27071 12155 42580 32506 10178 20102 30123 40134 51003 83800==
12155,2022,07,27,08,00,AAXX 27081 12155 42580 42506 10186 20088 30125 40136 52004 83230 333 91011 90710 91111==
12155,2022,07,27,09,00,AAXX 27091 12155 42580 52506 10192 20082 30128 40139 53005 84230 333 90730 91111==
12155,2022,07,27,10,00,AAXX 27101 12155 42580 62606 10193 20098 30130 40141 52007 85230==
12155,2022,07,27,11,00,AAXX 27111 12155 42580 62406 10193 20098 30130 40141 51005 85230 333 90710 91110==
12155,2022,07,27,12,00,AAXX 27121 12155 12580 72706 10191 20093 30132 40143 52004 60001 872// 333 90760 91111==
12160,2022,07,25,06,00,AAXX 25061 12160 11970 52204 10176 20125 39952 40171 57005 60002 702// 81038 333 10177 20135 30013 55063 79999 91204 93000=
12160,2022,07,25,07,00,AAXX 25071 12160 42970 72304 10192 20131 39948 40166 57009 80006==
12160,2022,07,25,08,00,AAXX 25081 12160 42970 72104 10202 20139 39944 40161 58008 80008==
12160,2022,07,25,09,00,AAXX 25091 12160 42/70 72104 10218 20132 39944 40159 56008 81038==
12160,2022,07,25,10,00,AAXX 25101 12160 42970 61603 10228 20138 39943 40158 56005 80008==
12160,2022,07,25,11,00,AAXX 25111 12160 42970 41703 10237 20127 39937 40151 58007 80008==
12160,2022,07,25,12,00,AAXX 25121 12160 12970 41804 10245 20134 39931 40144 58013 60001 80008==
12160,2022,07,25,13,00,AAXX 25131 12160 42970 41603 10250 20135 39925 40138 57018 80008==
12160,2022,07,25,14,00,AAXX 25141 12160 45/70 /1604 10252 20131 39917 40129 57020==
12160,2022,07,25,15,00,AAXX 25151 12160 45/70 /1403 10251 20133 39912 40124 57019==
12160,2022,07,25,16,00,AAXX 25161 12160 45/70 /1302 10255 20149 39904 40116 57021==
12160,2022,07,25,17,00,AAXX 25171 12160 45/70 /1302 10244 20153 39899 40112 57018==
12160,2022,07,25,18,00,AAXX 25181 12160 15/70 /1302 10233 20154 39889 40102 57023 60002 333 10257 20176==
12160,2022,07,25,19,00,AAXX 25191 12160 45/70 /1502 10222 20151 39889 40103 56015==
12160,2022,07,25,20,00,AAXX 25201 12160 45/70 /1703 10221 20142 39886 40100 56013==
12160,2022,07,25,21,00,AAXX 25211 12160 45/70 /1704 10217 20131 39884 40098 58005==
12160,2022,07,25,22,00,AAXX 25221 12160 45/70 /1705 10209 20126 39878 40093 58011==
12160,2022,07,25,23,00,AAXX 25231 12160 45/70 /1705 10207 20129 39869 40084 58017==
12160,2022,07,26,00,00,AAXX 26001 12160 15/70 /1705 10212 20126 39863 40077 57021 60001==
12160,2022,07,26,01,00,AAXX 26011 12160 45/70 /1706 10212 20129 39859 40073 56019 333 90710 91110==
12160,2022,07,26,02,00,AAXX 26021 12160 45/70 /1805 10204 20126 39855 40070 57014==
12160,2022,07,26,03,00,AAXX 26031 12160 45/70 /1805 10201 20128 39854 40069 56009 333 90730 91110==
12160,2022,07,26,04,00,AAXX 26041 12160 45/70 /2005 10201 20128 39859 40074 55000==
12160,2022,07,26,05,00,AAXX 26051 12160 47/65 /2002 10178 20143 39859 40076 51004 762//==
12160,2022,07,26,06,00,AAXX 26061 12160 11465 71903 10171 20153 39861 40078 51007 60012 780// 873// 333 10233 20171 31017 55150 70014 90760 91110==
12160,2022,07,26,07,00,AAXX 26071 12160 41456 71802 10167 20157 39867 40085 53008 78182 873//==
12160,2022,07,26,08,00,AAXX 26081 12160 41460 72403 10170 20162 39871 40088 52012 72522 873//==
12160,2022,07,26,09,00,AAXX 26091 12160 41425 72602 10171 20166 39873 40090 51012 78082 873//==
12160,2022,07,26,10,00,AAXX 26101 12160 41460 72802 10175 20165 39879 40096 52012 72582 873//==
12160,2022,07,26,11,00,AAXX 26111 12160 42465 72403 10182 20165 39885 40102 53014 872//==
12160,2022,07,26,12,00,AAXX 26121 12160 11465 71902 10189 20165 39886 40102 51013 60041 70382 872//==
12160,2022,07,26,13,00,AAXX 26131 12160 42565 72004 10199 20169 39885 40101 50006 8523/==
12160,2022,07,26,14,00,AAXX 26141 12160 45/70 /2102 10204 20168 39884 40099 58001==
12160,2022,07,26,15,00,AAXX 26151 12160 45/70 /3202 10207 20155 39885 40100 55001==
12160,2022,07,26,16,00,AAXX 26161 12160 45/70 /3301 10210 20168 39884 40099 57001==
12160,2022,07,26,17,00,AAXX 26171 12160 45/70 /0102 10200 20162 39887 40103 52003==
12160,2022,07,26,18,00,AAXX 26181 12160 15/70 /0203 10180 20162 39892 40109 53007 60042 333 10212 20166==
12160,2022,07,26,19,00,AAXX 26191 12160 45/70 /0203 10175 20157 39895 40113 52011==
12160,2022,07,26,20,00,AAXX 26201 12160 47/70 /3103 10158 20136 39901 40120 52014 781// 333 90710 91109==
12160,2022,07,26,21,00,AAXX 26211 12160 45/70 /3004 10149 20115 39906 40126 52014 333 91009 90730 91109==
12160,2022,07,26,22,00,AAXX 26221 12160 45/70 /2702 10137 20103 39908 40129 51013==
12160,2022,07,26,23,00,AAXX 26231 12160 45/70 /2503 10126 20101 39909 40131 51008==
12160,2022,07,27,00,00,AAXX 27001 12160 15/70 /2403 10122 20099 39910 40132 52004 60021 333 90760 91109==
12160,2022,07,27,01,00,AAXX 27011 12160 45/70 /2403 10115 20097 39912 40135 52004==
12160,2022,07,27,02,00,AAXX 27021 12160 45/70 /2304 10113 20096 39910 40133 50001==
12160,2022,07,27,03,00,AAXX 27031 12160 45/70 /2203 10107 20096 39911 40134 52001==
12160,2022,07,27,04,00,AAXX 27041 12160 45/70 /2303 10113 20100 39913 40136 53001==
12160,2022,07,27,05,00,AAXX 27051 12160 45/70 /2304 10124 20103 39915 40137 52005==
12160,2022,07,27,06,00,AAXX 27061 12160 12470 22205 10139 20107 39917 40138 52006 60022 81230 333 10180 20107 31010 55028 70060==
12160,2022,07,27,07,00,AAXX 27071 12160 42470 22404 10155 20107 39917 40137 51004 81230==
12160,2022,07,27,08,00,AAXX 27081 12160 42570 52404 10162 20091 39920 40139 52005 85230==
12160,2022,07,27,09,00,AAXX 27091 12160 42570 72406 10167 20081 39923 40142 53006 8523/ 333 90730 91111==
12160,2022,07,27,10,00,AAXX 27101 12160 42570 72406 10174 20077 39924 40142 52007 8523/ 333 90710 91109==
12160,2022,07,27,11,00,AAXX 27111 12160 42570 72404 10173 20079 39925 40143 52005 872//==
12160,2022,07,27,12,00,AAXX 27121 12160 12670 72604 10182 20085 39925 40143 51002 60001 872// 333 90760 91111==
12185,2022,07,25,06,00,AAXX 25061 12185 11582 12303 10182 20143 30043 40174 58005 60002 700// 81101 333 10183 20130 30011 55048 70004 91203 96122 93000=
12185,2022,07,25,07,00,AAXX 25071 12185 42582 32603 10202 20139 30039 40169 58009 81101==
12185,2022,07,25,08,00,AAXX 25081 12185 42678 42502 10216 20130 30035 40164 57011 81101==
12185,2022,07,25,09,00,AAXX 25091 12185 42681 62001 10228 20121 30034 40163 56009 81106==
12185,2022,07,25,10,00,AAXX 25101 12185 42683 72402 10241 20130 30031 40159 57008 81108==
12185,2022,07,25,11,00,AAXX 25111 12185 42681 62603 10248 20124 30027 40155 58008 81108==
12185,2022,07,25,12,00,AAXX 25121 12185 12682 52203 10259 20134 30021 40148 58013 60001 81101==
12185,2022,07,25,13,00,AAXX 25131 12185 42680 41602 10264 20132 30017 40144 57014 81101==
12185,2022,07,25,14,00,AAXX 25141 12185 42680 42002 10262 20126 30009 40136 57018 81101==
12185,2022,07,25,15,00,AAXX 25151 12185 42783 41703 10260 20124 30004 40131 57017 81101==
12185,2022,07,25,16,00,AAXX 25161 12185 42782 51702 10267 20138 39999 40126 56018 81101==
12185,2022,07,25,17,00,AAXX 25171 12185 42981 41003 10247 20139 39995 40123 57014 80002==
12185,2022,07,25,18,00,AAXX 25181 12185 12984 51103 10230 20146 39989 40117 57015 60002 80002 333 10268 20181 91203 93000=
12185,2022,07,25,19,00,AAXX 25191 12185 45/82 /1103 10213 20147 39986 40115 57013==
12185,2022,07,25,20,00,AAXX 25201 12185 45/84 /1204 10201 20145 39983 40112 56012==
12185,2022,07,25,21,00,AAXX 25211 12185 45/84 /1304 10196 20146 39982 40112 57007==
12185,2022,07,25,22,00,AAXX 25221 12185 45/83 /1403 10184 20145 39984 40114 55002==
12185,2022,07,25,23,00,AAXX 25231 12185 45/83 /1404 10185 20142 39976 40106 58007==
12185,2022,07,26,00,00,AAXX 26001 12185 15/84 /1404 10180 20137 39971 40101 58011 60001==
12185,2022,07,26,01,00,AAXX 26011 12185 45/84 /1404 10186 20128 39962 40092 57022==
12185,2022,07,26,02,00,AAXX 26021 12185 45/84 /1303 10184 20128 39961 40091 56015==
12185,2022,07,26,03,00,AAXX 26031 12185 45/84 /1504 10180 20127 39958 40088 56013==
12185,2022,07,26,04,00,AAXX 26041 12185 45/82 /1403 10181 20130 39958 40088 56004==
12185,2022,07,26,05,00,AAXX 26051 12185 45/82 /1603 10199 20138 39954 40083 57007==
12185,2022,07,26,06,00,AAXX 26061 12185 12682 61403 10215 20149 39952 40080 58006 60002 84501 333 10230 20174 30017 55136==
12185,2022,07,26,07,00,AAXX 26071 12185 42/81 72004 10237 20144 39954 40081 55004 83038==
12185,2022,07,26,08,00,AAXX 26081 12185 42/81 71904 10258 20143 39953 40080 57001 84038==
12185,2022,07,26,09,00,AAXX 26091 12185 42/80 72804 10257 20142 39953 40080 51001 8707/==
12185,2022,07,26,10,00,AAXX 26101 12185 42/82 72903 10252 20152 39954 40081 55000 8707/==
12185,2022,07,26,11,00,AAXX 26111 12185 41582 72903 10239 20146 39959 40086 53006 72522 8337/==
12185,2022,07,26,12,00,AAXX 26121 12185 11580 83204 10223 20161 39963 40091 53010 69901 70182 8227/==
12185,2022,07,26,13,00,AAXX 26131 12185 42/81 83205 10192 20149 39970 40100 52016 8807/==
12185,2022,07,26,14,00,AAXX 26141 12185 42581 83103 10186 20145 39974 40104 52015 8227/==
12185,2022,07,26,15,00,AAXX 26151 12185 41575 83302 10176 20150 39974 40104 51011 78022 889//==
12185,2022,07,26,16,00,AAXX 26161 12185 41567 83201 10173 20149 39976 40107 52006 78082 889//==
12185,2022,07,26,17,00,AAXX 26171 12185 41570 71301 10168 20153 39976 40107 52002 78088 879//==
12185,2022,07,26,18,00,AAXX 26181 12185 11564 71601 10165 20154 39979 40110 52005 69952 78022 85908 333 10264 20165==
12185,2022,07,26,19,00,AAXX 26191 12185 47/61 /1801 10162 20152 39981 40112 53005 722//==
12185,2022,07,26,20,00,AAXX 26201 12185 45/61 /1501 10159 20149 39981 40112 51005==
12185,2022,07,26,21,00,AAXX 26211 12185 47/66 /1201 10161 20151 39980 40111 50001 751//==
12185,2022,07,26,22,00,AAXX 26221 12185 47/59 /3203 10162 20152 39988 40119 53007 752// 333 90710 91107==
12185,2022,07,26,23,00,AAXX 26231 12185 47/74 /2902 10157 20144 39992 40124 53011 781//==
12185,2022,07,27,00,00,AAXX 27001 12185 17/78 /2902 10154 20139 39993 40125 51013 60041 781// 333 90760 91107==
12185,2022,07,27,01,00,AAXX 27011 12185 47/81 /2902 10147 20131 39994 40126 51006 781//==
12185,2022,07,27,02,00,AAXX 27021 12185 45/79 /2802 10137 20121 39994 40126 51002==
12185,2022,07,27,03,00,AAXX 27031 12185 45/71 /2501 10127 20116 39995 40128 52002==
12185,2022,07,27,04,00,AAXX 27041 12185 45/79 /2602 10129 20115 39998 40131 53004==
12185,2022,07,27,05,00,AAXX 27051 12185 45/75 /2603 10142 20119 30000 40132 52006==
12185,2022,07,27,06,00,AAXX 27061 12185 12977 02604 10157 20124 30003 40135 52008 60042 333 10165 20124 31011 55044 70046==
12185,2022,07,27,07,00,AAXX 27071 12185 42578 12606 10172 20106 30004 40135 52006 81200==
12185,2022,07,27,08,00,AAXX 27081 12185 42579 32505 10183 20099 30005 40136 52005 83200==
12185,2022,07,27,09,00,AAXX 27091 12185 42680 42805 10192 20097 30009 40139 53006 84200 333 91010 90730 91110==
12185,2022,07,27,10,00,AAXX 27101 12185 42682 62805 10199 20092 30010 40140 52006 86200 333 90710 91111==
12185,2022,07,27,11,00,AAXX 27111 12185 42680 63005 10202 20082 30010 40140 51005 86200==
12185,2022,07,27,12,00,AAXX 27121 12185 12680 52805 10202 20079 30009 40139 50000 60001 84230 333 90760 91111==
12195,2022,07,25,06,00,AAXX 25061 12195 11374 62602 10160 20142 39956 40178 57002 60002 701// 8563/ 333 10170 20125 31010 55038 70004 91202 93000=
12195,2022,07,25,07,00,AAXX 25071 12195 42481 42802 10173 20136 39955 40175 57003 84200==
12195,2022,07,25,08,00,AAXX 25081 12195 42581 52902 10181 20136 39952 40172 58004 85200==
12195,2022,07,25,09,00,AAXX 25091 12195 42578 42602 10202 20132 39950 40168 57006 84201==
12195,2022,07,25,10,00,AAXX 25101 12195 42580 42303 10212 20126 39948 40165 57007 84201==
12195,2022,07,25,11,00,AAXX 25111 12195 42679 42502 10222 20130 39944 40161 57008 82101==
12195,2022,07,25,12,00,AAXX 25121 12195 12676 42302 10226 20128 39940 40156 57010 60001 81101==
12195,2022,07,25,13,00,AAXX 25131 12195 42681 42602 10233 20129 39935 40151 57013 81101==
12195,2022,07,25,14,00,AAXX 25141 12195 42680 42202 10229 20128 39931 40147 57013 82101==
12195,2022,07,25,15,00,AAXX 25151 12195 42680 42601 10237 20130 39926 40141 57014 81131==
12195,2022,07,25,16,00,AAXX 25161 12195 42681 32402 10236 20137 39923 40138 57012 81102==
12195,2022,07,25,17,00,AAXX 25171 12195 42982 32502 10232 20131 39919 40134 57012 80002==
12195,2022,07,25,18,00,AAXX 25181 12195 12983 21401 10218 20142 39916 40132 57010 60002 80002 333 10243 20160==
12195,2022,07,25,19,00,AAXX 25191 12195 42981 21401 10191 20139 39912 40130 57011 80002==
12195,2022,07,25,20,00,AAXX 25201 12195 42981 01401 10176 20143 39910 40129 57009==
12195,2022,07,25,21,00,AAXX 25211 12195 45/82 /1302 10168 20143 39909 40129 56007==
12195,2022,07,25,22,00,AAXX 25221 12195 45/82 /1301 10164 20139 39910 40130 55002==
12195,2022,07,25,23,00,AAXX 25231 12195 45/83 /1401 10161 20138 39906 40126 58004==
12195,2022,07,26,00,00,AAXX 26001 12195 15/81 /1302 10154 20134 39901 40122 58008 60001==
12195,2022,07,26,01,00,AAXX 26011 12195 45/78 /1502 10148 20133 39894 40115 58016==
12195,2022,07,26,02,00,AAXX 26021 12195 45/81 /1402 10150 20134 39892 40113 56014==
12195,2022,07,26,03,00,AAXX 26031 12195 45/81 /1502 10148 20130 39893 40114 55008==
12195,2022,07,26,04,00,AAXX 26041 12195 45/81 /1502 10161 20136 39887 40107 58007==
12195,2022,07,26,05,00,AAXX 26051 12195 42/81 21502 10181 20142 39884 40102 58008 81031==
12195,2022,07,26,06,00,AAXX 26061 12195 12/80 21604 10202 20143 39881 40098 56012 60002 81030 333 10218 20147 30012 55103==
12195,2022,07,26,07,00,AAXX 26071 12195 42/81 21803 10219 20140 39878 40093 57009 81031==
12195,2022,07,26,08,00,AAXX 26081 12195 42/80 31704 10233 20146 39879 40093 55005 82031==
12195,2022,07,26,09,00,AAXX 26091 12195 42/74 31803 10245 20151 39878 40091 57003 82031==
12195,2022,07,26,10,00,AAXX 26101 12195 42/80 41703 10249 20150 39877 40090 58001 82031==
12195,2022,07,26,11,00,AAXX 26111 12195 42676 61803 10252 20143 39875 40088 57004 8115/==
12195,2022,07,26,12,00,AAXX 26121 12195 12/81 81803 10245 20146 39873 40086 57005 60001 8807/==
12195,2022,07,26,13,00,AAXX 26131 12195 41/80 82102 10243 20160 39872 40085 57005 72522 8807/==
12195,2022,07,26,14,00,AAXX 26141 12195 42/81 82302 10246 20155 39871 40084 57004 8803/==
12195,2022,07,26,15,00,AAXX 26151 12195 41681 82202 10245 20154 39870 40083 57003 70382 8113/==
12195,2022,07,26,16,00,AAXX 26161 12195 41480 83204 10208 20170 39877 40093 53005 72522 885// 333 90710 91109==
12195,2022,07,26,17,00,AAXX 26171 12195 42783 83304 10177 20140 39883 40102 53012 8553/==
12195,2022,07,26,18,00,AAXX 26181 12195 11780 83002 10173 20138 39886 40105 51016 69902 76082 885// 333 10255 20173 90760 91109==
12195,2022,07,26,19,00,AAXX 26191 12195 41667 83202 10159 20139 39889 40109 51012 78086 889//==
12195,2022,07,26,20,00,AAXX 26201 12195 41/64 83301 10156 20143 39890 40110 52007 76186 8802/==
12195,2022,07,26,21,00,AAXX 26211 12195 47762 /3101 10154 20143 39892 40113 52006 761//==
12195,2022,07,26,22,00,AAXX 26221 12195 47957 /1401 10154 20146 39896 40117 53007 762//==
12195,2022,07,26,23,00,AAXX 26231 12195 47950 /0000 10154 20146 39897 40118 52007 762//==
12195,2022,07,27,00,00,AAXX 27001 12195 17450 /0000 10153 20147 39897 40118 51005 60061 762//==
12195,2022,07,27,01,00,AAXX 27011 12195 47557 /2801 10155 20150 39898 40119 52002 723//==
12195,2022,07,27,02,00,AAXX 27021 12195 45469 /2802 10153 20145 39899 40120 53002==
12195,2022,07,27,03,00,AAXX 27031 12195 47866 /2902 10149 20141 39898 40119 50001 781//==
12195,2022,07,27,04,00,AAXX 27041 12195 45680 /2702 10145 20134 39901 40122 52003==
12195,2022,07,27,05,00,AAXX 27051 12195 42680 62703 10146 20133 39904 40125 53005 865//==
12195,2022,07,27,06,00,AAXX 27061 12195 12480 22804 10160 20127 39908 40128 52010 60072 81130 333 10173 20145 31014 55062 70071==
12195,2022,07,27,07,00,AAXX 27071 12195 42579 52804 10168 20115 39911 40131 52010 85200==
12195,2022,07,27,08,00,AAXX 27081 12195 42580 42903 10181 20123 39910 40129 50006 84200==
12195,2022,07,27,09,00,AAXX 27091 12195 42582 43003 10178 20104 39913 40132 52005 84200==
12195,2022,07,27,10,00,AAXX 27101 12195 42580 42605 10190 20100 39917 40135 53006 84200==
12195,2022,07,27,11,00,AAXX 27111 12195 42680 52904 10185 20090 39919 40138 52009 85100==
12195,2022,07,27,12,00,AAXX 27121 12195 12678 42604 10204 20093 39920 40137 51007 60001 84100==
12200,2022,07,25,06,00,AAXX 25061 12200 11984 01703 10214 20120 30125 40132 58017 60002 702// 333 10240 20182 30016 55106 91204 93000=
12200,2022,07,25,07,00,AAXX 25071 12200 42981 01604 10234 20124 30117 40124 57023==
12200,2022,07,25,08,00,AAXX 25081 12200 42982 01604 10257 20132 30110 40117 57023==
12200,2022,07,25,09,00,AAXX 25091 12200 42981 21604 10277 20136 30104 40111 56021 80004==
12200,2022,07,25,10,00,AAXX 25101 12200 42581 51504 10293 20135 30097 40104 57020 82504 333 91010 90710 91110==
12200,2022,07,25,11,00,AAXX 25111 12200 42682 51604 10305 20142 30088 40095 58022 83504 333 90710 91110==
12200,2022,07,25,12,00,AAXX 25121 12200 12980 41504 10325 20146 30076 40083 58028 60001 80004 333 90760 91110==
12200,2022,07,25,13,00,AAXX 25131 12200 42682 61703 10322 20143 30069 40076 57028 84502 333 90710 91110==
12200,2022,07,25,14,00,AAXX 25141 12200 42681 61703 10339 20144 30060 40067 56028 84502 333 90710 91109==
12200,2022,07,25,15,00,AAXX 25151 12200 42682 62003 10325 20155 30053 40060 57023 84510 333 90730 91110==
12200,2022,07,25,16,00,AAXX 25161 12200 42/82 71903 10324 20145 30041 40048 58028 8701/==
12200,2022,07,25,17,00,AAXX 25171 12200 41481 72002 10301 20158 30041 40048 56019 71722 879//==
12200,2022,07,25,18,00,AAXX 25181 12200 11560 70000 10222 20212 30051 40058 55002 60022 79581 879// 333 10341 20214 91111 91205 93002=
12200,2022,07,25,19,00,AAXX 25191 12200 41458 71303 10213 20210 30048 40055 50007 79582 879//==
12200,2022,07,25,20,00,AAXX 25201 12200 41560 62702 10209 20209 30067 40074 53026 71782 86900==
12200,2022,07,25,21,00,AAXX 25211 12200 47/57 /3005 10201 20201 30070 40077 53019 781// 333 90730 91111==
12200,2022,07,25,22,00,AAXX 25221 12200 47/72 /3105 10192 20187 30074 40081 51026 722//==
12200,2022,07,25,23,00,AAXX 25231 12200 47/60 /3004 10178 20173 30080 40087 53013 781//==
12200,2022,07,26,00,00,AAXX 26001 12200 17/49 /2302 10176 20176 30080 40087 51010 60061 723// 333 90760 91111==
12200,2022,07,26,01,00,AAXX 26011 12200 45/62 /2303 10174 20174 30079 40086 50005==
12200,2022,07,26,02,00,AAXX 26021 12200 45/60 /2303 10173 20173 30079 40086 57001==
12200,2022,07,26,03,00,AAXX 26031 12200 45/60 /2403 10166 20166 30082 40089 53002==
12200,2022,07,26,04,00,AAXX 26041 12200 45/71 /2403 10161 20161 30082 40089 52003==
12200,2022,07,26,05,00,AAXX 26051 12200 42976 22403 10169 20167 30083 40090 52004 80001==
12200,2022,07,26,06,00,AAXX 26061 12200 12980 22503 10181 20168 30083 40090 52001 60062 80001 333 10222 20161 31016 55102 70079 91008 90760 91108==
12200,2022,07,26,07,00,AAXX 26071 12200 42481 52504 10193 20163 30088 40095 53006 85200 333 90710 91108==
12200,2022,07,26,08,00,AAXX 26081 12200 42482 32603 10199 20157 30090 40097 53007 83200 333 91008 90710 91109==
12200,2022,07,26,09,00,AAXX 26091 12200 42482 42504 10205 20148 30094 40101 52011 84300 333 90730 91109==
12200,2022,07,26,10,00,AAXX 26101 12200 42481 42404 10218 20152 30096 40103 52008 84200 333 90710 91109==
12200,2022,07,26,11,00,AAXX 26111 12200 41462 63006 10191 20160 30104 40111 53014 78011 86300 333 90710 91111==
12200,2022,07,26,12,00,AAXX 26121 12200 11482 53108 10200 20146 30108 40115 52014 69941 72511 85300 333 90760 91112==
12200,2022,07,26,13,00,AAXX 26131 12200 42482 53007 10199 20119 30113 40120 51017 85300 333 91012 90710 91112==
12200,2022,07,26,14,00,AAXX 26141 12200 42483 43005 10204 20119 30117 40124 52013 84200 333 91010 90710 91111==
12200,2022,07,26,15,00,AAXX 26151 12200 42480 23107 10208 20106 30121 40128 52013 82200 333 91012 90730 91112==
12200,2022,07,26,16,00,AAXX 26161 12200 42480 23006 10204 20099 30124 40131 52011 82200 333 91011 90710 91112==
12200,2022,07,26,17,00,AAXX 26171 12200 42479 23108 10198 20082 30125 40132 51008 82200 333 90710 91109==
12200,2022,07,26,18,00,AAXX 26181 12200 12/82 32905 10187 20089 30128 40135 52007 69942 82031 333 10232 20181 90760 91112==
12200,2022,07,26,19,00,AAXX 26191 12200 42/83 22903 10170 20089 30132 40139 53008 82030 333 90710 91109==
12200,2022,07,26,20,00,AAXX 26201 12200 42/83 43004 10162 20089 30138 40145 53013 84030==
12200,2022,07,26,21,00,AAXX 26211 12200 45/82 /2803 10153 20090 30139 40146 51011 333 90730 91109==
12200,2022,07,26,22,00,AAXX 26221 12200 45/82 /2703 10142 20088 30141 40148 51009==
12200,2022,07,26,23,00,AAXX 26231 12200 45/82 /2402 10132 20093 30142 40149 52004==
12200,2022,07,27,00,00,AAXX 27001 12200 15/83 /2503 10127 20082 30140 40148 50001 60001 333 90760 91109==
12200,2022,07,27,01,00,AAXX 27011 12200 45/84 /2403 10123 20082 30141 40149 54000==
12200,2022,07,27,02,00,AAXX 27021 12200 45/84 /2403 10118 20083 30140 40148 57002==
12200,2022,07,27,03,00,AAXX 27031 12200 45/83 /2304 10117 20085 30139 40147 58001==
12200,2022,07,27,04,00,AAXX 27041 12200 45/83 /2503 10120 20088 30141 40149 55000==
12200,2022,07,27,05,00,AAXX 27051 12200 42684 62303 10129 20095 30141 40148 51001 86500==
12200,2022,07,27,06,00,AAXX 27061 12200 12782 62304 10142 20100 30144 40151 52005 60002 84530 333 10187 20116 31010 55097 70004 91009 90760 91109==
12200,2022,07,27,07,00,AAXX 27071 12200 42782 62504 10158 20101 30145 40152 53004 86500 333 90710 91108==
12200,2022,07,27,08,00,AAXX 27081 12200 42781 62704 10162 20089 30148 40155 52007 86500 333 90710 91109==
12200,2022,07,27,09,00,AAXX 27091 12200 42782 62803 10156 20090 30152 40159 53008 86500 333 90730 91111==
12200,2022,07,27,10,00,AAXX 27101 12200 42782 62605 10166 20088 30152 40159 51007 86500 333 91012 90710 91112==
12200,2022,07,27,11,00,AAXX 27111 12200 42784 52505 10175 20096 30153 40160 51005 85500 333 91011 90710 91111==
12200,2022,07,27,12,00,AAXX 27121 12200 12782 62603 10172 20091 30153 40160 52001 60001 86500 333 90760 91112==
12205,2022,07,25,06,00,AAXX 25061 12205 11981 20801 10219 20113 30131 40140 56035 60002 701// 80002 333 10244 20159 30012 55145 91203 93000=
12205,2022,07,25,07,00,AAXX 25071 12205 42981 21506 10243 20106 30124 40133 57019 80002==
12205,2022,07,25,08,00,AAXX 25081 12205 42981 21506 10269 20106 30118 40127 57019 80002==
12205,2022,07,25,09,00,AAXX 25091 12205 42978 01506 10290 20115 30111 40120 57020==
12205,2022,07,25,10,00,AAXX 25101 12205 42980 01706 10307 20116 30103 40111 58021 333 90710 91111==
12205,2022,07,25,11,00,AAXX 25111 12205 42981 21706 10313 20117 30094 40102 58024 80001 333 90710 91113==
12205,2022,07,25,12,00,AAXX 25121 12205 12980 31506 10328 20129 30083 40091 58028 60001 80001 333 91011 90760 91113==
12205,2022,07,25,13,00,AAXX 25131 12205 42680 31904 10332 20133 30075 40083 57028 81101 333 90710 91111==
12205,2022,07,25,14,00,AAXX 25141 12205 42680 42003 10325 20146 30067 40075 56027 83201 333 90710 91111==
12205,2022,07,25,15,00,AAXX 25151 12205 42681 41706 10333 20134 30059 40067 57024 83201 333 90730 91111==
12205,2022,07,25,16,00,AAXX 25161 12205 42680 41805 10329 20140 30048 40056 58027 83201==
12205,2022,07,25,17,00,AAXX 25171 12205 42780 51604 10313 20136 30042 40050 57025 85300==
12205,2022,07,25,18,00,AAXX 25181 12205 11570 72404 10283 20159 30049 40058 55010 69932 79581 879// 333 10338 20219 91009 90760 91111==
12205,2022,07,25,19,00,AAXX 25191 12205 41568 71203 10219 20200 30052 40061 53004 72982 879// 333 90710 91112==
12205,2022,07,25,20,00,AAXX 25201 12205 41570 71508 10219 20181 30054 40063 51012 72582 879//==
12205,2022,07,25,21,00,AAXX 25211 12205 45977 /2302 10213 20185 30066 40075 53017 333 90730 91112==
12205,2022,07,25,22,00,AAXX 25221 12205 45470 /2904 10214 20188 30071 40080 53019==
12205,2022,07,25,23,00,AAXX 25231 12205 45673 /2906 10202 20176 30071 40080 51017==
12205,2022,07,26,00,00,AAXX 26001 12205 17941 /2502 10183 20171 30071 40080 51005 60071 763// 333 90760 91112==
12205,2022,07,26,01,00,AAXX 26011 12205 47968 /2803 10178 20170 30071 40080 54000 781//==
12205,2022,07,26,02,00,AAXX 26021 12205 47966 /2302 10176 20170 30084 40093 53013 723//==
12205,2022,07,26,03,00,AAXX 26031 12205 47959 /2203 10176 20171 30087 40096 53016 710//==
12205,2022,07,26,04,00,AAXX 26041 12205 45/63 /2203 10172 20166 30087 40096 51016==
12205,2022,07,26,05,00,AAXX 26051 12205 42966 52203 10178 20170 30086 40095 50002 80002==
12205,2022,07,26,06,00,AAXX 26061 12205 12469 62303 10188 20176 30090 40099 53003 60092 81132 333 10283 20172 31017 55120 70088==
12205,2022,07,26,07,00,AAXX 26071 12205 42473 62503 10199 20167 30093 40102 53006 83202==
12205,2022,07,26,08,00,AAXX 26081 12205 42580 62504 10199 20155 30096 40105 52010 83200==
12205,2022,07,26,09,00,AAXX 26091 12205 42580 62305 10211 20150 30100 40109 52010 83202==
12205,2022,07,26,10,00,AAXX 26101 12205 42681 62305 10219 20148 30100 40109 51007 86200==
12205,2022,07,26,11,00,AAXX 26111 12205 42680 72705 10214 20148 30104 40113 52008 873//==
12205,2022,07,26,12,00,AAXX 26121 12205 12781 72504 10214 20143 30105 40114 53005 60001 873//==
12205,2022,07,26,13,00,AAXX 26131 12205 42780 73005 10202 20150 30112 40121 53012 873// 333 91010 90710 91110==
12205,2022,07,26,14,00,AAXX 26141 12205 41681 72802 10188 20155 30119 40128 53015 72522 873// 333 90710 91110==
12205,2022,07,26,15,00,AAXX 26151 12205 41681 73102 10204 20145 30121 40130 51016 70182 875// 333 90730 91110==
12205,2022,07,26,16,00,AAXX 26161 12205 42681 73203 10208 20132 30121 40130 51009 875// 333 91008 90710 91109==
12205,2022,07,26,17,00,AAXX 26171 12205 42681 63004 10207 20116 30122 40131 52003 86500==
12205,2022,07,26,18,00,AAXX 26181 12205 11781 53203 10202 20106 30125 40134 53004 69902 70182 85500 333 10222 20186 90760 91110==
12205,2022,07,26,19,00,AAXX 26191 12205 42781 53502 10189 20112 30130 40139 53009 85500==
12205,2022,07,26,20,00,AAXX 26201 12205 42781 63302 10176 20107 30136 40145 53014 86500==
12205,2022,07,26,21,00,AAXX 26211 12205 45780 /3102 10169 20100 30140 40149 52015==
12205,2022,07,26,22,00,AAXX 26221 12205 45/77 /3102 10163 20095 30145 40154 52015 333 91007 90710 91107==
12205,2022,07,26,23,00,AAXX 26231 12205 45/78 /2402 10139 20099 30145 40154 51009==
12205,2022,07,27,00,00,AAXX 27001 12205 15/79 /2303 10127 20095 30146 40155 51006 60001 333 90760 91107==
12205,2022,07,27,01,00,AAXX 27011 12205 45/80 /2402 10122 20087 30147 40156 53002==
12205,2022,07,27,02,00,AAXX 27021 12205 45980 /2402 10116 20090 30148 40157 52003==
12205,2022,07,27,03,00,AAXX 27031 12205 45980 /2403 10111 20083 30146 40155 50000==
12205,2022,07,27,04,00,AAXX 27041 12205 45980 /2302 10115 20091 30148 40157 52001==
12205,2022,07,27,05,00,AAXX 27051 12205 42/81 72402 10125 20095 30147 40156 57001 8707/==
12205,2022,07,27,06,00,AAXX 27061 12205 12/81 62503 10139 20101 30151 40160 52005 60002 84031 333 10203 20110 31009 55056==
12205,2022,07,27,07,00,AAXX 27071 12205 42680 62604 10158 20101 30152 40161 53004 81130==
12205,2022,07,27,08,00,AAXX 27081 12205 42681 72604 10166 20095 30153 40162 51006 8323/==
12205,2022,07,27,09,00,AAXX 27091 12205 42681 72605 10164 20086 30157 40166 53006 8523/==
12205,2022,07,27,10,00,AAXX 27101 12205 42680 72704 10171 20077 30157 40166 51005 8523/==
12205,2022,07,27,11,00,AAXX 27111 12205 42681 72605 10173 20082 30157 40166 51004 875// 333 91010 90710 91110==
12205,2022,07,27,12,00,AAXX 27121 12205 12681 72304 10178 20092 30157 40166 54000 60001 875// 333 90760 91110==
12210,2022,07,25,06,00,AAXX 25061 12210 15/70 /1503 10203 20118 30084 40146 58013 60002 333 10223 20128 3/012 55080 91203 91302 93000=
12210,2022,07,25,07,00,AAXX 25071 12210 45/70 /1504 10237 20114 30076 40138 57019==
12210,2022,07,25,08,00,AAXX 25081 12210 45/70 /1704 10256 20106 30069 40130 57020==
12210,2022,07,25,09,00,AAXX 25091 12210 45/70 /1505 10271 20107 30065 40126 56019==
12210,2022,07,25,10,00,AAXX 25101 12210 45/70 /1606 10281 20103 30060 40121 57016 333 91011 90710 91111==
12210,2022,07,25,11,00,AAXX 25111 12210 45/70 /1606 10293 20099 30052 40112 58017 333 90710 91110==
12210,2022,07,25,12,00,AAXX 25121 12210 15/70 /1505 10302 20107 30041 40101 58024 60001 333 90760 91111==
12210,2022,07,25,13,00,AAXX 25131 12210 45/70 /1505 10302 20107 30032 40092 57028 333 90710 91109==
12210,2022,07,25,14,00,AAXX 25141 12210 45/70 /1505 10310 20114 30024 40084 56028 333 91010 90710 91110==
12210,2022,07,25,15,00,AAXX 25151 12210 45/70 /1405 10316 20119 30015 40075 57026 333 90730 91110==
12210,2022,07,25,16,00,AAXX 25161 12210 45/70 /1405 10314 20112 30005 40065 58027 333 90710 91110==
12210,2022,07,25,17,00,AAXX 25171 12210 45/70 /1503 10301 20121 39997 40057 57027 333 90710 91109==
12210,2022,07,25,18,00,AAXX 25181 12210 15/70 /1402 10285 20124 39995 40055 56020 60002 333 10319 20203 90760 91110==
12210,2022,07,25,19,00,AAXX 25191 12210 47/62 /2608 10235 20168 30012 40073 53007 761// 333 91015 90710 91115==
12210,2022,07,25,20,00,AAXX 25201 12210 47/70 /1103 10206 20180 30008 40070 52011 723//==
12210,2022,07,25,21,00,AAXX 25211 12210 47/70 /1603 10215 20169 30006 40068 50011 781// 333 90730 91115==
12210,2022,07,25,22,00,AAXX 25221 12210 45/70 /2303 10194 20172 30007 40069 55005==
12210,2022,07,25,23,00,AAXX 25231 12210 45/70 /2702 10185 20173 30012 40074 53004==
12210,2022,07,26,00,00,AAXX 26001 12210 15/70 /3006 10186 20167 30013 40075 52007 60011 333 90760 91115==
12210,2022,07,26,01,00,AAXX 26011 12210 47/58 /2602 10175 20167 30021 40084 53014 762//==
12210,2022,07,26,02,00,AAXX 26021 12210 47/66 /2403 10173 20167 30022 40085 52010 781//==
12210,2022,07,26,03,00,AAXX 26031 12210 47/70 /2002 10168 20162 30025 40088 51012 723//==
12210,2022,07,26,04,00,AAXX 26041 12210 45/70 /2403 10168 20162 30025 40088 51004==
12210,2022,07,26,05,00,AAXX 26051 12210 45/66 /2103 10168 20160 30030 40093 52008==
12210,2022,07,26,06,00,AAXX 26061 12210 15/70 /2304 10176 20163 30030 40093 52005 60112 333 10285 20165 3/017 55127 70108==
12210,2022,07,26,07,00,AAXX 26071 12210 45/70 /2504 10182 20162 30035 40098 52010==
12210,2022,07,26,08,00,AAXX 26081 12210 45/70 /2405 10194 20153 30038 40100 53008==
12210,2022,07,26,09,00,AAXX 26091 12210 45/70 /2505 10202 20146 30040 40102 51010==
12210,2022,07,26,10,00,AAXX 26101 12210 47/70 /2605 10214 20143 30043 40105 52008 723//==
12210,2022,07,26,11,00,AAXX 26111 12210 47/70 /2305 10209 20141 30047 40109 53009 721//==
12210,2022,07,26,12,00,AAXX 26121 12210 15/70 /2304 10222 20151 30047 40109 51007 69901==
12210,2022,07,26,13,00,AAXX 26131 12210 47/70 /3005 10180 20153 30054 40117 53011 781// 333 90710 91111==
12210,2022,07,26,14,00,AAXX 26141 12210 47/70 /3004 10178 20147 30060 40123 53013 781//==
12210,2022,07,26,15,00,AAXX 26151 12210 47/70 /2905 10183 20129 30064 40127 51017 721// 333 90730 91111==
12210,2022,07,26,16,00,AAXX 26161 12210 45/70 /3005 10187 20122 30064 40127 51010==
12210,2022,07,26,17,00,AAXX 26171 12210 45/70 /3004 10190 20103 30067 40130 52007==
12210,2022,07,26,18,00,AAXX 26181 12210 15/70 /3005 10180 20085 30071 40134 53007 69912 333 10223 20176 90760 91111==
12210,2022,07,26,19,00,AAXX 26191 12210 45/70 /3002 10159 20086 30074 40137 52010==
12210,2022,07,26,20,00,AAXX 26201 12210 45/70 /2801 10130 20094 30079 40143 52012==
12210,2022,07,26,21,00,AAXX 26211 12210 45/70 /2502 10130 20094 30080 40144 52009==
12210,2022,07,26,22,00,AAXX 26221 12210 45/70 /2503 10127 20093 30083 40147 52009==
12210,2022,07,26,23,00,AAXX 26231 12210 45/70 /2403 10118 20088 30082 40146 50003==
12210,2022,07,27,00,00,AAXX 27001 12210 15/70 /2303 10117 20089 30082 40146 51002 69911 333 91204 91302 93091=
12210,2022,07,27,01,00,AAXX 27011 12210 45/70 /2103 10112 20088 30083 40147 55000==
12210,2022,07,27,02,00,AAXX 27021 12210 45/70 /2103 10100 20084 30082 40147 54000==
12210,2022,07,27,03,00,AAXX 27031 12210 45/70 /2203 10101 20085 30083 40148 52001==
12210,2022,07,27,04,00,AAXX 27041 12210 45/70 /2203 10102 20085 30083 40148 54000==
12210,2022,07,27,05,00,AAXX 27051 12210 45/70 /2304 10121 20091 30084 40148 52002==
12210,2022,07,27,06,00,AAXX 27061 12210 15/70 /2303 10129 20099 30088 40152 53005 69912 333 10180 20098 3/009 55069 70002==
12210,2022,07,27,07,00,AAXX 27071 12210 45/70 /2204 10138 20104 30091 40155 52008==
12210,2022,07,27,08,00,AAXX 27081 12210 45/70 /2404 10155 20103 30092 40156 51008==
12210,2022,07,27,09,00,AAXX 27091 12210 45/70 /2605 10167 20091 30093 40156 52005==
12210,2022,07,27,10,00,AAXX 27101 12210 45/70 /2405 10162 20094 30096 40159 52005==
12210,2022,07,27,11,00,AAXX 27111 12210 45/70 /2303 10163 20097 30098 40161 52006 333 90710 91111==
12210,2022,07,27,12,00,AAXX 27121 12210 15/70 /2405 10172 20091 30099 40162 51006 69911 333 90760 91111==
12215,2022,07,25,06,00,AAXX 25061 12215 16/// /9902 10190 20135 39994 40161 57010 60002 333 10205 20117 3/011 55000 70000=
12215,2022,07,25,07,00,AAXX 25071 12215 46/// /0004 10219 20127 39987 40153 57015==
12215,2022,07,25,08,00,AAXX 25081 12215 46/// /1705 10241 20116 39983 40147 57014==
12215,2022,07,25,09,00,AAXX 25091 12215 46/// /1705 10257 20102 39978 40142 57016==
12215,2022,07,25,10,00,AAXX 25101 12215 46/// /1605 10273 20095 39974 40137 57013==
12215,2022,07,25,11,00,AAXX 25111 12215 46/// /1704 10280 20098 39967 40129 57016==
12215,2022,07,25,12,00,AAXX 25121 12215 16/// /1705 10290 20100 39957 40118 57021 60001==
12215,2022,07,25,13,00,AAXX 25131 12215 46/// /1605 10297 20095 39948 40109 57026==
12215,2022,07,25,14,00,AAXX 25141 12215 46/// /1705 10301 20091 39941 40101 57027==
12215,2022,07,25,15,00,AAXX 25151 12215 46/// /1705 10301 20098 39933 40093 57024==
12215,2022,07,25,16,00,AAXX 25161 12215 46/// /0004 10292 20095 39927 40088 57021==
12215,2022,07,25,17,00,AAXX 25171 12215 46/// /1504 10292 20095 39918 40079 57022==
12215,2022,07,25,18,00,AAXX 25181 12215 16/// /1504 10261 20094 39913 40075 57020 60002 333 10307 20190=
12215,2022,07,25,19,00,AAXX 25191 12215 46/// /1403 10242 20100 39911 40074 57017==
12215,2022,07,25,20,00,AAXX 25201 12215 46/// /1504 10236 20101 39910 40074 57008==
12215,2022,07,25,21,00,AAXX 25211 12215 46/// /1404 10232 20105 39906 40070 57007==
12215,2022,07,25,22,00,AAXX 25221 12215 46/// /1902 10232 20112 39910 40074 54000==
12215,2022,07,25,23,00,AAXX 25231 12215 46/// /1401 10193 20141 39899 40065 57012==
12215,2022,07,26,00,00,AAXX 26001 12215 16/// /0001 10182 20140 39901 40067 57006 60001==
12215,2022,07,26,01,00,AAXX 26011 12215 46/// /0003 10200 20162 39907 40073 57003==
12215,2022,07,26,02,00,AAXX 26021 12215 46/// /0002 10191 20169 39912 40078 52013==
12215,2022,07,26,03,00,AAXX 26031 12215 46/// /0003 10181 20161 39921 40088 52020==
12215,2022,07,26,04,00,AAXX 26041 12215 46/// /0001 10167 20157 39922 40090 52015==
12215,2022,07,26,05,00,AAXX 26051 12215 46/// /0002 10171 20162 39919 40087 52007==
12215,2022,07,26,06,00,AAXX 26061 12215 16/// /0002 10173 20161 39925 40092 52003 60022 333 10262 20166 3/016 55000 70021==
12215,2022,07,26,07,00,AAXX 26071 12215 46/// /0003 10188 20160 39929 40096 52007==
12215,2022,07,26,08,00,AAXX 26081 12215 46/// /2904 10196 20139 39933 40099 52014==
12215,2022,07,26,09,00,AAXX 26091 12215 46/// /0003 10207 20148 39936 40102 52011==
12215,2022,07,26,10,00,AAXX 26101 12215 46/// /0003 10213 20145 39937 40102 52008==
12215,2022,07,26,11,00,AAXX 26111 12215 46/// /0004 10224 20133 39938 40103 52006==
12215,2022,07,26,12,00,AAXX 26121 12215 16/// /0004 10218 20143 39940 40105 52004 60001==
12215,2022,07,26,13,00,AAXX 26131 12215 46/// /0003 10216 20146 39941 40106 52004==
12215,2022,07,26,14,00,AAXX 26141 12215 46/// /0003 10222 20139 39942 40107 52004==
12215,2022,07,26,15,00,AAXX 26151 12215 46/// /3104 10178 20152 39953 40121 52014==
12215,2022,07,26,16,00,AAXX 26161 12215 46/// /0003 10183 20155 39953 40121 52012==
12215,2022,07,26,17,00,AAXX 26171 12215 46/// /0004 10175 20129 39958 40126 52015==
12215,2022,07,26,18,00,AAXX 26181 12215 16/// /0002 10173 20128 39961 40129 52008 60002 333 10231 20172==
12215,2022,07,26,19,00,AAXX 26191 12215 46/// /0002 10163 20121 39967 40136 52013==
12215,2022,07,26,20,00,AAXX 26201 12215 46/// /0001 10148 20120 39970 40140 52012==
12215,2022,07,26,21,00,AAXX 26211 12215 46/// /0001 10134 20107 39969 40140 52008==
12215,2022,07,26,22,00,AAXX 26221 12215 46/// /0002 10126 20091 39972 40143 52005==
12215,2022,07,26,23,00,AAXX 26231 12215 46/// /0002 10123 20084 39973 40144 52003==
12215,2022,07,27,00,00,AAXX 27001 12215 16/// /0001 10114 20082 39972 40144 52003 60001==
12215,2022,07,27,01,00,AAXX 27011 12215 46/// /0002 10118 20085 39974 40146 52003==
12215,2022,07,27,02,00,AAXX 27021 12215 46/// /0002 10113 20087 39973 40145 54000==
12215,2022,07,27,03,00,AAXX 27031 12215 46/// /0002 10115 20087 39973 40145 54000==
12215,2022,07,27,04,00,AAXX 27041 12215 46/// /0003 10118 20087 39974 40146 54000==
12215,2022,07,27,05,00,AAXX 27051 12215 46/// /0003 10128 20090 39975 40146 52002==
12215,2022,07,27,06,00,AAXX 27061 12215 16/// /0003 10147 20094 39977 40147 52004 60002 333 10173 20112 3/009 55000 70000==
12215,2022,07,27,07,00,AAXX 27071 12215 46/// /2804 10150 20088 39983 40152 52009==
12215,2022,07,27,08,00,AAXX 27081 12215 46/// /0003 10157 20091 39984 40153 52009==
12215,2022,07,27,09,00,AAXX 27091 12215 46/// /0004 10163 20083 39989 40158 52011==
12215,2022,07,27,10,00,AAXX 27101 12215 46/// /2604 10170 20074 39989 40158 52007==
12215,2022,07,27,11,00,AAXX 27111 12215 46/// /2504 10178 20080 39987 40155 52003==
12215,2022,07,27,12,00,AAXX 27121 12215 16/// /0004 10175 20083 39988 40156 54000 60001==
12230,2022,07,25,06,00,AAXX 25061 12230 11981 51702 10197 20129 30075 40162 58012 60002 700// 80001 333 10235 20116 31010 50433 55075 91202 93000=
12230,2022,07,25,07,00,AAXX 25071 12230 42981 61503 10228 20121 30069 40155 58015 80004==
12230,2022,07,25,08,00,AAXX 25081 12230 42981 41603 10253 20118 30063 40148 57017 80001==
12230,2022,07,25,09,00,AAXX 25091 12230 42981 41603 10277 20104 30060 40145 56015 80001==
12230,2022,07,25,10,00,AAXX 25101 12230 42981 31604 10281 20094 30053 40138 57016 80001==
12230,2022,07,25,11,00,AAXX 25111 12230 42/81 31504 10290 20097 30046 40130 58017 81052 333 90710 91108==
12230,2022,07,25,12,00,AAXX 25121 12230 12981 21704 10300 20095 30037 40121 57023 60001 80002 333 90760 91108==
12230,2022,07,25,13,00,AAXX 25131 12230 42981 21704 10307 20090 30027 40111 58026 80002 333 90710 91109==
12230,2022,07,25,14,00,AAXX 25141 12230 42981 31804 10316 20086 30018 40101 57028 80002==
12230,2022,07,25,15,00,AAXX 25151 12230 42981 31804 10316 20079 30011 40094 56026 80002 333 90730 91109==
12230,2022,07,25,16,00,AAXX 25161 12230 42981 21704 10313 20083 30005 40088 56022 80001==
12230,2022,07,25,17,00,AAXX 25171 12230 42981 51503 10305 20088 39997 40080 57021 80004==
12230,2022,07,25,18,00,AAXX 25181 12230 12981 51203 10293 20094 39992 40076 57019 60002 80001 333 10320 20197 90760 91109==
12230,2022,07,25,19,00,AAXX 25191 12230 45/81 /1302 10271 20099 39992 40076 56013==
12230,2022,07,25,20,00,AAXX 25201 12230 45981 /1302 10260 20102 39991 40076 56006==
12230,2022,07,25,21,00,AAXX 25211 12230 45981 /1503 10260 20102 39987 40072 58005==
12230,2022,07,25,22,00,AAXX 25221 12230 45981 /1101 10263 20108 39984 40069 57008 333 90710 91108==
12230,2022,07,25,23,00,AAXX 25231 12230 45981 /2001 10233 20114 39980 40065 57011==
12230,2022,07,26,00,00,AAXX 26001 12230 15/81 /0000 10219 20113 39974 40060 58013 60001 333 90760 91108==
12230,2022,07,26,01,00,AAXX 26011 12230 45981 /2804 10220 20154 39988 40074 53004==
12230,2022,07,26,02,00,AAXX 26021 12230 47/77 /3102 10194 20181 39987 40074 53007 723//==
12230,2022,07,26,03,00,AAXX 26031 12230 47/80 /3003 10187 20177 39998 40085 51024 781//==
12230,2022,07,26,04,00,AAXX 26041 12230 47/70 /3103 10172 20155 30002 40089 53014 781//==
12230,2022,07,26,05,00,AAXX 26051 12230 47881 /2101 10166 20158 30007 40095 51020 781//==
12230,2022,07,26,06,00,AAXX 26061 12230 11780 82002 10170 20164 30014 40102 53016 60022 780// 879// 333 10293 20165 31016 55143 70024==
12230,2022,07,26,07,00,AAXX 26071 12230 41380 82402 10184 20176 30017 40104 52015 72522 876//==
12230,2022,07,26,08,00,AAXX 26081 12230 42581 72803 10202 20160 30018 40105 51011 85502 333 91008 90710 91108==
12230,2022,07,26,09,00,AAXX 26091 12230 41581 72503 10214 20148 30019 40105 52005 70382 85202 333 90730 91108==
12230,2022,07,26,10,00,AAXX 26101 12230 41681 72404 10222 20146 30020 40106 52003 71522 86901==
12230,2022,07,26,11,00,AAXX 26111 12230 41681 62703 10219 20145 30025 40111 53007 72522 84902 333 90710 91109==
12230,2022,07,26,12,00,AAXX 26121 12230 11681 62603 10231 20133 30023 40109 50004 69901 70182 83252 333 90760 91109==
12230,2022,07,26,13,00,AAXX 26131 12230 42781 72804 10241 20130 30021 40106 50001 86201==
12230,2022,07,26,14,00,AAXX 26141 12230 42781 62903 10240 20126 30023 40109 55002 83231 333 91009 90710 91109==
12230,2022,07,26,15,00,AAXX 26151 12230 42781 62705 10239 20125 30025 40111 53002 82231 333 91011 90730 91111==
12230,2022,07,26,16,00,AAXX 26161 12230 42681 73105 10208 20137 30033 40120 53012 8553/ 333 91010 90710 91110==
12230,2022,07,26,17,00,AAXX 26171 12230 42781 73202 10197 20147 30036 40123 52013 82552==
12230,2022,07,26,18,00,AAXX 26181 12230 12681 63003 10191 20141 30041 40128 51016 69902 83532 333 10252 20170 90760 91111==
12230,2022,07,26,19,00,AAXX 26191 12230 45781 /3102 10185 20136 30046 40133 52013==
12230,2022,07,26,20,00,AAXX 26201 12230 45/81 /3102 10176 20127 30051 40139 52015==
12230,2022,07,26,21,00,AAXX 26211 12230 45/81 /3201 10165 20125 30053 40141 51012==
12230,2022,07,26,22,00,AAXX 26221 12230 45/81 /2701 10142 20115 30058 40147 52012==
12230,2022,07,26,23,00,AAXX 26231 12230 45781 /2501 10129 20115 30059 40148 52008==
12230,2022,07,27,00,00,AAXX 27001 12230 15781 /2601 10133 20112 30060 40149 51007 60001 333 91203 91302 93000=
12230,2022,07,27,01,00,AAXX 27011 12230 45781 /2301 10130 20102 30063 40152 52005==
12230,2022,07,27,02,00,AAXX 27021 12230 45/77 /2401 10115 20097 30060 40150 50001==
12230,2022,07,27,03,00,AAXX 27031 12230 45781 /2301 10113 20099 30063 40153 52003==
12230,2022,07,27,04,00,AAXX 27041 12230 45781 /2401 10121 20098 30064 40153 53001==
12230,2022,07,27,05,00,AAXX 27051 12230 45/81 /2602 10135 20099 30064 40153 51004==
12230,2022,07,27,06,00,AAXX 27061 12230 12/81 62604 10155 20085 30068 40156 53005 60002 83032 333 10191 20107 31008 55042==
12230,2022,07,27,07,00,AAXX 27071 12230 42681 52503 10167 20079 30070 40158 53006 82132==
12230,2022,07,27,08,00,AAXX 27081 12230 42681 62704 10169 20067 30072 40160 52008 85202==
12230,2022,07,27,09,00,AAXX 27091 12230 42781 62503 10185 20073 30073 40161 52005 86200==
12230,2022,07,27,10,00,AAXX 27101 12230 42781 62704 10187 20065 30074 40162 52004 86200 333 91009 90710 91109==
12230,2022,07,27,11,00,AAXX 27111 12230 42781 52804 10186 20067 30075 40163 52003 84202 333 90710 91109==
12230,2022,07,27,12,00,AAXX 27121 12230 12781 72903 10199 20062 30072 40159 58001 60001 84252 333 90760 91110==
12235,2022,07,25,06,00,AAXX 25061 12235 11980 62103 10187 20129 39964 40167 58009 60002 703// 80006 333 10191 20121 30011 5///3 55038 79999 91203 93000=
12235,2022,07,25,07,00,AAXX 25071 12235 42981 52004 10217 20111 39960 40161 57011 80008==
12235,2022,07,25,08,00,AAXX 25081 12235 42982 41904 10236 20106 39954 40154 57014 80002==
12235,2022,07,25,09,00,AAXX 25091 12235 42978 41704 10249 20100 39952 40151 56012 80002==
12235,2022,07,25,10,00,AAXX 25101 12235 42980 31804 10260 20106 39948 40146 57012 80002==
12235,2022,07,25,11,00,AAXX 25111 12235 42976 22005 10272 20095 39942 40139 58012 80002==
12235,2022,07,25,12,00,AAXX 25121 12235 12980 21805 10279 20097 39933 40129 57019 60001 80002 333 91010 90760 91110==
12235,2022,07,25,13,00,AAXX 25131 12235 42980 21705 10283 20100 39926 40122 57022 80002==
12235,2022,07,25,14,00,AAXX 25141 12235 42981 21805 10285 20092 39917 40113 57025 80002 333 90710 91111==
12235,2022,07,25,15,00,AAXX 25151 12235 42980 21705 10287 20094 39911 40106 57022 80002 333 90730 91111==
12235,2022,07,25,16,00,AAXX 25161 12235 42981 31805 10287 20094 39902 40097 57024 80002 333 90710 91110==
12235,2022,07,25,17,00,AAXX 25171 12235 42982 51704 10279 20097 39896 40092 57021 80002==
12235,2022,07,25,18,00,AAXX 25181 12235 12981 51703 10271 20103 39891 40087 56020 60002 80002 333 10289 20187 90760 91111==
12235,2022,07,25,19,00,AAXX 25191 12235 45/81 /1604 10253 20103 39889 40086 56013==
12235,2022,07,25,20,00,AAXX 25201 12235 45/81 /1604 10242 20105 39887 40085 56009==
12235,2022,07,25,21,00,AAXX 25211 12235 45/82 /1603 10231 20108 39883 40082 57008==
12235,2022,07,25,22,00,AAXX 25221 12235 45983 /1704 10229 20107 39875 40073 58014==
12235,2022,07,25,23,00,AAXX 25231 12235 45981 /1603 10223 20111 39872 40071 57015 333 90710 91110==
12235,2022,07,26,00,00,AAXX 26001 12235 15983 /1703 10215 20109 39864 40063 57019 60001 333 90760 91110==
12235,2022,07,26,01,00,AAXX 26011 12235 45983 /1902 10201 20116 39866 40066 55009==
12235,2022,07,26,02,00,AAXX 26021 12235 45982 /2702 10195 20115 39874 40075 53002==
12235,2022,07,26,03,00,AAXX 26031 12235 47980 /3403 10182 20154 39876 40078 52012 781//==
12235,2022,07,26,04,00,AAXX 26041 12235 45771 /3202 10184 20162 39880 40082 51014==
12235,2022,07,26,05,00,AAXX 26051 12235 47962 /3303 10165 20152 39881 40084 52007 762// 333 90710 91109==
12235,2022,07,26,06,00,AAXX 26061 12235 11460 73302 10165 20154 39888 40091 53012 60032 792// 879// 333 10271 20165 31016 55144 70033 90760 91109==
12235,2022,07,26,07,00,AAXX 26071 12235 41368 72603 10172 20159 39896 40099 52016 72522 879//==
12235,2022,07,26,08,00,AAXX 26081 12235 42479 63004 10186 20147 39898 40100 52017 85302==
12235,2022,07,26,09,00,AAXX 26091 12235 41580 62804 10201 20138 39900 40101 52012 70182 85202==
12235,2022,07,26,10,00,AAXX 26101 12235 42580 73003 10205 20127 39903 40104 52007 86202 333 90710 91110==
12235,2022,07,26,11,00,AAXX 26111 12235 42681 62505 10216 20124 39903 40103 51005 85202==
12235,2022,07,26,12,00,AAXX 26121 12235 11681 62804 10223 20123 39904 40103 52004 69921 70282 85202 333 90760 91110==
12235,2022,07,26,13,00,AAXX 26131 12235 42681 72904 10224 20121 39904 40103 52001 8523/==
12235,2022,07,26,14,00,AAXX 26141 12235 42684 73003 10219 20124 39906 40106 52003 85232 333 91008 90710 91108==
12235,2022,07,26,15,00,AAXX 26151 12235 42681 52903 10221 20129 39908 40108 53004 84202 333 90730 91108==
12235,2022,07,26,16,00,AAXX 26161 12235 41781 73205 10176 20145 39916 40119 53012 72522 879// 333 90710 91111==
12235,2022,07,26,17,00,AAXX 26171 12235 42780 73102 10176 20143 39917 40120 52011 875//==
12235,2022,07,26,18,00,AAXX 26181 12235 11572 73204 10169 20126 39924 40128 52016 69952 72522 879// 333 10231 20165 90760 91111==
12235,2022,07,26,19,00,AAXX 26191 12235 45682 /3203 10166 20115 39928 40132 53012==
12235,2022,07,26,20,00,AAXX 26201 12235 45/84 /3302 10155 20111 39932 40137 51015==
12235,2022,07,26,21,00,AAXX 26211 12235 45/82 /2602 10140 20106 39932 40138 51008==
12235,2022,07,26,22,00,AAXX 26221 12235 45/82 /2702 10135 20099 39935 40141 52007==
12235,2022,07,26,23,00,AAXX 26231 12235 45/82 /2603 10131 20092 39936 40143 53004==
12235,2022,07,27,00,00,AAXX 27001 12235 15/81 /2802 10128 20085 39935 40142 50003 69901==
12235,2022,07,27,01,00,AAXX 27011 12235 45/80 /2503 10113 20080 39937 40145 52002==
12235,2022,07,27,02,00,AAXX 27021 12235 45/80 /2503 10108 20077 39938 40146 53002==
12235,2022,07,27,03,00,AAXX 27031 12235 45/73 /2403 10093 20074 39937 40146 50002==
12235,2022,07,27,04,00,AAXX 27041 12235 45/72 /2403 10097 20081 39939 40148 52002==
12235,2022,07,27,05,00,AAXX 27051 12235 45/77 /2504 10122 20085 39940 40147 53002==
12235,2022,07,27,06,00,AAXX 27061 12235 12780 32604 10141 20089 39943 40149 52006 69902 81130 333 10169 20091 30009 55045 70005==
12235,2022,07,27,07,00,AAXX 27071 12235 42780 32504 10155 20080 39944 40149 52005 82130==
12235,2022,07,27,08,00,AAXX 27081 12235 42681 52804 10159 20076 39947 40152 52007 85200 333 90710 91109==
12235,2022,07,27,09,00,AAXX 27091 12235 42781 62605 10169 20073 39949 40153 52006 862// 333 90730 91109==
12235,2022,07,27,10,00,AAXX 27101 12235 42680 62806 10171 20066 39951 40155 52007 8523/ 333 90710 91112==
12235,2022,07,27,11,00,AAXX 27111 12235 42680 52804 10174 20060 39953 40157 52006 85200 333 91009 90710 91110==
12235,2022,07,27,12,00,AAXX 27121 12235 12781 42705 10182 20061 39951 40154 50002 60001 84200 333 90760 91112==
12250,2022,07,25,06,00,AAXX 25061 12250 11981 51702 10192 20134 30087 40173 57008 60002 703// 80001 333 10212 20115 30008 55045 91202 93000=
12250,2022,07,25,07,00,AAXX 25071 12250 42981 51803 10215 20137 30082 40167 57012 80001==
12250,2022,07,25,08,00,AAXX 25081 12250 42981 61802 10235 20137 30078 40162 57012 80006==
12250,2022,07,25,09,00,AAXX 25091 12250 42982 41702 10255 20130 30073 40157 57014 80008==
12250,2022,07,25,10,00,AAXX 25101 12250 42980 31403 10268 20124 30071 40154 57011 80001==
12250,2022,07,25,11,00,AAXX 25111 12250 42982 22003 10274 20110 30064 40147 57014 80001==
12250,2022,07,25,12,00,AAXX 25121 12250 12981 11503 10290 20115 30055 40138 58018 60001 80001==
12250,2022,07,25,13,00,AAXX 25131 12250 42981 11503 10292 20108 30047 40129 57024 80001==
12250,2022,07,25,14,00,AAXX 25141 12250 42981 11903 10297 20108 30041 40123 57023 80001==
12250,2022,07,25,15,00,AAXX 25151 12250 42983 11703 10296 20112 30032 40114 57023 80001==
12250,2022,07,25,16,00,AAXX 25161 12250 42981 11404 10295 20111 30026 40108 57021 80001==
12250,2022,07,25,17,00,AAXX 25171 12250 42983 11603 10290 20115 30023 40105 56018 80001==
12250,2022,07,25,18,00,AAXX 25181 12250 12984 31203 10276 20116 30013 40096 58019 60002 80001 333 10301 20192==
12250,2022,07,25,19,00,AAXX 25191 12250 42984 51102 10257 20122 30011 40094 57015 80004==
12250,2022,07,25,20,00,AAXX 25201 12250 42983 51102 10238 20131 30013 40097 55010 80001==
12250,2022,07,25,21,00,AAXX 25211 12250 45/84 /1103 10227 20137 30010 40094 57003==
12250,2022,07,25,22,00,AAXX 25221 12250 45/83 /1203 10219 20140 30003 40087 58008==
12250,2022,07,25,23,00,AAXX 25231 12250 45/84 /1303 10214 20141 39996 40080 58017==
12250,2022,07,26,00,00,AAXX 26001 12250 15/84 /1203 10210 20134 39991 40075 57019 60001==
12250,2022,07,26,01,00,AAXX 26011 12250 45984 /1303 10212 20126 39986 40070 57017==
12250,2022,07,26,02,00,AAXX 26021 12250 45984 /1402 10214 20120 39985 40069 56011==
12250,2022,07,26,03,00,AAXX 26031 12250 45984 /1603 10211 20120 39984 40068 56007==
12250,2022,07,26,04,00,AAXX 26041 12250 45984 /1501 10204 20124 39987 40071 53001 333 90710 91108==
12250,2022,07,26,05,00,AAXX 26051 12250 41782 71702 10204 20126 39993 40077 53008 725// 8397/==
12250,2022,07,26,06,00,AAXX 26061 12250 11667 73205 10198 20164 39999 40084 52015 69912 780// 879// 333 10276 20198 31019 55146 70001 90760 91110==
12250,2022,07,26,07,00,AAXX 26071 12250 41661 72703 10187 20177 30007 40092 52020 78088 879//==
12250,2022,07,26,08,00,AAXX 26081 12250 41464 72702 10195 20183 30011 40096 52018 72522 875//==
12250,2022,07,26,09,00,AAXX 26091 12250 41876 72802 10184 20167 30017 40102 52018 70282 875//==
12250,2022,07,26,10,00,AAXX 26101 12250 42581 72703 10191 20167 30024 40109 53017 8583/==
12250,2022,07,26,11,00,AAXX 26111 12250 42680 72502 10208 20170 30026 40111 52015 8223/==
12250,2022,07,26,12,00,AAXX 26121 12250 11682 72302 10216 20159 30028 40112 51011 60011 70382 8227/==
12250,2022,07,26,13,00,AAXX 26131 12250 42681 72402 10225 20156 30025 40109 50001 8327/==
12250,2022,07,26,14,00,AAXX 26141 12250 42682 72203 10231 20152 30024 40108 58002 8327/==
12250,2022,07,26,15,00,AAXX 26151 12250 42683 72602 10231 20141 30023 40107 57005 8327/==
12250,2022,07,26,16,00,AAXX 26161 12250 42682 72502 10237 20141 30021 40105 57004 81238==
12250,2022,07,26,17,00,AAXX 26171 12250 42683 72802 10236 20137 30023 40107 55001 81238==
12250,2022,07,26,18,00,AAXX 26181 12250 12784 72903 10231 20127 30027 40111 53004 60012 83238 333 10243 20181==
12250,2022,07,26,19,00,AAXX 26191 12250 42784 53004 10202 20139 30034 40119 53013 83531 333 90710 91110==
12250,2022,07,26,20,00,AAXX 26201 12250 42/84 73003 10192 20138 30040 40125 52017 8705/==
12250,2022,07,26,21,00,AAXX 26211 12250 45584 /3003 10184 20135 30045 40130 51018 333 90730 91110==
12250,2022,07,26,22,00,AAXX 26221 12250 45684 /3103 10178 20118 30050 40136 52016==
12250,2022,07,26,23,00,AAXX 26231 12250 45/84 /3002 10166 20113 30056 40142 52016==
12250,2022,07,27,00,00,AAXX 27001 12250 15/84 /2801 10141 20111 30055 40142 50010 60001 333 90760 91110==
12250,2022,07,27,01,00,AAXX 27011 12250 45/84 /2501 10120 20107 30060 40148 52010==
12250,2022,07,27,02,00,AAXX 27021 12250 45/80 /2501 10108 20100 30059 40147 52003==
12250,2022,07,27,03,00,AAXX 27031 12250 45/60 /2901 10107 20102 30060 40148 51005==
12250,2022,07,27,04,00,AAXX 27041 12250 45/82 /2301 10119 20114 30064 40152 53004==
12250,2022,07,27,05,00,AAXX 27051 12250 42882 72402 10146 20108 30065 40152 52006 875//==
12250,2022,07,27,06,00,AAXX 27061 12250 12782 72301 10153 20111 30066 40153 51006 60002 875// 333 10231 20106 30007 55010 70014==
12250,2022,07,27,07,00,AAXX 27071 12250 42681 72402 10165 20106 30069 40155 52005 878//==
12250,2022,07,27,08,00,AAXX 27081 12250 42681 72204 10182 20093 30070 40156 52005 872//==
12250,2022,07,27,09,00,AAXX 27091 12250 42680 62303 10196 20095 30071 40156 52005 86200 333 91008 90730 91108==
12250,2022,07,27,10,00,AAXX 27101 12250 42681 52704 10193 20086 30069 40154 50000 84230 333 90710 91109==
12250,2022,07,27,11,00,AAXX 27111 12250 42781 62404 10220 20078 30068 40153 58002 84230 333 90710 91110==
12250,2022,07,27,12,00,AAXX 27121 12250 12782 42804 10215 20066 30065 40150 57006 60001 83130 333 90760 91110==
12270,2022,07,25,06,00,AAXX 25061 12270 11980 52202 10179 20152 30003 40179 58007 60002 703// 80006 333 10201 20118 31010 50503 55047 91202 93000=
12270,2022,07,25,07,00,AAXX 25071 12270 42981 62303 10200 20135 30001 40176 57008 80006==
12270,2022,07,25,08,00,AAXX 25081 12270 42982 82602 10216 20122 39996 40170 57011 80007==
12270,2022,07,25,09,00,AAXX 25091 12270 42982 72002 10228 20121 39994 40167 57009 80008==
12270,2022,07,25,10,00,AAXX 25101 12270 42/80 72203 10240 20120 39990 40162 57011 82038==
12270,2022,07,25,11,00,AAXX 25111 12270 42/82 71703 10256 20124 39985 40156 58011 82038==
12270,2022,07,25,12,00,AAXX 25121 12270 12981 61402 10260 20121 39979 40150 58015 60001 80008==
12270,2022,07,25,13,00,AAXX 25131 12270 42982 51803 10268 20113 39973 40143 57017 80008==
12270,2022,07,25,14,00,AAXX 25141 12270 42982 41902 10271 20112 39964 40134 58021 80008==
12270,2022,07,25,15,00,AAXX 25151 12270 42982 31503 10274 20130 39959 40129 57020 80008==
12270,2022,07,25,16,00,AAXX 25161 12270 42984 11603 10272 20128 39953 40123 57020 80001==
12270,2022,07,25,17,00,AAXX 25171 12270 42984 11603 10267 20124 39949 40119 57015 80001==
12270,2022,07,25,18,00,AAXX 25181 12270 12984 11502 10251 20133 39944 40115 57015 60002 80001 333 10283 20179==
12270,2022,07,25,19,00,AAXX 25191 12270 42984 21302 10226 20131 39940 40112 57013 80001==
12270,2022,07,25,20,00,AAXX 25201 12270 42984 41302 10209 20133 39938 40111 56011 80006==
12270,2022,07,25,21,00,AAXX 25211 12270 45/84 /1201 10197 20132 39941 40115 55003==
12270,2022,07,25,22,00,AAXX 25221 12270 45/84 /1303 10198 20135 39938 40112 57002==
12270,2022,07,25,23,00,AAXX 25231 12270 45/84 /1303 10197 20132 39929 40103 58009==
12270,2022,07,26,00,00,AAXX 26001 12270 15/84 /1303 10189 20131 39924 40098 57017 60001==
12270,2022,07,26,01,00,AAXX 26011 12270 45/84 /1303 10182 20131 39917 40091 57021==
12270,2022,07,26,02,00,AAXX 26021 12270 45/84 /1401 10174 20129 39915 40090 56014==
12270,2022,07,26,03,00,AAXX 26031 12270 45984 /1402 10172 20129 39915 40090 56009==
12270,2022,07,26,04,00,AAXX 26041 12270 45982 /1402 10189 20133 39908 40082 58009==
12270,2022,07,26,05,00,AAXX 26051 12270 42683 71402 10194 20140 39906 40079 58009 81338==
12270,2022,07,26,06,00,AAXX 26061 12270 12683 72002 10212 20144 39908 40080 55007 60002 81338 333 10251 20171 30016 55150==
12270,2022,07,26,07,00,AAXX 26071 12270 42/83 72103 10222 20135 39911 40083 53003 85088==
12270,2022,07,26,08,00,AAXX 26081 12270 41682 72703 10229 20137 39910 40081 50004 72522 82338==
12270,2022,07,26,09,00,AAXX 26091 12270 41/83 73401 10228 20138 39912 40083 53004 70182 8707/==
12270,2022,07,26,10,00,AAXX 26101 12270 42/79 83103 10235 20139 39918 40089 53007 8807/==
12270,2022,07,26,11,00,AAXX 26111 12270 41673 72904 10232 20155 39923 40094 52013 78022 873//==
12270,2022,07,26,12,00,AAXX 26121 12270 11582 73006 10224 20162 39930 40102 52018 69901 72582 873//==
12270,2022,07,26,13,00,AAXX 26131 12270 42582 82905 10211 20154 39929 40102 50011 8237/==
12270,2022,07,26,14,00,AAXX 26141 12270 42683 82905 10209 20138 39932 40105 53009 83587==
12270,2022,07,26,15,00,AAXX 26151 12270 42/84 73004 10203 20140 39934 40107 53004 8707/==
12270,2022,07,26,16,00,AAXX 26161 12270 42/83 82903 10205 20146 39935 40108 51006 84037==
12270,2022,07,26,17,00,AAXX 26171 12270 42583 82502 10203 20151 39937 40110 52005 81337==
12270,2022,07,26,18,00,AAXX 26181 12270 12581 72102 10197 20153 39938 40112 52004 69902 81338 333 10242 20197==
12270,2022,07,26,19,00,AAXX 26191 12270 42576 71801 10186 20157 39938 40112 51003 81338==
12270,2022,07,26,20,00,AAXX 26201 12270 42567 71901 10175 20155 39940 40115 52003 81538==
12270,2022,07,26,21,00,AAXX 26211 12270 45/62 /2401 10166 20151 39940 40116 52002==
12270,2022,07,26,22,00,AAXX 26221 12270 45984 /3104 10172 20152 39946 40121 53008==
12270,2022,07,26,23,00,AAXX 26231 12270 45/84 /3204 10167 20140 39952 40128 53012==
12270,2022,07,27,00,00,AAXX 27001 12270 15/84 /3302 10156 20131 39957 40134 52017 60001==
12270,2022,07,27,01,00,AAXX 27011 12270 45675 /3202 10155 20107 39961 40138 51015==
12270,2022,07,27,02,00,AAXX 27021 12270 45984 /3002 10145 20103 39962 40139 51010==
12270,2022,07,27,03,00,AAXX 27031 12270 45/84 /2901 10128 20103 39964 40142 52007==
12270,2022,07,27,04,00,AAXX 27041 12270 45/83 /2501 10124 20110 39968 40147 53007==
12270,2022,07,27,05,00,AAXX 27051 12270 42/83 12703 10145 20111 39970 40147 52008 81030==
12270,2022,07,27,06,00,AAXX 27061 12270 12/81 12703 10171 20100 39969 40145 50005 60002 81030 333 10197 20118 30010 55005==
12270,2022,07,27,07,00,AAXX 27071 12270 42681 12504 10181 20089 39970 40145 53002 81130==
12270,2022,07,27,08,00,AAXX 27081 12270 42682 22705 10191 20078 39971 40146 53001 82200==
12270,2022,07,27,09,00,AAXX 27091 12270 42682 52905 10194 20084 39973 40148 52004 85200==
12270,2022,07,27,10,00,AAXX 27101 12270 42682 62706 10194 20078 39976 40151 53006 862//==
12270,2022,07,27,11,00,AAXX 27111 12270 42682 62806 10198 20078 39976 40150 51005 862//==
12270,2022,07,27,12,00,AAXX 27121 12270 12780 62607 10221 20075 39972 40145 58001 60001 8523/==
12272,2022,07,25,06,00,AAXX 25061 12272 11982 22002 10183 20142 30013 40175 58006 60002 702// 80001 333 10184 20119 31010 91202 93000=
12272,2022,07,25,07,00,AAXX 25071 12272 42982 32002 10200 20132 30010 40171 57009 80001==
12272,2022,07,25,08,00,AAXX 25081 12272 42683 61801 10210 20122 30007 40167 57008 81106==
12272,2022,07,25,09,00,AAXX 25091 12272 42683 62002 10224 20123 30006 40166 57007 81108==
12272,2022,07,25,10,00,AAXX 25101 12272 42983 62302 10234 20118 30002 40161 57008 80008==
12272,2022,07,25,11,00,AAXX 25111 12272 42/81 51702 10244 20117 39997 40155 57010 81038==
12272,2022,07,25,12,00,AAXX 25121 12272 12982 31502 10255 20127 39991 40149 57015 60001 80002==
12272,2022,07,25,13,00,AAXX 25131 12272 42980 21902 10264 20121 39985 40142 57017 80001==
12272,2022,07,25,14,00,AAXX 25141 12272 42982 21901 10271 20112 39976 40133 57021 80002==
12272,2022,07,25,15,00,AAXX 25151 12272 42981 31902 10274 20118 39970 40126 57021 80001==
12272,2022,07,25,16,00,AAXX 25161 12272 42983 31802 10275 20119 39965 40121 57020 80001==
12272,2022,07,25,17,00,AAXX 25171 12272 42982 21702 10272 20120 39959 40115 57017 80002==
12272,2022,07,25,18,00,AAXX 25181 12272 12984 21602 10259 20124 39954 40111 57016 60002 80002 333 10277 20183 91203 93000=
12272,2022,07,25,19,00,AAXX 25191 12272 45/84 /1402 10238 20124 39951 40109 56014==
12272,2022,07,25,20,00,AAXX 25201 12272 45/84 /1502 10224 20123 39950 40109 56009==
12272,2022,07,25,21,00,AAXX 25211 12272 45/84 /1602 10216 20127 39951 40110 55003==
12272,2022,07,25,22,00,AAXX 25221 12272 45/84 /1602 10207 20127 39948 40108 57003==
12272,2022,07,25,23,00,AAXX 25231 12272 45/84 /1504 10206 20128 39940 40099 58010==
12272,2022,07,26,00,00,AAXX 26001 12272 15/84 /1503 10199 20126 39933 40093 58018 60001==
12272,2022,07,26,01,00,AAXX 26011 12272 45/84 /1503 10191 20124 39927 40087 56021==
12272,2022,07,26,02,00,AAXX 26021 12272 45/84 /1402 10190 20123 39924 40084 56016==
12272,2022,07,26,03,00,AAXX 26031 12272 45/83 /1603 10187 20124 39923 40083 56010==
12272,2022,07,26,04,00,AAXX 26041 12272 45/83 /1602 10190 20127 39921 40081 57006==
12272,2022,07,26,05,00,AAXX 26051 12272 45/81 /1502 10198 20133 39918 40078 58006==
12272,2022,07,26,06,00,AAXX 26061 12272 12/82 61301 10209 20143 39920 40079 55003 60002 83038 333 10259 20186 30018==
12272,2022,07,26,07,00,AAXX 26071 12272 42/82 72102 10233 20143 39924 40082 53003 8707/==
12272,2022,07,26,08,00,AAXX 26081 12272 42/80 82902 10227 20140 39924 40082 51006 8807/==
12272,2022,07,26,09,00,AAXX 26091 12272 42675 82903 10227 20140 39927 40085 52007 8237/==
12272,2022,07,26,10,00,AAXX 26101 12272 41680 82802 10215 20149 39933 40092 53009 72522 8237/==
12272,2022,07,26,11,00,AAXX 26111 12272 42581 83004 10210 20162 39940 40099 53016 8437/==
12272,2022,07,26,12,00,AAXX 26121 12272 11580 83004 10201 20167 39943 40103 51016 69901 70182 885//==
12272,2022,07,26,13,00,AAXX 26131 12272 42582 83004 10189 20144 39946 40106 51013 8237/==
12272,2022,07,26,14,00,AAXX 26141 12272 42583 83101 10192 20151 39944 40104 50004 8237/==
12272,2022,07,26,15,00,AAXX 26151 12272 42581 73002 10201 20155 39944 40104 51001 8237/==
12272,2022,07,26,16,00,AAXX 26161 12272 42583 72601 10205 20151 39943 40103 57003 8237/==
12272,2022,07,26,17,00,AAXX 26171 12272 42583 72101 10204 20152 39947 40107 53003 8137/==
12272,2022,07,26,18,00,AAXX 26181 12272 12575 71101 10196 20162 39948 40108 53004 69902 82338 333 10237 20189==
12272,2022,07,26,19,00,AAXX 26191 12272 45/69 /1401 10186 20171 39947 40108 50004==
12272,2022,07,26,20,00,AAXX 26201 12272 45/61 /1401 10176 20166 39949 40110 52002==
12272,2022,07,26,21,00,AAXX 26211 12272 45/62 /2701 10172 20162 39952 40114 53004==
12272,2022,07,26,22,00,AAXX 26221 12272 47/61 /3205 10152 20142 39965 40128 53018 782//==
12272,2022,07,26,23,00,AAXX 26231 12272 47/84 /2902 10149 20138 39968 40131 52019 723//==
12272,2022,07,27,00,00,AAXX 27001 12272 15681 /2801 10146 20136 39969 40132 51017 60061==
12272,2022,07,27,01,00,AAXX 27011 12272 45/84 /2701 10138 20124 39972 40136 52007==
12272,2022,07,27,02,00,AAXX 27021 12272 45/83 /2701 10128 20115 39971 40135 50003==
12272,2022,07,27,03,00,AAXX 27031 12272 45/83 /2601 10120 20107 39972 40137 52003==
12272,2022,07,27,04,00,AAXX 27041 12272 45/83 /2302 10123 20110 39974 40139 53002==
12272,2022,07,27,05,00,AAXX 27051 12272 45/80 /2402 10137 20116 39977 40141 53006==
12272,2022,07,27,06,00,AAXX 27061 12272 12/80 12502 10154 20116 39979 40142 52007 60062 81030 333 10196 20120 31011 70060==
12272,2022,07,27,07,00,AAXX 27071 12272 42575 12803 10171 20107 39978 40140 50004 81200==
12272,2022,07,27,08,00,AAXX 27081 12272 42681 52603 10175 20091 39980 40142 52003 85200==
12272,2022,07,27,09,00,AAXX 27091 12272 42681 52804 10182 20090 39983 40144 53004 84201==
12272,2022,07,27,10,00,AAXX 27101 12272 42682 62404 10190 20077 39984 40145 52006 84230==
12272,2022,07,27,11,00,AAXX 27111 12272 42682 62905 10189 20073 39985 40146 52005 84230 333 90710 91109==
12272,2022,07,27,12,00,AAXX 27121 12272 12681 62503 10203 20080 39984 40144 50001 60001 84230 333 90760 91109==
12280,2022,07,25,06,00,AAXX 25061 12280 11582 12201 10184 20147 30025 40177 58005 60002 701// 81501 333 10188 20133 31012 55087 70006 91202 93000=
12280,2022,07,25,07,00,AAXX 25071 12280 42582 32402 10194 20144 30022 40173 57008 83201==
12280,2022,07,25,08,00,AAXX 25081 12280 42580 21901 10208 20137 30017 40168 58010 81101==
12280,2022,07,25,09,00,AAXX 25091 12280 42681 41801 10223 20125 30016 40166 57009 81101==
12280,2022,07,25,10,00,AAXX 25101 12280 42680 61901 10235 20131 30014 40163 57008 81101==
12280,2022,07,25,11,00,AAXX 25111 12280 42680 31103 10233 20137 30010 40159 58007 81101==
12280,2022,07,25,12,00,AAXX 25121 12280 12681 31102 10242 20134 30004 40153 58012 60001 81101==
12280,2022,07,25,13,00,AAXX 25131 12280 42681 30502 10251 20133 39999 40147 57015 81101==
12280,2022,07,25,14,00,AAXX 25141 12280 42680 30903 10251 20127 39991 40139 57019 81101==
12280,2022,07,25,15,00,AAXX 25151 12280 42981 30702 10256 20141 39987 40135 57017 80002==
12280,2022,07,25,16,00,AAXX 25161 12280 42981 40802 10253 20150 39981 40129 57018 80002==
12280,2022,07,25,17,00,AAXX 25171 12280 42982 40903 10243 20150 39977 40125 57014 80002==
12280,2022,07,25,18,00,AAXX 25181 12280 12984 31103 10230 20151 39971 40120 57016 60002 80002 333 10257 20184==
12280,2022,07,25,19,00,AAXX 25191 12280 42984 11303 10217 20143 39970 40120 57011 80001==
12280,2022,07,25,20,00,AAXX 25201 12280 42982 11304 10208 20147 39967 40117 57010 80001==
12280,2022,07,25,21,00,AAXX 25211 12280 45/84 /1404 10202 20143 39967 40117 56004==
12280,2022,07,25,22,00,AAXX 25221 12280 45/83 /1704 10206 20147 39968 40118 55002==
12280,2022,07,25,23,00,AAXX 25231 12280 45/84 /1605 10198 20142 39963 40113 58004==
12280,2022,07,26,00,00,AAXX 26001 12280 15/84 /1606 10198 20139 39957 40107 58010 60001==
12280,2022,07,26,01,00,AAXX 26011 12280 45/84 /1505 10190 20134 39950 40101 58018==
12280,2022,07,26,02,00,AAXX 26021 12280 45984 /1605 10190 20134 39948 40099 56015==
12280,2022,07,26,03,00,AAXX 26031 12280 45984 /1704 10189 20131 39944 40095 56013==
12280,2022,07,26,04,00,AAXX 26041 12280 45/82 /1705 10190 20134 39944 40095 56006==
12280,2022,07,26,05,00,AAXX 26051 12280 42/82 61704 10202 20141 39939 40089 57009 86030==
12280,2022,07,26,06,00,AAXX 26061 12280 12/80 61504 10212 20148 39936 40085 58008 60002 84031 333 10230 20187 30018 55141==
12280,2022,07,26,07,00,AAXX 26071 12280 42/80 51704 10234 20157 39935 40083 56009 83031==
12280,2022,07,26,08,00,AAXX 26081 12280 42/81 62003 10248 20151 39936 40083 55003 83031 333 90710 91108==
12280,2022,07,26,09,00,AAXX 26091 12280 42/82 71603 10253 20144 39933 40080 57003 8703/ 333 90730 91108==
12280,2022,07,26,10,00,AAXX 26101 12280 42/81 81802 10259 20153 39935 40082 54000 8807/==
12280,2022,07,26,11,00,AAXX 26111 12280 41683 82201 10244 20159 39938 40086 53002 72522 8137/==
12280,2022,07,26,12,00,AAXX 26121 12280 11/83 82202 10239 20149 39940 40088 52007 69901 70182 8807/ 333 90760 91108==
12280,2022,07,26,13,00,AAXX 26131 12280 42/82 73104 10244 20156 39941 40089 51006 8707/==
12280,2022,07,26,14,00,AAXX 26141 12280 42580 83105 10217 20169 39946 40095 53008 8112/ 333 91010 90710 91111==
12280,2022,07,26,15,00,AAXX 26151 12280 42582 83303 10193 20150 39951 40101 53011 885// 333 90730 91111==
12280,2022,07,26,16,00,AAXX 26161 12280 42682 83303 10184 20145 39956 40107 52015 885// 333 90710 91109==
12280,2022,07,26,17,00,AAXX 26171 12280 41660 80102 10175 20144 39957 40109 51011 78022 889//==
12280,2022,07,26,18,00,AAXX 26181 12280 11656 83002 10171 20151 39959 40111 51008 69902 78122 889// 333 10260 20170 90760 91111==
12280,2022,07,26,19,00,AAXX 26191 12280 41663 82801 10166 20155 39961 40113 52005 78088 889//==
12280,2022,07,26,20,00,AAXX 26201 12280 41664 70000 10165 20154 39963 40115 52006 72582 8553/==
12280,2022,07,26,21,00,AAXX 26211 12280 45561 /0000 10164 20154 39962 40114 50003==
12280,2022,07,26,22,00,AAXX 26221 12280 45671 /1701 10165 20159 39962 40114 51001==
12280,2022,07,26,23,00,AAXX 26231 12280 47558 /3204 10162 20151 39973 40125 53010 752// 333 90710 91109==
12280,2022,07,27,00,00,AAXX 27001 12280 17680 /3404 10151 20133 39974 40127 53012 69901 781// 333 90760 91109==
12280,2022,07,27,01,00,AAXX 27011 12280 47683 /3202 10150 20135 39975 40128 51013 723//==
12280,2022,07,27,02,00,AAXX 27021 12280 45681 /2701 10146 20135 39976 40129 52003==
12280,2022,07,27,03,00,AAXX 27031 12280 45680 /2602 10140 20130 39976 40130 51002==
12280,2022,07,27,04,00,AAXX 27041 12280 45/83 /2603 10138 20125 39979 40133 52004==
12280,2022,07,27,05,00,AAXX 27051 12280 42681 12703 10150 20127 39981 40134 53005 81502==
12280,2022,07,27,06,00,AAXX 27061 12280 12678 12603 10164 20118 39984 40137 52008 60022 81502 333 10171 20136 31013 55049 70020==
12280,2022,07,27,07,00,AAXX 27071 12280 42580 22903 10176 20112 39985 40137 52006 82100==
12280,2022,07,27,08,00,AAXX 27081 12280 42675 32904 10185 20093 39986 40137 51005 83200==
12280,2022,07,27,09,00,AAXX 27091 12280 42681 52804 10185 20093 39990 40141 53006 84201 333 90730 91109==
12280,2022,07,27,10,00,AAXX 27101 12280 42681 52704 10197 20090 39991 40142 52006 85200 333 90710 91109==
12280,2022,07,27,11,00,AAXX 27111 12280 42781 53003 10203 20095 39990 40141 50004 85201 333 90710 91109==
12280,2022,07,27,12,00,AAXX 27121 12280 12781 62903 10199 20079 39991 40142 52001 60001 85209 333 90760 91109==
12285,2022,07,25,06,00,AAXX 25061 12285 15/70 /9902 10176 20133 30070 40182 57005 60002 333 10207 20110 3/009 55000 70000=
12285,2022,07,25,07,00,AAXX 25071 12285 45/70 /0002 10200 20141 30065 40177 57010==
12285,2022,07,25,08,00,AAXX 25081 12285 45/70 /0002 10212 20138 30062 40173 57010==
12285,2022,07,25,09,00,AAXX 25091 12285 45/70 /0002 10224 20128 30059 40170 57011==
12285,2022,07,25,10,00,AAXX 25101 12285 45/70 /0002 10242 20133 30054 40164 57011==
12285,2022,07,25,11,00,AAXX 25111 12285 45/70 /0002 10249 20123 30051 40160 57011==
12285,2022,07,25,12,00,AAXX 25121 12285 15/70 /0002 10259 20123 30044 40154 57014 60001==
12285,2022,07,25,13,00,AAXX 25131 12285 45/70 /0001 10270 20130 30039 40147 57016==
12285,2022,07,25,14,00,AAXX 25141 12285 45/70 /0002 10270 20127 30030 40139 57020==
12285,2022,07,25,15,00,AAXX 25151 12285 45/70 /0002 10271 20125 30026 40134 57019==
12285,2022,07,25,16,00,AAXX 25161 12285 45/70 /0002 10272 20129 30021 40130 57017==
12285,2022,07,25,17,00,AAXX 25171 12285 45/70 /0002 10264 20127 30017 40126 57013==
12285,2022,07,25,18,00,AAXX 25181 12285 15/70 /9901 10248 20131 30012 40122 57013 60002 333 10278 20176=
12285,2022,07,25,19,00,AAXX 25191 12285 45/70 /0002 10221 20138 30011 40122 57010==
12285,2022,07,25,20,00,AAXX 25201 12285 45/70 /0002 10204 20139 30009 40120 57008==
12285,2022,07,25,21,00,AAXX 25211 12285 45/70 /0002 10192 20136 30008 40119 57005==
12285,2022,07,25,22,00,AAXX 25221 12285 45/70 /0001 10189 20130 30009 40121 57002==
12285,2022,07,25,23,00,AAXX 25231 12285 45/70 /0002 10178 20126 30004 40116 57005==
12285,2022,07,26,00,00,AAXX 26001 12285 15/70 /0002 10174 20123 39997 40109 57010 60001==
12285,2022,07,26,01,00,AAXX 26011 12285 45/70 /0002 10173 20122 39991 40103 57018==
12285,2022,07,26,02,00,AAXX 26021 12285 45/70 /0001 10164 20121 39989 40101 57015==
12285,2022,07,26,03,00,AAXX 26031 12285 45/70 /0001 10161 20122 39985 40097 57012==
12285,2022,07,26,04,00,AAXX 26041 12285 45/70 /0002 10177 20126 39983 40095 57008==
12285,2022,07,26,05,00,AAXX 26051 12285 45/70 /0002 10192 20132 39981 40092 57008==
12285,2022,07,26,06,00,AAXX 26061 12285 15/70 /0002 10215 20139 39976 40086 57009 60002 333 10248 20156 3/012 55000 70000==
12285,2022,07,26,07,00,AAXX 26071 12285 45/70 /0002 10240 20138 39974 40084 57009==
12285,2022,07,26,08,00,AAXX 26081 12285 45/70 /0003 10260 20142 39974 40082 57007==
12285,2022,07,26,09,00,AAXX 26091 12285 45/70 /0002 10261 20135 39973 40082 57002==
12285,2022,07,26,10,00,AAXX 26101 12285 45/70 /0002 10257 20142 39976 40085 52002==
12285,2022,07,26,11,00,AAXX 26111 12285 45/70 /0001 10257 20143 39976 40084 52002==
12285,2022,07,26,12,00,AAXX 26121 12285 15/70 /0002 10252 20152 39978 40087 52005 60001==
12285,2022,07,26,13,00,AAXX 26131 12285 47/70 /0002 10233 20154 39981 40091 52005 761//==
12285,2022,07,26,14,00,AAXX 26141 12285 45/70 /0002 10234 20152 39981 40090 52005==
12285,2022,07,26,15,00,AAXX 26151 12285 47/69 /0002 10204 20185 39985 40096 52007 761//==
12285,2022,07,26,16,00,AAXX 26161 12285 47/69 /0002 10196 20175 39991 40102 52011 761//==
12285,2022,07,26,17,00,AAXX 26171 12285 45/70 /0001 10189 20166 39996 40108 52015==
12285,2022,07,26,18,00,AAXX 26181 12285 17/70 /0001 10175 20152 30001 40113 52016 60022 761// 333 10268 20175==
12285,2022,07,26,19,00,AAXX 26191 12285 45/70 /0001 10172 20154 30004 40117 52013==
12285,2022,07,26,20,00,AAXX 26201 12285 45/65 /0000 10169 20153 30004 40116 52007==
12285,2022,07,26,21,00,AAXX 26211 12285 45/61 /2701 10162 20150 30004 40116 52003==
12285,2022,07,26,22,00,AAXX 26221 12285 47/57 /0000 10154 20146 30005 40118 54000 710//==
12285,2022,07,26,23,00,AAXX 26231 12285 47/02 /0001 10144 20138 30008 40121 52004 730//==
12285,2022,07,27,00,00,AAXX 27001 12285 15/64 /0001 10150 20145 30011 40125 52007 60001==
12285,2022,07,27,01,00,AAXX 27011 12285 45/70 /0002 10154 20142 30017 40130 52012==
12285,2022,07,27,02,00,AAXX 27021 12285 45/70 /0001 10157 20142 30017 40130 52009==
12285,2022,07,27,03,00,AAXX 27031 12285 45/70 /0001 10156 20144 30020 40133 52008==
12285,2022,07,27,04,00,AAXX 27041 12285 45/70 /0001 10153 20131 30024 40137 52007==
12285,2022,07,27,05,00,AAXX 27051 12285 45/70 /0002 10158 20122 30027 40140 52009==
12285,2022,07,27,06,00,AAXX 27061 12285 15/70 /0002 10169 20108 30031 40143 52011 60002 333 10175 20144 3/013 55000 70030==
12285,2022,07,27,07,00,AAXX 27071 12285 45/70 /0002 10183 20094 30031 40143 52007==
12285,2022,07,27,08,00,AAXX 27081 12285 45/70 /0003 10192 20079 30031 40142 52004==
12285,2022,07,27,09,00,AAXX 27091 12285 45/70 /0003 10206 20084 30032 40143 52002==
12285,2022,07,27,10,00,AAXX 27101 12285 45/70 /0003 10208 20087 30034 40145 52002==
12285,2022,07,27,11,00,AAXX 27111 12285 45/70 /0004 10212 20085 30034 40145 52004==
12285,2022,07,27,12,00,AAXX 27121 12285 15/70 /0003 10212 20087 30033 40144 54000 60001==
12295,2022,07,25,06,00,AAXX 25061 12295 11481 43102 10174 20139 39999 40179 58004 60002 700// 83230 333 10194 20131 31011 55072 70006 91202 93000=
12295,2022,07,25,07,00,AAXX 25071 12295 42484 52803 10179 20136 30000 40180 55004 85800 333 84816==
12295,2022,07,25,08,00,AAXX 25081 12295 42582 63102 10190 20123 39997 40176 57004 86800==
12295,2022,07,25,09,00,AAXX 25091 12295 42580 62802 10194 20129 39995 40174 58004 86200==
12295,2022,07,25,10,00,AAXX 25101 12295 42581 60601 10213 20145 39992 40170 57008 84201==
12295,2022,07,25,11,00,AAXX 25111 12295 42681 62302 10224 20145 39990 40167 57007 83201==
12295,2022,07,25,12,00,AAXX 25121 12295 12682 53002 10223 20123 39984 40161 57011 60001 83201==
12295,2022,07,25,13,00,AAXX 25131 12295 42682 43002 10232 20128 39980 40157 57012 83101==
12295,2022,07,25,14,00,AAXX 25141 12295 42681 21902 10237 20127 39973 40149 57017 81101==
12295,2022,07,25,15,00,AAXX 25151 12295 42680 22101 10245 20137 39967 40143 57017 81101==
12295,2022,07,25,16,00,AAXX 25161 12295 42983 21701 10233 20154 39964 40140 56016 80001==
12295,2022,07,25,17,00,AAXX 25171 12295 42982 21601 10210 20153 39962 40140 56011 80001==
12295,2022,07,25,18,00,AAXX 25181 12295 12984 20000 10189 20158 39958 40137 57009 60002 80002 333 10246 20174==
12295,2022,07,25,19,00,AAXX 25191 12295 45/65 /0000 10167 20152 39957 40137 57007==
12295,2022,07,25,20,00,AAXX 25201 12295 47/56 /0000 10154 20143 39953 40134 57009 710//==
12295,2022,07,25,21,00,AAXX 25211 12295 47/59 /0701 10145 20137 39952 40133 57006 710//==
12295,2022,07,25,22,00,AAXX 25221 12295 47/11 /0000 10139 20134 39953 40135 55004 720//==
12295,2022,07,25,23,00,AAXX 25231 12295 47/16 /0701 10134 20129 39951 40133 57002 710//==
12295,2022,07,26,00,00,AAXX 26001 12295 17/07 /1401 10130 20127 39946 40128 58006 60001 733//==
12295,2022,07,26,01,00,AAXX 26011 12295 47/07 /1501 10130 20127 39939 40121 58014 733//==
12295,2022,07,26,02,00,AAXX 26021 12295 47/06 /1301 10129 20127 39938 40120 56013 734//==
12295,2022,07,26,03,00,AAXX 26031 12295 47/83 /1502 10139 20133 39936 40117 56010 720//==
12295,2022,07,26,04,00,AAXX 26041 12295 45/82 /1402 10161 20139 39931 40111 58008==
12295,2022,07,26,05,00,AAXX 26051 12295 45/82 /1202 10184 20143 39927 40105 57011==
12295,2022,07,26,06,00,AAXX 26061 12295 12982 41402 10205 20151 39925 40102 56011 60002 80001 333 10206 20127 30010 55119==
12295,2022,07,26,07,00,AAXX 26071 12295 42682 51602 10218 20149 39923 40099 56008 81101==
12295,2022,07,26,08,00,AAXX 26081 12295 42/76 41402 10237 20155 39920 40095 57007 81031 333 91007 90710 91107==
12295,2022,07,26,09,00,AAXX 26091 12295 42980 41402 10250 20159 39919 40093 57006 80001 333 90730 91107==
12295,2022,07,26,10,00,AAXX 26101 12295 42/76 61903 10259 20153 39919 40093 56004 81031==
12295,2022,07,26,11,00,AAXX 26111 12295 42/80 61302 10264 20151 39916 40089 57004 81031==
12295,2022,07,26,12,00,AAXX 26121 12295 12680 71702 10270 20154 39913 40086 58006 60001 81136 333 90760 91107==
12295,2022,07,26,13,00,AAXX 26131 12295 42682 62002 10275 20158 39908 40081 58011 83138==
12295,2022,07,26,14,00,AAXX 26141 12295 42781 71701 10273 20147 39907 40080 57009 84208==
12295,2022,07,26,15,00,AAXX 26151 12295 42782 71301 10258 20180 39905 40079 57008 81138==
12295,2022,07,26,16,00,AAXX 26161 12295 42682 60000 10259 20183 39903 40077 57005 82538==
12295,2022,07,26,17,00,AAXX 26171 12295 42784 62903 10237 20157 39907 40082 55000 85501==
12295,2022,07,26,18,00,AAXX 26181 12295 12881 73104 10218 20172 39914 40090 53009 60002 8357/ 333 10278 20205 90760 91109==
12295,2022,07,26,19,00,AAXX 26191 12295 47458 /2803 10189 20172 39926 40104 53023 782// 333 90710 91109==
12295,2022,07,26,20,00,AAXX 26201 12295 47229 /3103 10166 20160 39927 40107 51020 783// 333 90710 91109==
12295,2022,07,26,21,00,AAXX 26211 12295 47/33 /3302 10157 20149 39936 40116 51022 783// 333 90730 91109==
12295,2022,07,26,22,00,AAXX 26221 12295 47/62 /3502 10154 20148 39932 40112 50006 782//==
12295,2022,07,26,23,00,AAXX 26231 12295 47/68 /0102 10153 20147 39938 40119 51011 761//==
12295,2022,07,27,00,00,AAXX 27001 12295 17/79 /3101 10151 20145 39939 40120 53003 60051 781// 333 90760 91109==
12295,2022,07,27,01,00,AAXX 27011 12295 47/57 /3201 10148 20142 39937 40118 50005 710//==
12295,2022,07,27,02,00,AAXX 27021 12295 45465 /2901 10148 20145 39942 40123 53004==
12295,2022,07,27,03,00,AAXX 27031 12295 47263 /2702 10152 20149 39944 40125 53005 722//==
12295,2022,07,27,04,00,AAXX 27041 12295 47458 /2902 10154 20149 39945 40126 51008 722//==
12295,2022,07,27,05,00,AAXX 27051 12295 45675 /2902 10156 20150 39947 40128 52005==
12295,2022,07,27,06,00,AAXX 27061 12295 12382 82703 10153 20138 39954 40135 53010 60062 885// 333 10218 20144 31014 55127 70059 85709==
12295,2022,07,27,07,00,AAXX 27071 12295 42482 72902 10161 20138 39957 40137 52012 878// 333 84814==
12295,2022,07,27,08,00,AAXX 27081 12295 42482 63002 10172 20137 39958 40138 51011 86800==
12295,2022,07,27,09,00,AAXX 27091 12295 42582 52903 10182 20117 39959 40138 52005 85200==
12295,2022,07,27,10,00,AAXX 27101 12295 42581 42604 10195 20105 39963 40141 53006 84200 333 90710 91108==
12295,2022,07,27,11,00,AAXX 27111 12295 42679 42803 10202 20103 39964 40142 52006 84200==
12295,2022,07,27,12,00,AAXX 27121 12295 12681 43003 10206 20095 39965 40143 51006 60001 84200 333 90760 91108==
12300,2022,07,25,06,00,AAXX 25061 12300 11984 51402 10199 20106 30062 40149 58015 60002 700// 80001 333 10253 20159 30013 55145 91202 93000=
12300,2022,07,25,07,00,AAXX 25071 12300 42984 31503 10236 20106 30058 40144 57016 80001==
12300,2022,07,25,08,00,AAXX 25081 12300 42984 11503 10269 20093 30050 40135 57018 80001==
12300,2022,07,25,09,00,AAXX 25091 12300 42984 11603 10289 20096 30045 40130 57017 80001==
12300,2022,07,25,10,00,AAXX 25101 12300 42984 11704 10301 20085 30040 40124 56018 80001==
12300,2022,07,25,11,00,AAXX 25111 12300 42984 11904 10314 20096 30030 40114 58020 80002==
12300,2022,07,25,12,00,AAXX 25121 12300 12984 11904 10321 20096 30020 40103 58025 60001 81102==
12300,2022,07,25,13,00,AAXX 25131 12300 42984 11903 10334 20101 30011 40094 57029 81102==
12300,2022,07,25,14,00,AAXX 25141 12300 42984 22004 10337 20097 30002 40085 57028 81402 333 90710 91108==
12300,2022,07,25,15,00,AAXX 25151 12300 42984 52103 10337 20109 39995 40078 57025 81406 333 90730 91108==
12300,2022,07,25,16,00,AAXX 25161 12300 42984 61803 10335 20108 39986 40069 57025 81406==
12300,2022,07,25,17,00,AAXX 25171 12300 42984 51803 10325 20105 39977 40060 57025 81408==
12300,2022,07,25,18,00,AAXX 25181 12300 12882 71802 10303 20108 39979 40063 55016 60002 81486 333 10342 20199 90760 91108==
12300,2022,07,25,19,00,AAXX 25191 12300 45/83 /1702 10291 20107 39977 40061 56009==
12300,2022,07,25,20,00,AAXX 25201 12300 47/60 /3004 10224 20182 30005 40091 53028 782// 333 90710 91117==
12300,2022,07,25,21,00,AAXX 25211 12300 47968 /0202 10206 20189 39986 40072 52007 723// 333 90730 91117==
12300,2022,07,25,22,00,AAXX 25221 12300 47/63 /1502 10202 20190 39983 40070 50006 723//==
12300,2022,07,25,23,00,AAXX 25231 12300 45970 /3002 10208 20187 39990 40076 55015==
12300,2022,07,26,00,00,AAXX 26001 12300 17/64 /3406 10199 20184 39996 40083 53010 60021 781// 333 90760 91117==
12300,2022,07,26,01,00,AAXX 26011 12300 45981 /3405 10191 20165 30000 40087 51017==
12300,2022,07,26,02,00,AAXX 26021 12300 47/43 /3304 10174 20159 30007 40095 52017 763//==
12300,2022,07,26,03,00,AAXX 26031 12300 47977 /3002 10170 20159 30013 40101 52017 723//==
12300,2022,07,26,04,00,AAXX 26041 12300 47967 /2802 10173 20163 30016 40104 51016 722//==
12300,2022,07,26,05,00,AAXX 26051 12300 45/60 /2402 10174 20164 30019 40107 51012==
12300,2022,07,26,06,00,AAXX 26061 12300 12565 72403 10179 20168 30022 40110 52009 60052 81208 333 10303 20169 31016 55128 70047==
12300,2022,07,26,07,00,AAXX 26071 12300 42265 72603 10190 20171 30024 40111 52008 872// 333 87106==
12300,2022,07,26,08,00,AAXX 26081 12300 42580 72604 10204 20152 30027 40114 52008 872//==
12300,2022,07,26,09,00,AAXX 26091 12300 42582 72605 10209 20138 30031 40118 53009 872//==
12300,2022,07,26,10,00,AAXX 26101 12300 42682 72804 10217 20133 30034 40121 52010 8483/==
12300,2022,07,26,11,00,AAXX 26111 12300 42782 72804 10233 20129 30031 40117 50004 873// 333 90710 91109==
12300,2022,07,26,12,00,AAXX 26121 12300 12784 62803 10242 20125 30030 40116 58001 60001 84332 333 90760 91109==
12300,2022,07,26,13,00,AAXX 26131 12300 42782 72704 10235 20131 30030 40116 56004 8433/==
12300,2022,07,26,14,00,AAXX 26141 12300 41780 73304 10211 20147 30032 40119 53001 72522 879//==
12300,2022,07,26,15,00,AAXX 26151 12300 41680 73404 10177 20159 30043 40131 53013 72522 879// 333 90730 91111==
12300,2022,07,26,16,00,AAXX 26161 12300 42682 73202 10184 20162 30045 40133 52015 878//==
12300,2022,07,26,17,00,AAXX 26171 12300 42682 73102 10188 20158 30046 40133 51014 8133/==
12300,2022,07,26,18,00,AAXX 26181 12300 11682 52803 10189 20154 30051 40139 53008 60042 70182 81231 333 10248 20172 90760 91111==
12300,2022,07,26,19,00,AAXX 26191 12300 45/84 /2602 10180 20151 30054 40142 52009==
12300,2022,07,26,20,00,AAXX 26201 12300 45/84 /2702 10177 20148 30056 40144 51010==
12300,2022,07,26,21,00,AAXX 26211 12300 45/84 /2601 10171 20146 30058 40146 52007==
12300,2022,07,26,22,00,AAXX 26221 12300 45/75 /0102 10158 20140 30061 40150 52007==
12300,2022,07,26,23,00,AAXX 26231 12300 45782 /3601 10158 20140 30064 40153 52008==
12300,2022,07,27,00,00,AAXX 27001 12300 15783 /3503 10157 20128 30067 40156 52009 60001==
12300,2022,07,27,01,00,AAXX 27011 12300 45782 /3503 10151 20117 30069 40158 52008==
12300,2022,07,27,02,00,AAXX 27021 12300 45781 /3302 10148 20106 30070 40159 51006==
12300,2022,07,27,03,00,AAXX 27031 12300 45782 /3202 10144 20094 30071 40160 52004==
12300,2022,07,27,04,00,AAXX 27041 12300 45/81 /3002 10140 20088 30072 40161 52003==
12300,2022,07,27,05,00,AAXX 27051 12300 45/83 /3003 10140 20088 30073 40162 52003==
12300,2022,07,27,06,00,AAXX 27061 12300 12/82 73103 10142 20084 30077 40166 53006 60002 8707/ 333 10192 20138 31013 55034 70043==
12300,2022,07,27,07,00,AAXX 27071 12300 42582 73004 10156 20083 30080 40169 52008 81171==
12300,2022,07,27,08,00,AAXX 27081 12300 42684 72904 10168 20077 30085 40173 52012 83138==
12300,2022,07,27,09,00,AAXX 27091 12300 42684 72905 10175 20064 30085 40173 51008 84438 333 91010 90730 91110==
12300,2022,07,27,10,00,AAXX 27101 12300 42684 73203 10173 20076 30086 40174 51006 874// 333 90710 91110==
12300,2022,07,27,11,00,AAXX 27111 12300 42784 72805 10180 20052 30086 40174 52001 86401 333 90710 91109==
12300,2022,07,27,12,00,AAXX 27121 12300 12784 72904 10185 20060 30085 40173 50000 60001 874// 333 90760 91110==
12310,2022,07,25,06,00,AAXX 25061 12310 11980 51603 10210 20079 30079 40143 57016 60002 700// 80001 333 10274 20169 30015 55149 91204 93000=
12310,2022,07,25,07,00,AAXX 25071 12310 42980 31605 10244 20075 30073 40136 57018 80001==
12310,2022,07,25,08,00,AAXX 25081 12310 42980 21704 10277 20075 30067 40129 57017 80001==
12310,2022,07,25,09,00,AAXX 25091 12310 42980 11605 10292 20083 30062 40124 57017 80001 333 90730 91110==
12310,2022,07,25,10,00,AAXX 25101 12310 42980 11704 10317 20093 30056 40117 57017 80001 333 90710 91110==
12310,2022,07,25,11,00,AAXX 25111 12310 42780 11704 10320 20089 30046 40107 58021 81102 333 91010 90710 91110==
12310,2022,07,25,12,00,AAXX 25121 12310 12780 11805 10331 20098 30035 40096 58027 60001 81102 333 90760 91110==
12310,2022,07,25,13,00,AAXX 25131 12310 42880 21604 10339 20085 30028 40089 56028 82102==
12310,2022,07,25,14,00,AAXX 25141 12310 42880 31906 10347 20084 30019 40079 57027 82102 333 90710 91109==
12310,2022,07,25,15,00,AAXX 25151 12310 42880 41604 10337 20083 30012 40073 57023 81102 333 90730 91109==
12310,2022,07,25,16,00,AAXX 25161 12310 42880 51905 10342 20080 30004 40064 57024 81402 333 90710 91110==
12310,2022,07,25,17,00,AAXX 25171 12310 42880 51803 10326 20088 39998 40059 57021 81406==
12310,2022,07,25,18,00,AAXX 25181 12310 12775 71704 10316 20092 39998 40059 56014 60002 83536 333 10355 20210 90760 91110==
12310,2022,07,25,19,00,AAXX 25191 12310 47/70 /2807 10233 20163 30028 40091 53024 781// 333 91017 90710 91118==
12310,2022,07,25,20,00,AAXX 25201 12310 47/68 /3601 10205 20184 30011 40074 50013 723//==
12310,2022,07,25,21,00,AAXX 25211 12310 47/69 /1802 10203 20182 30007 40070 50009 781// 333 90730 91118==
12310,2022,07,25,22,00,AAXX 25221 12310 45/63 /2104 10200 20185 30012 40075 55016 333 91009 90710 91109==
12310,2022,07,25,23,00,AAXX 25231 12310 47/56 /3305 10198 20174 30020 40083 53009 763//==
12310,2022,07,26,00,00,AAXX 26001 12310 15/70 /3305 10189 20167 30028 40092 53021 60051 333 90760 91118==
12310,2022,07,26,01,00,AAXX 26011 12310 47/70 /3204 10185 20161 30039 40103 53027 761//==
12310,2022,07,26,02,00,AAXX 26021 12310 47/65 /3402 10173 20160 30039 40103 51019 723//==
12310,2022,07,26,03,00,AAXX 26031 12310 47/62 /2702 10177 20166 30048 40112 52020 723//==
12310,2022,07,26,04,00,AAXX 26041 12310 45/63 /2601 10177 20166 30044 40108 50005==
12310,2022,07,26,05,00,AAXX 26051 12310 47/59 /2103 10179 20168 30048 40112 51009 710//==
12310,2022,07,26,06,00,AAXX 26061 12310 12568 72603 10189 20172 30052 40116 53004 60092 83508 333 10316 20173 31017 55127 70090==
12310,2022,07,26,07,00,AAXX 26071 12310 42575 72804 10198 20146 30055 40119 52011 81508==
12310,2022,07,26,08,00,AAXX 26081 12310 42580 72704 10212 20134 30055 40118 51007 82158==
12310,2022,07,26,09,00,AAXX 26091 12310 42680 72804 10222 20130 30060 40123 52008 862// 333 91009 90730 91109==
12310,2022,07,26,10,00,AAXX 26101 12310 42680 62604 10240 20132 30059 40122 50004 85238==
12310,2022,07,26,11,00,AAXX 26111 12310 42680 72903 10225 20124 30061 40124 51006 862//==
12310,2022,07,26,12,00,AAXX 26121 12310 12680 63002 10237 20123 30061 40124 51001 60001 863// 333 90760 91109==
12310,2022,07,26,13,00,AAXX 26131 12310 42680 62604 10247 20120 30059 40122 50000 863//==
12310,2022,07,26,14,00,AAXX 26141 12310 41680 72605 10232 20125 30063 40126 53002 78022 879//==
12310,2022,07,26,15,00,AAXX 26151 12310 41580 73002 10182 20154 30073 40137 53012 78082 869// 333 90730 91111==
12310,2022,07,26,16,00,AAXX 26161 12310 41580 73003 10197 20147 30073 40137 51014 72522 875//==
12310,2022,07,26,17,00,AAXX 26171 12310 42580 73003 10196 20142 30077 40141 51014 869//==
12310,2022,07,26,18,00,AAXX 26181 12310 11580 62702 10193 20145 30078 40142 53005 69982 70182 869// 333 10250 20181 90760 91111==
12310,2022,07,26,19,00,AAXX 26191 12310 45/70 /2101 10185 20146 30079 40143 51006==
12310,2022,07,26,20,00,AAXX 26201 12310 45/70 /1201 10170 20148 30082 40146 52005==
12310,2022,07,26,21,00,AAXX 26211 12310 45/70 /2201 10166 20146 30086 40151 53008==
12310,2022,07,26,22,00,AAXX 26221 12310 45/70 /2402 10163 20143 30088 40153 52009==
12310,2022,07,26,23,00,AAXX 26231 12310 45/70 /3003 10165 20108 30092 40157 52010==
12310,2022,07,27,00,00,AAXX 27001 12310 15/70 /3402 10153 20115 30094 40159 52008 60001 333 91203 91301 93000=
12310,2022,07,27,01,00,AAXX 27011 12310 45/70 /3401 10150 20116 30098 40163 52010==
12310,2022,07,27,02,00,AAXX 27021 12310 45/70 /3301 10145 20109 30100 40165 52008==
12310,2022,07,27,03,00,AAXX 27031 12310 45/70 /3002 10142 20084 30100 40165 51006==
12310,2022,07,27,04,00,AAXX 27041 12310 45/70 /2902 10142 20082 30101 40166 52003==
12310,2022,07,27,05,00,AAXX 27051 12310 45/70 /2702 10141 20083 30104 40169 53004==
12310,2022,07,27,06,00,AAXX 27061 12310 12/80 73002 10147 20089 30107 40172 52007 60002 8603/ 333 10193 20138 31013 55060 70008==
12310,2022,07,27,07,00,AAXX 27071 12310 42580 73003 10157 20080 30112 40177 52011 8113/==
12310,2022,07,27,08,00,AAXX 27081 12310 42680 72904 10166 20072 30114 40179 52010 8113/==
12310,2022,07,27,09,00,AAXX 27091 12310 42680 73004 10172 20064 30115 40180 51008 8513/==
12310,2022,07,27,10,00,AAXX 27101 12310 42780 72904 10178 20054 30115 40180 51003 8513/==
12310,2022,07,27,11,00,AAXX 27111 12310 42780 73003 10184 20059 30115 40179 51001 8513/==
12310,2022,07,27,12,00,AAXX 27121 12310 12780 73103 10198 20058 30114 40178 58001 60001 864// 333 90760 91109==
12330,2022,07,25,06,00,AAXX 25061 12330 12984 61703 10212 20118 30059 40163 58012 60002 80008 333 10245 20157 30013 55103 91203 93000=
12330,2022,07,25,07,00,AAXX 25071 12330 42984 51504 10233 20114 30053 40156 57016 80008==
12330,2022,07,25,08,00,AAXX 25081 12330 42984 31704 10251 20105 30050 40153 56015 80001==
12330,2022,07,25,09,00,AAXX 25091 12330 42984 21605 10271 20080 30047 40149 56012 80001==
12330,2022,07,25,10,00,AAXX 25101 12330 42984 11505 10286 20078 30041 40142 58012 80001==
12330,2022,07,25,11,00,AAXX 25111 12330 42984 11705 10293 20072 30032 40133 58018 80001==
12330,2022,07,25,12,00,AAXX 25121 12330 12984 11905 10308 20073 30024 40124 57023 60001 80001 333 90760 91109==
12330,2022,07,25,13,00,AAXX 25131 12330 42984 11804 10312 20070 30015 40115 57026 80001 333 90710 91109==
12330,2022,07,25,14,00,AAXX 25141 12330 42986 11805 10318 20068 30006 40106 57026 80001==
12330,2022,07,25,15,00,AAXX 25151 12330 42986 11705 10317 20067 39999 40099 57025 80001 333 90730 91110==
12330,2022,07,25,16,00,AAXX 25161 12330 42986 21605 10319 20069 39991 40091 57024 80001 333 90710 91109==
12330,2022,07,25,17,00,AAXX 25171 12330 42984 41604 10313 20077 39984 40084 57022 80006==
12330,2022,07,25,18,00,AAXX 25181 12330 12984 41304 10306 20083 39977 40077 57022 60002 80008 333 10323 20212 90760 91110==
12330,2022,07,25,19,00,AAXX 25191 12330 42984 41303 10286 20088 39979 40080 55012 80002==
12330,2022,07,25,20,00,AAXX 25201 12330 42984 41403 10273 20092 39981 40082 55003 80002==
12330,2022,07,25,21,00,AAXX 25211 12330 42984 41404 10262 20091 39971 40072 58006 80002==
12330,2022,07,25,22,00,AAXX 25221 12330 42/84 72803 10248 20095 39976 40078 57003 8707/==
12330,2022,07,25,23,00,AAXX 25231 12330 42/84 71702 10254 20096 39968 40070 57013 8707/==
12330,2022,07,26,00,00,AAXX 26001 12330 11/84 71602 10246 20097 39963 40065 58008 69901 72511 8707/==
12330,2022,07,26,01,00,AAXX 26011 12330 42/84 51501 10233 20100 39962 40064 56014 85030==
12330,2022,07,26,02,00,AAXX 26021 12330 42/84 33203 10209 20118 39973 40076 53005 83030 333 90710 91110==
12330,2022,07,26,03,00,AAXX 26031 12330 42480 73208 10202 20174 39979 40082 53016 8553/ 333 90730 91113==
12330,2022,07,26,04,00,AAXX 26041 12330 41470 83206 10193 20180 39988 40092 52026 79522 8593/==
12330,2022,07,26,05,00,AAXX 26051 12330 41482 83006 10188 20166 39994 40098 52021 72522 8152/==
12330,2022,07,26,06,00,AAXX 26061 12330 11484 83105 10188 20151 30001 40105 52022 60012 70398 8682/ 333 10306 20185 31018 55120 70013 90760 91113==
12330,2022,07,26,07,00,AAXX 26071 12330 42483 83005 10193 20154 30008 40112 52020 8117/==
12330,2022,07,26,08,00,AAXX 26081 12330 42583 82805 10211 20147 30008 40111 51014 8117/==
12330,2022,07,26,09,00,AAXX 26091 12330 42583 82705 10223 20142 30012 40115 51011 875//==
12330,2022,07,26,10,00,AAXX 26101 12330 42684 72807 10236 20129 30012 40115 52004 8427/ 333 90710 91111==
12330,2022,07,26,11,00,AAXX 26111 12330 42684 82806 10236 20126 30014 40117 52006 8527/==
12330,2022,07,26,12,00,AAXX 26121 12330 12684 72906 10241 20118 30014 40116 52002 60001 8327/ 333 90760 91111==
12330,2022,07,26,13,00,AAXX 26131 12330 42784 73006 10242 20112 30012 40114 50000 8427/==
12330,2022,07,26,14,00,AAXX 26141 12330 42784 72905 10256 20114 30011 40113 58003 8327/ 333 90710 91110==
12330,2022,07,26,15,00,AAXX 26151 12330 42784 62806 10265 20102 30009 40111 57005 85271 333 90730 91110==
12330,2022,07,26,16,00,AAXX 26161 12330 42784 62906 10247 20113 30011 40113 55001 82250==
12330,2022,07,26,17,00,AAXX 26171 12330 42784 73110 10216 20127 30020 40123 53009 872// 333 90710 91117==
12330,2022,07,26,18,00,AAXX 26181 12330 11784 73005 10198 20133 30024 40128 52015 69912 72522 872// 333 10267 20188 90760 91117==
12330,2022,07,26,19,00,AAXX 26191 12330 41/84 73104 10184 20145 30028 40133 51017 72522 8703/==
12330,2022,07,26,20,00,AAXX 26201 12330 42/84 73004 10181 20150 30033 40138 52013 8703/==
12330,2022,07,26,21,00,AAXX 26211 12330 41583 33104 10172 20152 30036 40141 52012 70381 81530==
12330,2022,07,26,22,00,AAXX 26221 12330 42582 33203 10164 20151 30041 40147 52013 82530==
12330,2022,07,26,23,00,AAXX 26231 12330 42575 12902 10153 20143 30043 40149 52010 81500==
12330,2022,07,27,00,00,AAXX 27001 12330 11580 63003 10156 20146 30046 40152 52010 69901 70381 86800==
12330,2022,07,27,01,00,AAXX 27011 12330 42582 73402 10156 20143 30047 40153 52006 878//==
12330,2022,07,27,02,00,AAXX 27021 12330 42684 70000 10154 20136 30046 40152 50003 875//==
12330,2022,07,27,03,00,AAXX 27031 12330 42584 83601 10155 20128 30050 40156 53004 875//==
12330,2022,07,27,04,00,AAXX 27041 12330 42683 70102 10153 20113 30052 40158 53005 875//==
12330,2022,07,27,05,00,AAXX 27051 12330 42683 73403 10160 20101 30052 40158 51006 875//==
12330,2022,07,27,06,00,AAXX 27061 12330 12683 73004 10166 20085 30058 40164 53008 69902 875// 333 10198 20153 30014 55036 70001==
12330,2022,07,27,07,00,AAXX 27071 12330 42684 62805 10165 20074 30060 40166 53008 86500==
12330,2022,07,27,08,00,AAXX 27081 12330 42684 42705 10184 20075 30060 40165 51008 82231==
12330,2022,07,27,09,00,AAXX 27091 12330 42784 42507 10194 20051 30060 40165 51002 82231==
12330,2022,07,27,10,00,AAXX 27101 12330 42784 42806 10206 20054 30059 40163 58001 83231 333 90710 91112==
12330,2022,07,27,11,00,AAXX 27111 12330 42784 42806 10206 20054 30060 40164 54000 83232 333 90710 91111==
12330,2022,07,27,12,00,AAXX 27121 12330 12784 42807 10212 20047 30061 40165 53001 60001 83202 333 91012 90760 91112==
12360,2022,07,25,06,00,AAXX 25061 12360 15/73 /1901 10186 20141 30050 40180 58004 60002 333 10200 20107 3/009 55074 91202 91301 93000=
12360,2022,07,25,07,00,AAXX 25071 12360 45/81 /2002 10199 20140 30045 40174 58011==
12360,2022,07,25,08,00,AAXX 25081 12360 45/73 /2102 10216 20130 30041 40169 57013==
12360,2022,07,25,09,00,AAXX 25091 12360 45/77 /2203 10228 20124 30039 40167 56011==
12360,2022,07,25,10,00,AAXX 25101 12360 45/78 /2002 10238 20124 30035 40162 57010==
12360,2022,07,25,11,00,AAXX 25111 12360 45/80 /1902 10249 20125 30029 40156 58012==
12360,2022,07,25,12,00,AAXX 25121 12360 15/80 /2302 10258 20119 30023 40149 57016 60001==
12360,2022,07,25,13,00,AAXX 25131 12360 45/80 /2002 10266 20123 30016 40142 57019==
12360,2022,07,25,14,00,AAXX 25141 12360 45/80 /1803 10267 20116 30009 40135 57020==
12360,2022,07,25,15,00,AAXX 25151 12360 45/80 /1703 10271 20116 30002 40127 57021==
12360,2022,07,25,16,00,AAXX 25161 12360 45/81 /1704 10270 20115 39995 40120 57021==
12360,2022,07,25,17,00,AAXX 25171 12360 45/81 /1402 10265 20125 39991 40116 56018==
12360,2022,07,25,18,00,AAXX 25181 12360 15/72 /1303 10248 20134 39983 40109 57019 60002 333 10273 20186 91203 91303 93000=
12360,2022,07,25,19,00,AAXX 25191 12360 45/74 /1102 10222 20133 39981 40108 57014==
12360,2022,07,25,20,00,AAXX 25201 12360 45/81 /1203 10206 20135 39978 40106 56013==
12360,2022,07,25,21,00,AAXX 25211 12360 45/73 /1202 10196 20135 39981 40109 55002==
12360,2022,07,25,22,00,AAXX 25221 12360 45/80 /1302 10187 20133 39977 40106 57004==
12360,2022,07,25,23,00,AAXX 25231 12360 45/80 /1302 10180 20133 39969 40098 58009==
12360,2022,07,26,00,00,AAXX 26001 12360 15/80 /1402 10181 20138 39963 40092 57018 60001==
12360,2022,07,26,01,00,AAXX 26011 12360 45/81 /1502 10182 20137 39961 40090 56016==
12360,2022,07,26,02,00,AAXX 26021 12360 45/77 /1502 10174 20133 39957 40086 57012==
12360,2022,07,26,03,00,AAXX 26031 12360 45/77 /1303 10174 20133 39952 40081 58011==
12360,2022,07,26,04,00,AAXX 26041 12360 45/77 /1502 10183 20132 39948 40076 57013==
12360,2022,07,26,05,00,AAXX 26051 12360 45/75 /1602 10189 20131 39947 40075 56010==
12360,2022,07,26,06,00,AAXX 26061 12360 15/78 /1902 10190 20136 39954 40082 53002 60002 333 10248 20173 3/016 55144==
12360,2022,07,26,07,00,AAXX 26071 12360 47/68 /3402 10189 20144 39952 40080 52004 781//==
12360,2022,07,26,08,00,AAXX 26081 12360 47/75 /3301 10199 20149 39954 40082 51007 723//==
12360,2022,07,26,09,00,AAXX 26091 12360 45/79 /2802 10202 20148 39968 40096 53014==
12360,2022,07,26,10,00,AAXX 26101 12360 47/68 /2904 10209 20165 39973 40101 53021 781//==
12360,2022,07,26,11,00,AAXX 26111 12360 47/80 /3003 10210 20170 39981 40109 51027 723//==
12360,2022,07,26,12,00,AAXX 26121 12360 15/76 /3004 10207 20150 39982 40110 51014 69951==
12360,2022,07,26,13,00,AAXX 26131 12360 45/75 /3002 10196 20138 39986 40114 51013 333 90710 91109==
12360,2022,07,26,14,00,AAXX 26141 12360 45/77 /3103 10202 20148 39983 40111 50002==
12360,2022,07,26,15,00,AAXX 26151 12360 45/74 /2803 10208 20149 39983 40111 51001 333 90730 91109==
12360,2022,07,26,16,00,AAXX 26161 12360 45/70 /2602 10208 20142 39986 40114 55000==
12360,2022,07,26,17,00,AAXX 26171 12360 45/80 /2002 10202 20148 39986 40114 52003==
12360,2022,07,26,18,00,AAXX 26181 12360 15/80 /1902 10200 20152 39987 40115 52004 69952 333 10212 20177 90760 91109==
12360,2022,07,26,19,00,AAXX 26191 12360 45/80 /1901 10183 20152 39988 40117 53002==
12360,2022,07,26,20,00,AAXX 26201 12360 45/68 /0901 10160 20142 39988 40118 51002==
12360,2022,07,26,21,00,AAXX 26211 12360 45/74 /2302 10167 20154 39989 40119 52002==
12360,2022,07,26,22,00,AAXX 26221 12360 45/80 /3102 10178 20143 39998 40127 53010 333 90710 91108==
12360,2022,07,26,23,00,AAXX 26231 12360 45/83 /3302 10169 20138 30003 40133 53015==
12360,2022,07,27,00,00,AAXX 27001 12360 15/81 /3402 10158 20135 30007 40137 51018 60001 333 90760 91108==
12360,2022,07,27,01,00,AAXX 27011 12360 45/80 /3101 10145 20130 30010 40141 51012==
12360,2022,07,27,02,00,AAXX 27021 12360 45/83 /3301 10142 20124 30012 40143 51009==
12360,2022,07,27,03,00,AAXX 27031 12360 45/77 /3201 10124 20106 30015 40147 52008==
12360,2022,07,27,04,00,AAXX 27041 12360 45/81 /3002 10128 20112 30021 40153 53011==
12360,2022,07,27,05,00,AAXX 27051 12360 45/79 /3202 10148 20118 30020 40151 50008==
12360,2022,07,27,06,00,AAXX 27061 12360 15/77 /3102 10164 20107 30022 40152 51007 60002 333 10200 20117 3/008 55003 70005==
12360,2022,07,27,07,00,AAXX 27071 12360 45/77 /3003 10178 20089 30022 40152 51001==
12360,2022,07,27,08,00,AAXX 27081 12360 45/80 /3003 10179 20085 30026 40156 52006 333 90710 91107==
12360,2022,07,27,09,00,AAXX 27091 12360 45/81 /3004 10189 20094 30028 40157 53006 333 90730 91107==
12360,2022,07,27,10,00,AAXX 27101 12360 45/75 /2804 10194 20096 30026 40155 50004 333 90710 91111==
12360,2022,07,27,11,00,AAXX 27111 12360 45/76 /2804 10200 20093 30026 40155 54000==
12360,2022,07,27,12,00,AAXX 27121 12360 15/69 /2504 10204 20096 30022 40150 57006 60001 333 90760 91111==
12375,2022,07,25,06,00,AAXX 25061 12375 12981 21402 10192 20147 30057 40184 58005 60002 80001 333 10207 20130 31011 91202 93000=
12375,2022,07,25,07,00,AAXX 25071 12375 42581 31602 10204 20141 30052 40178 58009 81101==
12375,2022,07,25,08,00,AAXX 25081 12375 42581 41202 10218 20137 30050 40175 57011 82101==
12375,2022,07,25,09,00,AAXX 25091 12375 42681 51102 10225 20124 30046 40171 57011 81102==
12375,2022,07,25,10,00,AAXX 25101 12375 42681 51902 10237 20130 30043 40167 57009 81102==
12375,2022,07,25,11,00,AAXX 25111 12375 42681 41502 10243 20129 30037 40161 57013 81202==
12375,2022,07,25,12,00,AAXX 25121 12375 12981 31202 10257 20122 30031 40154 58015 60001 81202==
12375,2022,07,25,13,00,AAXX 25131 12375 42781 21502 10263 20131 30026 40149 57017 81202==
12375,2022,07,25,14,00,AAXX 25141 12375 42981 11702 10264 20121 30019 40142 57018 80001==
12375,2022,07,25,15,00,AAXX 25151 12375 42981 12202 10270 20126 30012 40135 57019 80001==
12375,2022,07,25,16,00,AAXX 25161 12375 42981 11502 10267 20124 30007 40130 57019 80001==
12375,2022,07,25,17,00,AAXX 25171 12375 42981 11203 10259 20140 30003 40126 56016 80001==
12375,2022,07,25,18,00,AAXX 25181 12375 12981 11203 10248 20134 39997 40120 57015 60002 80001 333 10271 20190==
12375,2022,07,25,19,00,AAXX 25191 12375 42/81 21202 10236 20129 39994 40118 57013 81031==
12375,2022,07,25,20,00,AAXX 25201 12375 42981 11203 10225 20133 39991 40115 56012 80002==
12375,2022,07,25,21,00,AAXX 25211 12375 42981 01203 10214 20131 39990 40115 57007==
12375,2022,07,25,22,00,AAXX 25221 12375 42981 01202 10199 20136 39994 40119 55000==
12375,2022,07,25,23,00,AAXX 25231 12375 42981 01202 10192 20136 39986 40112 58005==
12375,2022,07,26,00,00,AAXX 26001 12375 12981 01203 10187 20135 39982 40108 58008 60001==
12375,2022,07,26,01,00,AAXX 26011 12375 42981 01203 10177 20134 39975 40101 57019==
12375,2022,07,26,02,00,AAXX 26021 12375 42981 21202 10173 20134 39973 40099 57013 80002==
12375,2022,07,26,03,00,AAXX 26031 12375 42/81 31203 10168 20133 39966 40092 57016 81032==
12375,2022,07,26,04,00,AAXX 26041 12375 42/81 51203 10173 20136 39963 40089 57012 81036==
12375,2022,07,26,05,00,AAXX 26051 12375 42/81 61203 10185 20140 39960 40086 56013 81036==
12375,2022,07,26,06,00,AAXX 26061 12375 12/81 61203 10204 20147 39957 40082 57009 60002 81038 333 10248 20168 30016==
12375,2022,07,26,07,00,AAXX 26071 12375 42/81 71304 10232 20147 39954 40078 57009 83056==
12375,2022,07,26,08,00,AAXX 26081 12375 42/81 71402 10249 20152 39955 40078 55005 8707/==
12375,2022,07,26,09,00,AAXX 26091 12375 42/81 72102 10263 20154 39955 40077 56002 8707/==
12375,2022,07,26,10,00,AAXX 26101 12375 42/81 62706 10258 20161 39961 40084 53007 86030==
12375,2022,07,26,11,00,AAXX 26111 12375 42/81 72707 10241 20153 39966 40089 53011 8703/==
12375,2022,07,26,12,00,AAXX 26121 12375 12/81 72708 10217 20151 39972 40096 52017 60001 8707/==
12375,2022,07,26,13,00,AAXX 26131 12375 41560 72907 10190 20173 39976 40102 52015 78022 873// 333 91012 90710 91112==
12375,2022,07,26,14,00,AAXX 26141 12375 41370 72805 10196 20184 39982 40107 52016 72522 878// 333 83809==
12375,2022,07,26,15,00,AAXX 26151 12375 41475 72706 10197 20180 39983 40108 51011 78082 873// 333 90730 91112==
12375,2022,07,26,16,00,AAXX 26161 12375 41/81 72704 10190 20155 39989 40115 52013 72522 8707/==
12375,2022,07,26,17,00,AAXX 26171 12375 41/80 82603 10186 20160 39995 40121 53013 76122 8802/==
12375,2022,07,26,18,00,AAXX 26181 12375 11/70 82602 10184 20166 39991 40117 50008 60032 76186 8802/ 333 10264 20184 90760 91112==
12375,2022,07,26,19,00,AAXX 26191 12375 41/80 72602 10181 20164 39992 40118 51003 72122 8707/==
12375,2022,07,26,20,00,AAXX 26201 12375 42/70 62602 10176 20165 39990 40116 57005 86030==
12375,2022,07,26,21,00,AAXX 26211 12375 41/70 62301 10174 20163 39993 40120 52002 70162 82036==
12375,2022,07,26,22,00,AAXX 26221 12375 42/70 62401 10171 20158 39995 40122 53003 81038==
12375,2022,07,26,23,00,AAXX 26231 12375 41960 42501 10158 20153 39996 40123 51006 71111 80008==
12375,2022,07,27,00,00,AAXX 27001 12375 11765 72702 10162 20154 39998 40125 52005 69901 70361 8355/==
12375,2022,07,27,01,00,AAXX 27011 12375 42781 73105 10168 20151 30004 40131 53009 8457/==
12375,2022,07,27,02,00,AAXX 27021 12375 42481 73003 10161 20146 30006 40133 52010 875// 333 87615==
12375,2022,07,27,03,00,AAXX 27031 12375 42681 72904 10157 20142 30009 40137 52011 8323/==
12375,2022,07,27,04,00,AAXX 27041 12375 42581 72904 10155 20130 30016 40144 53012 875//==
12375,2022,07,27,05,00,AAXX 27051 12375 42/81 43003 10154 20123 30020 40148 52014 84030==
12375,2022,07,27,06,00,AAXX 27061 12375 12/81 13105 10171 20107 30023 40150 51014 69902 81030 333 10185 20153 31014 70032==
12375,2022,07,27,07,00,AAXX 27071 12375 42/81 13203 10184 20100 30023 40149 51007 81030==
12375,2022,07,27,08,00,AAXX 27081 12375 42/81 12805 10196 20095 30024 40150 52004 81030==
12375,2022,07,27,09,00,AAXX 27091 12375 42681 32905 10208 20106 30027 40153 53004 82130==
12375,2022,07,27,10,00,AAXX 27101 12375 42681 42805 10209 20107 30028 40153 52005 83230==
12375,2022,07,27,11,00,AAXX 27111 12375 42681 42905 10206 20112 30028 40154 51004 84200 333 90710 91109==
12375,2022,07,27,12,00,AAXX 27121 12375 12781 42805 10209 20110 30028 40153 51001 60001 84200 333 90760 91109==
12385,2022,07,25,06,00,AAXX 25061 12385 11581 60701 10186 20141 30002 40186 57001 60002 703// 85830 333 10201 20115 30009 55090 91201 96122 93000=
12385,2022,07,25,07,00,AAXX 25071 12385 42580 31501 10197 20138 39999 40182 57005 82831==
12385,2022,07,25,08,00,AAXX 25081 12385 42581 63202 10200 20137 39994 40177 58008 85201==
12385,2022,07,25,09,00,AAXX 25091 12385 42681 62502 10221 20140 39992 40174 57010 84204==
12385,2022,07,25,10,00,AAXX 25101 12385 42680 60401 10225 20124 39989 40170 57010 83286==
12385,2022,07,25,11,00,AAXX 25111 12385 42677 62502 10237 20123 39985 40165 58009 82208==
12385,2022,07,25,12,00,AAXX 25121 12385 12780 51401 10246 20115 39979 40159 58013 60001 82281==
12385,2022,07,25,13,00,AAXX 25131 12385 42781 33302 10251 20120 39974 40153 57015 81101==
12385,2022,07,25,14,00,AAXX 25141 12385 42778 33301 10257 20118 39967 40146 57018 81101==
12385,2022,07,25,15,00,AAXX 25151 12385 42981 20101 10258 20123 39962 40141 57017 80001==
12385,2022,07,25,16,00,AAXX 25161 12385 42983 20501 10259 20120 39957 40136 57017 80001==
12385,2022,07,25,17,00,AAXX 25171 12385 42982 10401 10256 20131 39953 40132 57014 80001==
12385,2022,07,25,18,00,AAXX 25181 12385 12984 10701 10233 20135 39951 40131 56011 60002 80001 333 10261 20182 91202 93000=
12385,2022,07,25,19,00,AAXX 25191 12385 42/84 10901 10197 20134 39948 40130 57009 81031==
12385,2022,07,25,20,00,AAXX 25201 12385 42/83 10701 10176 20129 39946 40130 57007 81031==
12385,2022,07,25,21,00,AAXX 25211 12385 45/81 /0901 10163 20130 39944 40128 57007==
12385,2022,07,25,22,00,AAXX 25221 12385 45/75 /0000 10153 20130 39947 40132 55001==
12385,2022,07,25,23,00,AAXX 25231 12385 45/82 /1302 10165 20130 39941 40125 58005==
12385,2022,07,26,00,00,AAXX 26001 12385 15/83 /1302 10165 20125 39936 40120 58008 60001==
12385,2022,07,26,01,00,AAXX 26011 12385 45/83 /1302 10158 20125 39932 40116 56015==
12385,2022,07,26,02,00,AAXX 26021 12385 45/83 /1302 10155 20124 39927 40112 57014==
12385,2022,07,26,03,00,AAXX 26031 12385 45/82 /1402 10153 20126 39926 40111 56010==
12385,2022,07,26,04,00,AAXX 26041 12385 45/82 /1303 10168 20133 39919 40103 57013==
12385,2022,07,26,05,00,AAXX 26051 12385 42/80 61402 10192 20142 39917 40099 57010 81038==
12385,2022,07,26,06,00,AAXX 26061 12385 12/79 51403 10204 20143 39914 40095 56012 60002 81038 333 10233 20149 30011 55140==
12385,2022,07,26,07,00,AAXX 26071 12385 42681 51402 10231 20152 39914 40094 56005 81138==
12385,2022,07,26,08,00,AAXX 26081 12385 42680 51504 10252 20146 39907 40085 58010 81138==
12385,2022,07,26,09,00,AAXX 26091 12385 42/80 61404 10267 20145 39906 40083 58008 82038==
12385,2022,07,26,10,00,AAXX 26101 12385 42/80 51404 10281 20124 39906 40082 56008 83031==
12385,2022,07,26,11,00,AAXX 26111 12385 42/80 41303 10287 20126 39903 40079 57004 83031==
12385,2022,07,26,12,00,AAXX 26121 12385 12771 61602 10299 20148 39900 40075 58006 60001 81138==
12385,2022,07,26,13,00,AAXX 26131 12385 42880 61301 10294 20136 39895 40070 57011 82170==
12385,2022,07,26,14,00,AAXX 26141 12385 42881 73601 10286 20148 39894 40070 57009 8637/==
12385,2022,07,26,15,00,AAXX 26151 12385 42875 72907 10218 20156 39907 40087 53007 879// 333 91013 90730 91113==
12385,2022,07,26,16,00,AAXX 26161 12385 41336 82905 10179 20171 39922 40105 53027 79582 889// 333 84707 91010 90710 91112==
12385,2022,07,26,17,00,AAXX 26171 12385 41256 82903 10180 20177 39927 40110 51033 79598 889// 333 85705==
12385,2022,07,26,18,00,AAXX 26181 12385 11256 83202 10179 20176 39929 40112 51022 60132 78098 889// 333 10299 20178 85704 90760 91113==
12385,2022,07,26,19,00,AAXX 26191 12385 41360 83103 10175 20170 39932 40115 52010 76186 8652/ 333 84708 86614==
12385,2022,07,26,20,00,AAXX 26201 12385 41363 73202 10170 20165 39932 40116 51005 72122 875// 333 84707==
12385,2022,07,26,21,00,AAXX 26211 12385 47771 /3202 10168 20160 39935 40119 52006 722//==
12385,2022,07,26,22,00,AAXX 26221 12385 45962 /2701 10166 20160 39940 40124 53008==
12385,2022,07,26,23,00,AAXX 26231 12385 47456 /2601 10163 20158 39943 40127 52011 710//==
12385,2022,07,27,00,00,AAXX 27001 12385 17550 /2401 10158 20153 39944 40129 51009 69981 720//==
12385,2022,07,27,01,00,AAXX 27011 12385 47656 /2301 10157 20154 39943 40128 50003 710//==
12385,2022,07,27,02,00,AAXX 27021 12385 47/02 /0000 10147 20142 39942 40127 58001 734//==
12385,2022,07,27,03,00,AAXX 27031 12385 47104 /0000 10141 20138 39945 40131 53001 733//==
12385,2022,07,27,04,00,AAXX 27041 12385 47014 /2201 10152 20150 39947 40132 53004 720//==
12385,2022,07,27,05,00,AAXX 27051 12385 41119 82703 10161 20159 39952 40137 52010 710// 886// 333 88702==
12385,2022,07,27,06,00,AAXX 27061 12385 11112 82903 10160 20158 39956 40141 52011 69982 710// 886// 333 10181 20139 32012 55093 70133 88702==
12385,2022,07,27,07,00,AAXX 27071 12385 41267 83204 10159 20153 39961 40146 52014 76122 877// 333 87706==
12385,2022,07,27,08,00,AAXX 27081 12385 41577 63303 10179 20150 39964 40148 52012 72122 86200==
12385,2022,07,27,09,00,AAXX 27091 12385 41576 33203 10193 20118 39966 40149 51010 70161 83100==
12385,2022,07,27,10,00,AAXX 27101 12385 42680 23303 10207 20099 39969 40151 52008 82100 333 91008 90710 91108==
12385,2022,07,27,11,00,AAXX 27111 12385 42780 73203 10206 20104 39969 40151 51005 878//==
12385,2022,07,27,12,00,AAXX 27121 12385 11780 73103 10214 20102 39967 40149 50001 69901 70261 878// 333 90760 91108==
12399,2022,07,25,06,00,AAXX 25061 12399 11481 23301 10179 20142 30019 40182 58002 60002 700// 81101 333 10209 20121 30011 55101 91202 96122 93000=
12399,2022,07,25,07,00,AAXX 25071 12399 42581 33302 10193 20137 30017 40180 58004 83100==
12399,2022,07,25,08,00,AAXX 25081 12399 42581 43002 10201 20133 30015 40177 57006 84200==
12399,2022,07,25,09,00,AAXX 25091 12399 42582 53102 10210 20132 30013 40175 57006 85200==
12399,2022,07,25,10,00,AAXX 25101 12399 42681 53202 10221 20137 30010 40171 57007 85201==
12399,2022,07,25,11,00,AAXX 25111 12399 42680 63602 10230 20135 30006 40166 58009 84201==
12399,2022,07,25,12,00,AAXX 25121 12399 12680 50302 10235 20131 30001 40161 58012 60001 83104==
12399,2022,07,25,13,00,AAXX 25131 12399 42681 43302 10245 20134 39999 40158 57011 82101==
12399,2022,07,25,14,00,AAXX 25141 12399 42680 33401 10250 20129 39993 40152 57013 81101==
12399,2022,07,25,15,00,AAXX 25151 12399 42681 30302 10247 20126 39988 40147 58013 81101==
12399,2022,07,25,16,00,AAXX 25161 12399 42682 20402 10246 20129 39983 40142 57016 81101==
12399,2022,07,25,17,00,AAXX 25171 12399 42982 20601 10244 20124 39981 40140 56012 80001==
12399,2022,07,25,18,00,AAXX 25181 12399 12984 10501 10218 20147 39978 40139 57010 60002 80001 333 10251 20179==
12399,2022,07,25,19,00,AAXX 25191 12399 45/79 /1101 10189 20148 39977 40139 57006==
12399,2022,07,25,20,00,AAXX 25201 12399 45/81 /1101 10168 20144 39973 40136 57008==
12399,2022,07,25,21,00,AAXX 25211 12399 45/67 /1201 10155 20144 39973 40137 56005==
12399,2022,07,25,22,00,AAXX 25221 12399 45/82 /1402 10163 20147 39974 40138 55003==
12399,2022,07,25,23,00,AAXX 25231 12399 45/81 /1201 10157 20141 39974 40138 52001==
12399,2022,07,26,00,00,AAXX 26001 12399 15/80 /1101 10147 20136 39967 40131 58006 60001==
12399,2022,07,26,01,00,AAXX 26011 12399 45/78 /1301 10142 20132 39960 40125 58014==
12399,2022,07,26,02,00,AAXX 26021 12399 45/78 /1302 10136 20130 39960 40125 56014==
12399,2022,07,26,03,00,AAXX 26031 12399 45/81 /1302 10138 20130 39959 40124 56008==
12399,2022,07,26,04,00,AAXX 26041 12399 45/82 /1302 10154 20136 39953 40117 58007==
12399,2022,07,26,05,00,AAXX 26051 12399 45/80 /1502 10172 20139 39950 40113 57010==
12399,2022,07,26,06,00,AAXX 26061 12399 12980 31403 10204 20147 39944 40105 57015 60002 80001 333 10218 20135 30010 55139==
12399,2022,07,26,07,00,AAXX 26071 12399 42980 31403 10230 20146 39943 40102 57010 80002==
12399,2022,07,26,08,00,AAXX 26081 12399 42981 51504 10248 20151 39942 40100 56008 80006==
12399,2022,07,26,09,00,AAXX 26091 12399 42981 51804 10254 20142 39939 40097 57005 80008==
12399,2022,07,26,10,00,AAXX 26101 12399 42974 51804 10266 20144 39936 40093 57007 80008==
12399,2022,07,26,11,00,AAXX 26111 12399 42/80 41303 10277 20143 39933 40090 57009 81032==
12399,2022,07,26,12,00,AAXX 26121 12399 12/77 51403 10291 20145 39926 40082 58013 60001 82032==
12399,2022,07,26,13,00,AAXX 26131 12399 42782 61703 10292 20134 39923 40079 57013 81136==
12399,2022,07,26,14,00,AAXX 26141 12399 42781 61703 10290 20136 39920 40076 56013 82138==
12399,2022,07,26,15,00,AAXX 26151 12399 42780 71001 10292 20150 39917 40073 57009 83208==
12399,2022,07,26,16,00,AAXX 26161 12399 42781 71302 10290 20140 39913 40069 57010 83338==
12399,2022,07,26,17,00,AAXX 26171 12399 42666 72708 10223 20161 39929 40089 53009 879// 333 91015 90710 91115==
12399,2022,07,26,18,00,AAXX 26181 12399 11566 82905 10185 20175 39935 40097 53018 69962 78022 889// 333 10296 20185 90760 91115==
12399,2022,07,26,19,00,AAXX 26191 12399 47/56 /3204 10181 20181 39944 40106 51031 783// 333 90710 91111==
12399,2022,07,26,20,00,AAXX 26201 12399 47/62 /3402 10177 20175 39940 40102 50011 781//==
12399,2022,07,26,21,00,AAXX 26211 12399 47/64 /2801 10178 20178 39944 40106 51009 723// 333 90730 91111==
12399,2022,07,26,22,00,AAXX 26221 12399 47/59 /2902 10179 20179 39947 40109 53003 710//==
12399,2022,07,26,23,00,AAXX 26231 12399 45/70 /3103 10173 20171 39952 40115 52012==
12399,2022,07,27,00,00,AAXX 27001 12399 15/72 /3002 10168 20166 39954 40117 52010 60071 333 91111 91205 91303 93007=
12399,2022,07,27,01,00,AAXX 27011 12399 45/70 /3102 10161 20159 39956 40119 51009==
12399,2022,07,27,02,00,AAXX 27021 12399 45/69 /3002 10158 20156 39958 40122 52006==
12399,2022,07,27,03,00,AAXX 27031 12399 45/62 /2901 10150 20150 39960 40124 52006==
12399,2022,07,27,04,00,AAXX 27041 12399 45/63 /3101 10154 20154 39961 40125 52005==
12399,2022,07,27,05,00,AAXX 27051 12399 45/73 /3302 10162 20157 39965 40129 52007==
12399,2022,07,27,06,00,AAXX 27061 12399 12581 73402 10169 20156 39972 40135 53012 60072 875// 333 10185 20148 31014 55131 70076==
12399,2022,07,27,07,00,AAXX 27071 12399 42581 73402 10175 20157 39975 40138 52014 8653/==
12399,2022,07,27,08,00,AAXX 27081 12399 42481 73502 10186 20157 39976 40138 51011 878//==
12399,2022,07,27,09,00,AAXX 27091 12399 42481 73102 10194 20153 39979 40141 52007 878//==
12399,2022,07,27,10,00,AAXX 27101 12399 42481 63203 10196 20162 39983 40145 53008 86300==
12399,2022,07,27,11,00,AAXX 27111 12399 42577 63204 10207 20155 39984 40145 51008 86200 333 90710 91109==
12399,2022,07,27,12,00,AAXX 27121 12399 12577 53204 10207 20129 39986 40147 52007 60001 85200 333 90760 91109==
12400,2022,07,25,06,00,AAXX 25061 12400 11981 61503 10208 20091 39927 40152 58015 60002 702// 80002 333 10254 20174 30016 55151 91203 93000=
12400,2022,07,25,07,00,AAXX 25071 12400 42983 41503 10233 20104 39923 40146 57016 80002==
12400,2022,07,25,08,00,AAXX 25081 12400 42983 21503 10263 20096 39918 40138 56016 80002==
12400,2022,07,25,09,00,AAXX 25091 12400 42982 11603 10283 20096 39915 40134 57012 80002==
12400,2022,07,25,10,00,AAXX 25101 12400 42982 11803 10294 20100 39911 40129 57012 80002==
12400,2022,07,25,11,00,AAXX 25111 12400 42982 11703 10300 20095 39903 40120 58015 80002==
12400,2022,07,25,12,00,AAXX 25121 12400 12981 01902 10321 20102 39891 40107 58024 60001 333 90760 91107==
12400,2022,07,25,13,00,AAXX 25131 12400 42883 12103 10326 20100 39883 40098 57028 81100==
12400,2022,07,25,14,00,AAXX 25141 12400 42883 12103 10331 20098 39876 40091 56027 81102==
12400,2022,07,25,15,00,AAXX 25151 12400 42882 12104 10327 20089 39868 40083 56023 81102==
12400,2022,07,25,16,00,AAXX 25161 12400 42881 22103 10328 20083 39862 40076 57021 81102 333 90710 91108==
12400,2022,07,25,17,00,AAXX 25171 12400 42/82 22103 10320 20089 39856 40071 57020 81042==
12400,2022,07,25,18,00,AAXX 25181 12400 12/82 32102 10302 20091 39854 40070 55014 60002 81046 333 10333 20207 90760 91108==
12400,2022,07,25,19,00,AAXX 25191 12400 42/80 61802 10281 20103 39854 40072 55008 82056==
12400,2022,07,25,20,00,AAXX 25201 12400 42/80 71802 10276 20108 39853 40071 57003 83056==
12400,2022,07,25,21,00,AAXX 25211 12400 45977 /3203 10267 20127 39858 40077 53004==
12400,2022,07,25,22,00,AAXX 25221 12400 47979 /0502 10259 20134 39850 40069 58004 723//==
12400,2022,07,25,23,00,AAXX 25231 12400 45980 /0802 10249 20134 39849 40069 58004==
12400,2022,07,26,00,00,AAXX 26001 12400 15/77 /3103 10229 20155 39854 40076 55004 69901 333 90760 91109==
12400,2022,07,26,01,00,AAXX 26011 12400 45/73 /3105 10210 20170 39862 40085 53012==
12400,2022,07,26,02,00,AAXX 26021 12400 45/80 /3205 10196 20162 39870 40094 53021 333 91010 90710 91112==
12400,2022,07,26,03,00,AAXX 26031 12400 45980 /3205 10186 20157 39875 40100 51021 333 90730 91112==
12400,2022,07,26,04,00,AAXX 26041 12400 45779 /3104 10182 20149 39881 40107 52019==
12400,2022,07,26,05,00,AAXX 26051 12400 42482 83103 10177 20153 39886 40112 52016 8587/ 333 90710 91110==
12400,2022,07,26,06,00,AAXX 26061 12400 12582 83002 10183 20154 39893 40119 52018 69902 8117/ 333 10302 20177 30018 55141 90760 91112==
12400,2022,07,26,07,00,AAXX 26071 12400 42582 82703 10199 20157 39896 40121 52015 81287==
12400,2022,07,26,08,00,AAXX 26081 12400 42582 82803 10209 20143 39899 40123 51013 86237 333 90710 91108==
12400,2022,07,26,09,00,AAXX 26091 12400 42682 83004 10217 20128 39900 40124 52007 83337 333 90730 91108==
12400,2022,07,26,10,00,AAXX 26101 12400 42682 82804 10226 20131 39900 40123 51004 878//==
12400,2022,07,26,11,00,AAXX 26111 12400 42682 73005 10229 20125 39900 40123 52001 84238 333 90710 91108==
12400,2022,07,26,12,00,AAXX 26121 12400 12782 72804 10238 20108 39899 40121 57001 60001 83458 333 91010 90760 91110==
12400,2022,07,26,13,00,AAXX 26131 12400 42782 62704 10251 20105 39897 40118 58003 84238 333 90710 91109==
12400,2022,07,26,14,00,AAXX 26141 12400 42784 72904 10241 20114 39900 40122 55000 8583/ 333 91009 90710 91109==
12400,2022,07,26,15,00,AAXX 26151 12400 42783 62905 10245 20111 39901 40122 53002 83330 333 90730 91109==
12400,2022,07,26,16,00,AAXX 26161 12400 42783 73206 10211 20140 39907 40131 53010 8593/ 333 91012 90710 91113==
12400,2022,07,26,17,00,AAXX 26171 12400 42784 73304 10201 20145 39909 40134 52009 8245/ 333 90710 91110==
12400,2022,07,26,18,00,AAXX 26181 12400 11784 73303 10194 20144 39914 40140 52013 69902 72522 8433/ 333 10258 20183 90760 91113==
12400,2022,07,26,19,00,AAXX 26191 12400 42784 63302 10190 20140 39917 40143 52010 81431==
12400,2022,07,26,20,00,AAXX 26201 12400 42784 13302 10180 20143 39919 40146 51010 81431==
12400,2022,07,26,21,00,AAXX 26211 12400 45/81 /3002 10174 20141 39925 40152 53011==
12400,2022,07,26,22,00,AAXX 26221 12400 45/81 /2601 10162 20137 39927 40155 52010==
12400,2022,07,26,23,00,AAXX 26231 12400 45581 /2201 10157 20137 39927 40156 51008==
12400,2022,07,27,00,00,AAXX 27001 12400 15881 /2601 10155 20133 39926 40155 50001 69901==
12400,2022,07,27,01,00,AAXX 27011 12400 45/81 /3103 10156 20122 39928 40157 53001==
12400,2022,07,27,02,00,AAXX 27021 12400 45782 /3302 10152 20125 39926 40155 57001==
12400,2022,07,27,03,00,AAXX 27031 12400 45481 /3203 10142 20122 39931 40161 53005==
12400,2022,07,27,04,00,AAXX 27041 12400 45980 /3303 10142 20121 39934 40164 53006==
12400,2022,07,27,05,00,AAXX 27051 12400 42775 73202 10146 20104 39936 40166 51010 8253/==
12400,2022,07,27,06,00,AAXX 27061 12400 12775 73302 10152 20100 39942 40172 53011 69902 8253/ 333 10195 20141 30014 55061==
12400,2022,07,27,07,00,AAXX 27071 12400 42584 73002 10160 20090 39945 40174 52011 83832==
12400,2022,07,27,08,00,AAXX 27081 12400 42684 53004 10175 20064 39946 40174 51010 82831==
12400,2022,07,27,09,00,AAXX 27091 12400 42783 52804 10186 20058 39947 40174 52005 82850 333 91009 90730 91109==
12400,2022,07,27,10,00,AAXX 27101 12400 42682 52904 10187 20065 39944 40171 58001 81832 333 90710 91110==
12400,2022,07,27,11,00,AAXX 27111 12400 42784 43104 10198 20065 39943 40169 57003 81832==
12400,2022,07,27,12,00,AAXX 27121 12400 12784 33104 10202 20062 39945 40171 55002 60001 82242 333 90760 91111==
12415,2022,07,25,06,00,AAXX 25061 12415 11984 70701 10200 20112 30013 40160 57013 60002 702// 80008 333 10265 20118 30010 55152 91202 93000=
12415,2022,07,25,07,00,AAXX 25071 12415 42984 71504 10259 20093 30006 40150 57017 80008==
12415,2022,07,25,08,00,AAXX 25081 12415 42984 71405 10276 20094 30002 40145 57016 80008==
12415,2022,07,25,09,00,AAXX 25091 12415 42984 51605 10295 20091 39996 40138 57017 80008==
12415,2022,07,25,10,00,AAXX 25101 12415 42984 21705 10303 20092 39991 40133 57015 80002==
12415,2022,07,25,11,00,AAXX 25111 12415 42984 11904 10315 20085 39984 40125 57018 80002==
12415,2022,07,25,12,00,AAXX 25121 12415 12984 11804 10323 20079 39975 40116 58021 60001 80002==
12415,2022,07,25,13,00,AAXX 25131 12415 45/80 /1505 10327 20075 39966 40106 57025==
12415,2022,07,25,14,00,AAXX 25141 12415 45/81 /1705 10335 20075 39959 40099 57025==
12415,2022,07,25,15,00,AAXX 25151 12415 45/83 /1605 10335 20075 39952 40092 57023==
12415,2022,07,25,16,00,AAXX 25161 12415 45/83 /1705 10330 20078 39946 40086 57020==
12415,2022,07,25,17,00,AAXX 25171 12415 45/82 /1704 10326 20081 39942 40082 56017==
12415,2022,07,25,18,00,AAXX 25181 12415 15/83 /1603 10306 20083 39936 40077 57016 60002 333 10338 20200 91206 91305 93000=
12415,2022,07,25,19,00,AAXX 25191 12415 45/81 /1602 10273 20087 39937 40079 55009==
12415,2022,07,25,20,00,AAXX 25201 12415 45/73 /1302 10241 20093 39935 40079 56007==
12415,2022,07,25,21,00,AAXX 25211 12415 45/80 /1201 10219 20098 39929 40074 58007==
12415,2022,07,25,22,00,AAXX 25221 12415 45977 /1201 10214 20105 39927 40072 57010==
12415,2022,07,25,23,00,AAXX 25231 12415 45/80 /0000 10206 20107 39924 40070 56011==
12415,2022,07,26,00,00,AAXX 26001 12415 15982 /0901 10211 20117 39925 40070 55004 60001 333 90760 91107==
12415,2022,07,26,01,00,AAXX 26011 12415 47981 /3103 10201 20147 39928 40074 53001 723// 333 90710 91108==
12415,2022,07,26,02,00,AAXX 26021 12415 45982 /2806 10218 20159 39937 40082 53013==
12415,2022,07,26,03,00,AAXX 26031 12415 45882 /2907 10206 20170 39946 40092 53021 333 90730 91108==
12415,2022,07,26,04,00,AAXX 26041 12415 45/83 /2906 10202 20156 39961 40107 53033 333 90710 91113==
12415,2022,07,26,05,00,AAXX 26051 12415 42782 72905 10200 20158 39967 40113 51030 875//==
12415,2022,07,26,06,00,AAXX 26061 12415 12582 82905 10204 20145 39974 40120 51028 69912 888// 333 10306 20196 30018 55145 70001 90760 91113==
12415,2022,07,26,07,00,AAXX 26071 12415 42583 83006 10211 20143 39978 40124 52017 888//==
12415,2022,07,26,08,00,AAXX 26081 12415 42583 83105 10218 20132 39982 40128 51015 82837==
12415,2022,07,26,09,00,AAXX 26091 12415 42683 83104 10228 20127 39982 40127 51008 81207==
12415,2022,07,26,10,00,AAXX 26101 12415 42683 82903 10230 20129 39983 40128 51005 81207==
12415,2022,07,26,11,00,AAXX 26111 12415 42683 83602 10233 20120 39982 40127 54000 85307==
12415,2022,07,26,12,00,AAXX 26121 12415 11683 83403 10227 20123 39983 40128 52001 69901 78022 86307==
12415,2022,07,26,13,00,AAXX 26131 12415 47878 /3205 10241 20104 39982 40127 57001 723//==
12415,2022,07,26,14,00,AAXX 26141 12415 45883 /3203 10245 20111 39981 40125 58001==
12415,2022,07,26,15,00,AAXX 26151 12415 45982 /2806 10255 20101 39979 40123 57004 333 90730 91110==
12415,2022,07,26,16,00,AAXX 26161 12415 45983 /2804 10251 20094 39979 40123 56003==
12415,2022,07,26,17,00,AAXX 26171 12415 45984 /3105 10246 20105 39981 40125 55000==
12415,2022,07,26,18,00,AAXX 26181 12415 15/84 /3203 10241 20100 39984 40129 53005 69902 333 10266 20204 90760 91110==
12415,2022,07,26,19,00,AAXX 26191 12415 45984 /3204 10216 20119 39992 40138 53013 333 90710 91112==
12415,2022,07,26,20,00,AAXX 26201 12415 45984 /3104 10210 20111 39997 40143 52016==
12415,2022,07,26,21,00,AAXX 26211 12415 45984 /2904 10199 20124 30003 40150 52019 333 90730 91112==
12415,2022,07,26,22,00,AAXX 26221 12415 45984 /2902 10189 20124 30007 40155 52015==
12415,2022,07,26,23,00,AAXX 26231 12415 45984 /3003 10183 20127 30008 40156 51011==
12415,2022,07,27,00,00,AAXX 27001 12415 15/84 /3002 10170 20125 30008 40157 51005 60001 333 90760 91112==
12415,2022,07,27,01,00,AAXX 27011 12415 45984 /2501 10149 20119 30008 40158 51001==
12415,2022,07,27,02,00,AAXX 27021 12415 45984 /2401 10145 20120 30009 40159 53001==
12415,2022,07,27,03,00,AAXX 27031 12415 45984 /2201 10151 20126 30010 40160 53002==
12415,2022,07,27,04,00,AAXX 27041 12415 45784 /2701 10162 20126 30009 40158 50001==
12415,2022,07,27,05,00,AAXX 27051 12415 42682 73003 10170 20115 30011 40160 52002 875//==
12415,2022,07,27,06,00,AAXX 27061 12415 12682 83004 10166 20117 30019 40168 53009 60002 885// 333 10241 20143 30012 55027==
12415,2022,07,27,07,00,AAXX 27071 12415 42482 73104 10165 20125 30022 40171 52013 878//==
12415,2022,07,27,08,00,AAXX 27081 12415 42582 72905 10174 20123 30025 40174 51014 878//==
12415,2022,07,27,09,00,AAXX 27091 12415 42582 73204 10190 20108 30026 40174 52007 878//==
12415,2022,07,27,10,00,AAXX 27101 12415 42682 72904 10205 20091 30023 40170 50001 8383/==
12415,2022,07,27,11,00,AAXX 27111 12415 42682 72603 10212 20085 30022 40169 58003 8583/==
12415,2022,07,27,12,00,AAXX 27121 12415 11682 82905 10209 20078 30023 40170 55003 69901 78022 8337/==
12418,2022,07,25,06,00,AAXX 25061 12418 12981 71403 10208 20109 30052 40161 58012 60002 80008 333 10255 20115 30009 55152 91203 93000=
12418,2022,07,25,07,00,AAXX 25071 12418 42981 71303 10235 20105 30048 40156 57014 80008==
12418,2022,07,25,08,00,AAXX 25081 12418 42982 71404 10262 20095 30041 40148 57017 80008==
12418,2022,07,25,09,00,AAXX 25091 12418 42982 61505 10278 20086 30038 40145 57014 80008==
12418,2022,07,25,10,00,AAXX 25101 12418 42982 31505 10289 20086 30032 40138 57016 80008 333 90710 91109==
12418,2022,07,25,11,00,AAXX 25111 12418 42982 11704 10303 20087 30025 40131 58016 80001 333 90710 91109==
12418,2022,07,25,12,00,AAXX 25121 12418 12982 11604 10311 20087 30015 40120 58023 60001 80001 333 90760 91109==
12418,2022,07,25,13,00,AAXX 25131 12418 45/81 /1403 10316 20092 30006 40111 57026 333 91008 90710 91108==
12418,2022,07,25,14,00,AAXX 25141 12418 45/81 /1404 10327 20095 39996 40100 57029==
12418,2022,07,25,15,00,AAXX 25151 12418 45/81 /1404 10329 20090 39988 40092 57027 333 90730 91108==
12418,2022,07,25,16,00,AAXX 25161 12418 45/81 /1304 10326 20100 39981 40085 56025==
12418,2022,07,25,17,00,AAXX 25171 12418 45/81 /1305 10320 20101 39975 40079 56021==
12418,2022,07,25,18,00,AAXX 25181 12418 15/81 /1404 10306 20100 39969 40074 57019 60002 333 10330 20208 90760 91108==
12418,2022,07,25,19,00,AAXX 25191 12418 45/81 /1602 10282 20104 39973 40079 55008==
12418,2022,07,25,20,00,AAXX 25201 12418 45/80 /1302 10254 20108 39973 40080 56002==
12418,2022,07,25,21,00,AAXX 25211 12418 45/81 /1302 10252 20103 39966 40073 58003==
12418,2022,07,25,22,00,AAXX 25221 12418 45/81 /1302 10232 20103 39966 40073 57007==
12418,2022,07,25,23,00,AAXX 25231 12418 47950 /3102 10229 20107 39966 40074 56007 710//==
12418,2022,07,26,00,00,AAXX 26001 12418 17981 /1302 10219 20110 39958 40066 58008 69901 723//==
12418,2022,07,26,01,00,AAXX 26011 12418 45981 /1801 10208 20109 39955 40063 58011==
12418,2022,07,26,02,00,AAXX 26021 12418 45981 /2904 10213 20122 39968 40076 53002==
12418,2022,07,26,03,00,AAXX 26031 12418 45975 /3205 10209 20175 39980 40088 53022 333 90730 91112==
12418,2022,07,26,04,00,AAXX 26041 12418 45981 /3106 10204 20162 39990 40099 51035==
12418,2022,07,26,05,00,AAXX 26051 12418 41781 83005 10198 20154 39995 40104 51027 725// 875//==
12418,2022,07,26,06,00,AAXX 26061 12418 11882 82904 10198 20148 30005 40114 52025 69902 70382 885// 333 10306 20197 30019 55146 90760 91112==
12418,2022,07,26,07,00,AAXX 26071 12418 42882 82905 10205 20144 30008 40117 52018 8657/==
12418,2022,07,26,08,00,AAXX 26081 12418 42582 83004 10220 20141 30011 40119 51016 83877==
12418,2022,07,26,09,00,AAXX 26091 12418 42682 82704 10227 20129 30013 40121 52008 83237==
12418,2022,07,26,10,00,AAXX 26101 12418 42682 82705 10235 20122 30013 40121 51005 84207==
12418,2022,07,26,11,00,AAXX 26111 12418 42782 82805 10240 20117 30014 40122 52003 86207==
12418,2022,07,26,12,00,AAXX 26121 12418 12782 82603 10242 20112 30013 40121 54000 60001 86407==
12418,2022,07,26,13,00,AAXX 26131 12418 45881 /2705 10242 20105 30011 40119 58002==
12418,2022,07,26,14,00,AAXX 26141 12418 45781 /2403 10249 20118 30010 40117 57004==
12418,2022,07,26,15,00,AAXX 26151 12418 45981 /3104 10243 20106 30012 40120 55001==
12418,2022,07,26,16,00,AAXX 26161 12418 45981 /3003 10251 20113 30012 40119 51001==
12418,2022,07,26,17,00,AAXX 26171 12418 45981 /3106 10238 20121 30017 40125 53007 333 91013 90710 91113==
12418,2022,07,26,18,00,AAXX 26181 12418 17981 /3106 10199 20136 30024 40133 53012 69902 781// 333 10256 20197 90760 91114==
12418,2022,07,26,19,00,AAXX 26191 12418 47981 /2903 10182 20145 30029 40139 52017 723//==
12418,2022,07,26,20,00,AAXX 26201 12418 45981 /3004 10181 20140 30034 40144 52017==
12418,2022,07,26,21,00,AAXX 26211 12418 45/81 /2702 10163 20136 30036 40147 51012==
12418,2022,07,26,22,00,AAXX 26221 12418 45/81 /2503 10152 20134 30041 40152 52012==
12418,2022,07,26,23,00,AAXX 26231 12418 45/75 /2502 10142 20128 30042 40154 52008==
12418,2022,07,27,00,00,AAXX 27001 12418 15/64 /2902 10132 20124 30042 40154 51006 69901 333 91204 91303 93097=
12418,2022,07,27,01,00,AAXX 27011 12418 45667 /2202 10139 20134 30043 40155 52002==
12418,2022,07,27,02,00,AAXX 27021 12418 45965 /1801 10139 20133 30043 40155 52001==
12418,2022,07,27,03,00,AAXX 27031 12418 45570 /1702 10143 20137 30045 40157 52003==
12418,2022,07,27,04,00,AAXX 27041 12418 45772 /1401 10147 20137 30045 40157 52002==
12418,2022,07,27,05,00,AAXX 27051 12418 42560 82502 10152 20137 30046 40157 52003 885//==
12418,2022,07,27,06,00,AAXX 27061 12418 12265 83103 10157 20142 30053 40164 53008 69902 886// 333 10199 20129 30011 55017 87706==
12418,2022,07,27,07,00,AAXX 27071 12418 42570 73204 10173 20128 30056 40167 52011 878//==
12418,2022,07,27,08,00,AAXX 27081 12418 42681 73104 10193 20098 30059 40169 51013 85838==
12418,2022,07,27,09,00,AAXX 27091 12418 42782 52705 10205 20078 30058 40167 50005 84838 333 90730 91108==
12418,2022,07,27,10,00,AAXX 27101 12418 42782 42806 10207 20073 30057 40166 50001 82138 333 90710 91109==
12418,2022,07,27,11,00,AAXX 27111 12418 42782 32805 10216 20063 30056 40165 57003 81131==
12418,2022,07,27,12,00,AAXX 27121 12418 12782 52705 10219 20061 30058 40167 55000 60001 82151 333 90760 91109==
12424,2022,07,25,06,00,AAXX 25061 12424 12984 71403 10197 20112 30024 40167 57011 60002 80006 333 10265 20130 30009 55145 91204 96122 93000=
12424,2022,07,25,07,00,AAXX 25071 12424 42984 71504 10230 20120 30020 40161 57012 80008==
12424,2022,07,25,08,00,AAXX 25081 12424 42984 71505 10256 20114 30014 40154 57014 80008==
12424,2022,07,25,09,00,AAXX 25091 12424 42984 51606 10282 20104 30010 40149 57014 80001==
12424,2022,07,25,10,00,AAXX 25101 12424 42984 31906 10296 20102 30004 40142 57016 80001==
12424,2022,07,25,11,00,AAXX 25111 12424 42984 12005 10303 20103 39997 40134 58017 80001 333 90710 91113==
12424,2022,07,25,12,00,AAXX 25121 12424 12984 12004 10313 20101 39988 40125 58022 60001 80001 333 91009 90760 91113==
12424,2022,07,25,13,00,AAXX 25131 12424 42984 12004 10319 20100 39980 40117 57024 80001 333 91010 90710 91110==
12424,2022,07,25,14,00,AAXX 25141 12424 42984 01605 10323 20103 39970 40106 57027 333 90710 91110==
12424,2022,07,25,15,00,AAXX 25151 12424 42984 11606 10326 20106 39962 40098 57026 80002 333 90730 91110==
12424,2022,07,25,16,00,AAXX 25161 12424 42984 11905 10325 20111 39956 40092 56024 80002==
12424,2022,07,25,17,00,AAXX 25171 12424 42984 11605 10322 20103 39952 40088 56018 80002==
12424,2022,07,25,18,00,AAXX 25181 12424 12984 11504 10294 20114 39945 40082 57017 60002 80002 333 10329 20197 90760 91110==
12424,2022,07,25,19,00,AAXX 25191 12424 42984 11103 10270 20111 39944 40082 56012 80001==
12424,2022,07,25,20,00,AAXX 25201 12424 42984 11304 10246 20105 39946 40085 55006 80002==
12424,2022,07,25,21,00,AAXX 25211 12424 42984 71204 10219 20107 39940 40081 58005 80006==
12424,2022,07,25,22,00,AAXX 25221 12424 42984 51304 10218 20109 39938 40079 58006 80008==
12424,2022,07,25,23,00,AAXX 25231 12424 42984 41304 10218 20115 39931 40072 57015 80001==
12424,2022,07,26,00,00,AAXX 26001 12424 12/84 51102 10216 20124 39930 40071 57010 60001 85030==
12424,2022,07,26,01,00,AAXX 26011 12424 41/82 71001 10219 20124 39927 40067 56011 71322 85078==
12424,2022,07,26,02,00,AAXX 26021 12424 41670 72802 10204 20143 39932 40073 53001 79522 8497/==
12424,2022,07,26,03,00,AAXX 26031 12424 41681 82903 10191 20160 39943 40085 53013 71782 8297/==
12424,2022,07,26,04,00,AAXX 26041 12424 41581 72904 10206 20174 39954 40095 53027 72922 8117/==
12424,2022,07,26,05,00,AAXX 26051 12424 42582 73004 10208 20166 39963 40104 52031 81138 333 91009 90710 91109==
12424,2022,07,26,06,00,AAXX 26061 12424 11582 73004 10208 20164 39970 40112 51027 60012 70398 8117/ 333 10294 20186 31016 55148 70012 90760 91109==
12424,2022,07,26,07,00,AAXX 26071 12424 42582 83103 10208 20149 39976 40118 51022 879//==
12424,2022,07,26,08,00,AAXX 26081 12424 42582 73103 10211 20145 39982 40124 52019 878// 333 90710 91108==
12424,2022,07,26,09,00,AAXX 26091 12424 42582 83303 10222 20143 39985 40126 51015 8117/ 333 90730 91108==
12424,2022,07,26,10,00,AAXX 26101 12424 42682 83203 10226 20134 39989 40130 52013 8127/==
12424,2022,07,26,11,00,AAXX 26111 12424 42682 83402 10233 20132 39989 40130 51007 8127/==
12424,2022,07,26,12,00,AAXX 26121 12424 12684 83201 10234 20130 39989 40130 51004 60001 8587/ 333 90760 91108==
12424,2022,07,26,13,00,AAXX 26131 12424 42682 82701 10231 20130 39987 40128 58002 878//==
12424,2022,07,26,14,00,AAXX 26141 12424 42682 73202 10236 20132 39989 40130 54000 8587/==
12424,2022,07,26,15,00,AAXX 26151 12424 42683 62902 10251 20127 39985 40125 57004 83830==
12424,2022,07,26,16,00,AAXX 26161 12424 42684 43103 10257 20107 39984 40123 58003 81270==
12424,2022,07,26,17,00,AAXX 26171 12424 42784 43202 10251 20113 39983 40123 56006 82530==
12424,2022,07,26,18,00,AAXX 26181 12424 12/84 73201 10242 20101 39986 40126 53001 60002 8707/ 333 10261 20206==
12424,2022,07,26,19,00,AAXX 26191 12424 42/84 52901 10217 20108 39990 40131 53006 85070==
12424,2022,07,26,20,00,AAXX 26201 12424 42/84 33502 10209 20126 39999 40141 53016 83030==
12424,2022,07,26,21,00,AAXX 26211 12424 42/84 43201 10188 20125 30004 40147 52018 84030==
12424,2022,07,26,22,00,AAXX 26221 12424 42/84 62901 10171 20126 30008 40152 51018 86030==
12424,2022,07,26,23,00,AAXX 26231 12424 42/84 23001 10172 20135 30011 40155 51012 82030==
12424,2022,07,27,00,00,AAXX 27001 12424 12/84 12701 10157 20132 30011 40156 51007 60001 81030==
12424,2022,07,27,01,00,AAXX 27011 12424 42/84 10000 10157 20137 30012 40157 52004 81030==
12424,2022,07,27,02,00,AAXX 27021 12424 42682 72801 10138 20124 30013 40159 53002 875//==
12424,2022,07,27,03,00,AAXX 27031 12424 42682 72901 10140 20130 30014 40160 52003 83530==
12424,2022,07,27,04,00,AAXX 27041 12424 42680 71901 10142 20132 30014 40160 51002 8453/==
12424,2022,07,27,05,00,AAXX 27051 12424 42581 51701 10154 20141 30014 40159 51001 82530==
12424,2022,07,27,06,00,AAXX 27061 12424 12782 72701 10177 20151 30019 40163 53005 60002 8257/ 333 10242 20133 30010 55022==
12424,2022,07,27,07,00,AAXX 27071 12424 42682 72903 10190 20145 30020 40163 53006 82870==
12424,2022,07,27,08,00,AAXX 27081 12424 42684 73003 10196 20128 30022 40165 51008 82271==
12424,2022,07,27,09,00,AAXX 27091 12424 42684 72904 10216 20127 30022 40164 51003 84871==
12424,2022,07,27,10,00,AAXX 27101 12424 42684 63203 10213 20116 30023 40165 52003 82270==
12424,2022,07,27,11,00,AAXX 27111 12424 42684 63103 10225 20100 30023 40165 52001 82432==
12424,2022,07,27,12,00,AAXX 27121 12424 12784 73203 10215 20097 30025 40167 52003 60001 8247/ 333 90760 91109==
12435,2022,07,25,06,00,AAXX 25061 12435 11981 61502 10196 20126 30010 40174 57008 60002 702// 80008 333 10227 20151 30013 55135 91203 93000=
12435,2022,07,25,07,00,AAXX 25071 12435 42981 71403 10221 20126 30005 40168 57012 80006==
12435,2022,07,25,08,00,AAXX 25081 12435 42982 71503 10249 20115 30000 40161 57013 80008==
12435,2022,07,25,09,00,AAXX 25091 12435 42980 71303 10255 20097 39996 40157 57014 80008==
12435,2022,07,25,10,00,AAXX 25101 12435 42981 51403 10267 20100 39991 40151 57014 80008==
12435,2022,07,25,11,00,AAXX 25111 12435 42981 21604 10278 20100 39985 40145 58015 80001==
12435,2022,07,25,12,00,AAXX 25121 12435 12982 11203 10296 20107 39976 40134 58020 60001 80001==
12435,2022,07,25,13,00,AAXX 25131 12435 42982 11904 10297 20098 39969 40127 57022 80001==
12435,2022,07,25,14,00,AAXX 25141 12435 42981 11803 10306 20100 39960 40118 57025 80001==
12435,2022,07,25,15,00,AAXX 25151 12435 42981 11603 10309 20103 39953 40110 57023 80001==
12435,2022,07,25,16,00,AAXX 25161 12435 42981 11604 10303 20092 39945 40103 57024 80001==
12435,2022,07,25,17,00,AAXX 25171 12435 42983 11504 10302 20091 39940 40098 57020 80002==
12435,2022,07,25,18,00,AAXX 25181 12435 12984 11403 10290 20097 39934 40092 57019 60002 80002 333 10310 20196==
12435,2022,07,25,19,00,AAXX 25191 12435 42984 21002 10264 20105 39933 40092 56012 80002==
12435,2022,07,25,20,00,AAXX 25201 12435 42983 21103 10248 20114 39933 40093 56007 80002==
12435,2022,07,25,21,00,AAXX 25211 12435 45/84 /1203 10240 20117 39932 40093 57002==
12435,2022,07,25,22,00,AAXX 25221 12435 45/84 /1203 10231 20115 39925 40086 58008==
12435,2022,07,25,23,00,AAXX 25231 12435 45/84 /1303 10223 20111 39920 40081 58013==
12435,2022,07,26,00,00,AAXX 26001 12435 15/84 /1403 10221 20109 39916 40078 56016 60001==
12435,2022,07,26,01,00,AAXX 26011 12435 45984 /1303 10214 20111 39911 40073 57014==
12435,2022,07,26,02,00,AAXX 26021 12435 45984 /1403 10208 20114 39907 40069 57013==
12435,2022,07,26,03,00,AAXX 26031 12435 47983 /1903 10203 20118 39909 40071 55007 751//==
12435,2022,07,26,04,00,AAXX 26041 12435 47781 /2602 10189 20140 39913 40076 53002 781//==
12435,2022,07,26,05,00,AAXX 26051 12435 41670 83003 10185 20154 39920 40084 53013 780// 879// 333 90710 91109==
12435,2022,07,26,06,00,AAXX 26061 12435 11667 83105 10190 20180 39927 40090 53018 69932 780// 8597/ 333 10290 20183 31016 55146 70003 90760 91110==
12435,2022,07,26,07,00,AAXX 26071 12435 41660 83003 10187 20185 39936 40100 52023 78088 879//==
12435,2022,07,26,08,00,AAXX 26081 12435 41614 83003 10190 20183 39943 40107 52023 72522 8497/ 333 91008 90710 91108==
12435,2022,07,26,09,00,AAXX 26091 12435 41680 82904 10188 20173 39953 40117 52026 70182 8397/ 333 90730 91108==
12435,2022,07,26,10,00,AAXX 26101 12435 41681 82903 10202 20164 39959 40122 52023 72522 8397/==
12435,2022,07,26,11,00,AAXX 26111 12435 42582 82704 10212 20153 39963 40126 51020 8427/==
12435,2022,07,26,12,00,AAXX 26121 12435 11681 82703 10219 20148 39962 40124 50009 60031 70182 8327/ 333 90760 91108==
12435,2022,07,26,13,00,AAXX 26131 12435 42682 82604 10221 20134 39959 40121 50000 8127/==
12435,2022,07,26,14,00,AAXX 26141 12435 42682 82304 10222 20135 39958 40120 57005 8127/==
12435,2022,07,26,15,00,AAXX 26151 12435 42681 72304 10233 20140 39957 40119 57005 8127/==
12435,2022,07,26,16,00,AAXX 26161 12435 42781 72504 10246 20132 39955 40116 57004 81138==
12435,2022,07,26,17,00,AAXX 26171 12435 42783 72404 10226 20131 39955 40117 56003 81538==
12435,2022,07,26,18,00,AAXX 26181 12435 12784 72404 10223 20136 39957 40119 55000 60032 83508 333 10249 20185==
12435,2022,07,26,19,00,AAXX 26191 12435 42783 72403 10197 20136 39960 40124 53005 875//==
12435,2022,07,26,20,00,AAXX 26201 12435 42784 73105 10197 20138 39967 40131 53012 875// 333 90710 91111==
12435,2022,07,26,21,00,AAXX 26211 12435 45984 /2901 10184 20141 39971 40135 52014 333 90730 91111==
12435,2022,07,26,22,00,AAXX 26221 12435 45984 /3002 10177 20140 39975 40140 51015==
12435,2022,07,26,23,00,AAXX 26231 12435 45/84 /3102 10159 20137 39979 40145 52012==
12435,2022,07,27,00,00,AAXX 27001 12435 15581 /3101 10153 20145 39982 40148 52011 60001 333 90760 91111==
12435,2022,07,27,01,00,AAXX 27011 12435 45/64 /2901 10145 20142 39985 40152 52010==
12435,2022,07,27,02,00,AAXX 27021 12435 47559 /2901 10139 20137 39987 40154 52008 710//==
12435,2022,07,27,03,00,AAXX 27031 12435 47/28 /3201 10132 20132 39989 40157 52007 710//==
12435,2022,07,27,04,00,AAXX 27041 12435 47758 /0000 10141 20141 39991 40158 52006 710//==
12435,2022,07,27,05,00,AAXX 27051 12435 42775 70601 10161 20150 39988 40154 50001 82538==
12435,2022,07,27,06,00,AAXX 27061 12435 12682 70901 10179 20103 39993 40158 52004 60002 8653/ 333 10223 20131 31010 55018 70030==
12435,2022,07,27,07,00,AAXX 27071 12435 42683 71501 10180 20120 39994 40159 53003 875//==
12435,2022,07,27,08,00,AAXX 27081 12435 42582 72002 10185 20127 39993 40158 50005 879//==
12435,2022,07,27,09,00,AAXX 27091 12435 41562 73302 10161 20155 39999 40165 53006 78082 879//==
12435,2022,07,27,10,00,AAXX 27101 12435 41581 73003 10183 20142 39998 40163 50004 72522 872//==
12435,2022,07,27,11,00,AAXX 27111 12435 42579 72904 10206 20135 39997 40161 50004 8523/==
12435,2022,07,27,12,00,AAXX 27121 12435 11680 72904 10210 20119 39995 40158 57004 60051 70182 8683/==
12455,2022,07,25,06,00,AAXX 25061 12455 11980 61402 10212 20115 39939 40174 58008 60002 703// 80002 333 10230 20128 30010 55148 91203 96122 93000=
12455,2022,07,25,07,00,AAXX 25071 12455 42980 71502 10233 20100 39936 40169 57012 80008==
12455,2022,07,25,08,00,AAXX 25081 12455 42974 71602 10247 20086 39933 40165 57011 80008==
12455,2022,07,25,09,00,AAXX 25091 12455 42974 71702 10259 20084 39929 40160 57010 80008==
12455,2022,07,25,10,00,AAXX 25101 12455 42980 71803 10268 20082 39924 40154 58012 80008==
12455,2022,07,25,11,00,AAXX 25111 12455 42980 51503 10280 20083 39918 40147 58015 80002 333 90710 91107==
12455,2022,07,25,12,00,AAXX 25121 12455 12977 21403 10290 20070 39910 40138 58019 60001 80002 333 90760 91107==
12455,2022,07,25,13,00,AAXX 25131 12455 42980 11303 10297 20081 39901 40128 58023 80002 333 91008 90710 91108==
12455,2022,07,25,14,00,AAXX 25141 12455 42981 11703 10299 20071 39894 40121 57024 80001==
12455,2022,07,25,15,00,AAXX 25151 12455 42982 01403 10307 20078 39886 40112 57024 333 90730 91108==
12455,2022,07,25,16,00,AAXX 25161 12455 42981 01402 10305 20082 39880 40106 57021==
12455,2022,07,25,17,00,AAXX 25171 12455 42983 01502 10295 20080 39877 40104 56017==
12455,2022,07,25,18,00,AAXX 25181 12455 12981 11503 10277 20085 39873 40101 57013 60002 80001 333 10308 20211 91108 91203 93000=
12455,2022,07,25,19,00,AAXX 25191 12455 42976 11403 10245 20088 39868 40099 58012 80002==
12455,2022,07,25,20,00,AAXX 25201 12455 42970 11402 10222 20100 39869 40101 55008 80002==
12455,2022,07,25,21,00,AAXX 25211 12455 45/69 /1402 10210 20105 39868 40101 56005==
12455,2022,07,25,22,00,AAXX 25221 12455 45/81 /1502 10206 20107 39862 40095 58006==
12455,2022,07,25,23,00,AAXX 25231 12455 45/83 /1503 10204 20099 39856 40089 58013==
12455,2022,07,26,00,00,AAXX 26001 12455 15/84 /1503 10200 20104 39851 40085 57017 60001==
12455,2022,07,26,01,00,AAXX 26011 12455 45/84 /1602 10192 20105 39847 40081 56015==
12455,2022,07,26,02,00,AAXX 26021 12455 45/84 /1502 10189 20107 39840 40074 57016==
12455,2022,07,26,03,00,AAXX 26031 12455 45/84 /1501 10179 20108 39837 40072 57014==
12455,2022,07,26,04,00,AAXX 26041 12455 45/82 /2101 10192 20115 39839 40073 55008==
12455,2022,07,26,05,00,AAXX 26051 12455 41573 82703 10187 20127 39849 40084 53009 780// 8597/==
12455,2022,07,26,06,00,AAXX 26061 12455 11578 82704 10189 20140 39861 40096 53024 69902 725// 8397/ 333 10277 20179 30017 55090==
12455,2022,07,26,07,00,AAXX 26071 12455 41460 82902 10180 20167 39864 40100 51025 78082 879// 333 87911 90710 91109==
12455,2022,07,26,08,00,AAXX 26081 12455 41461 83003 10193 20176 39875 40110 52026 72522 873// 333 87914==
12455,2022,07,26,09,00,AAXX 26091 12455 41349 83103 10184 20174 39885 40121 53024 78082 879// 333 87908 90730 91109==
12455,2022,07,26,10,00,AAXX 26101 12455 41357 83003 10184 20174 39891 40127 51027 78088 879// 333 87907==
12455,2022,07,26,11,00,AAXX 26111 12455 41570 83102 10187 20159 39896 40132 51021 72582 8237/==
12455,2022,07,26,12,00,AAXX 26121 12455 11470 83103 10201 20165 39894 40129 50009 60041 70182 8427/ 333 90760 91109==
12455,2022,07,26,13,00,AAXX 26131 12455 42578 83002 10207 20159 39895 40129 51004 8117/==
12455,2022,07,26,14,00,AAXX 26141 12455 42578 72702 10207 20161 39896 40130 55000 8117/==
12455,2022,07,26,15,00,AAXX 26151 12455 42581 72702 10213 20145 39894 40128 50000 8117/==
12455,2022,07,26,16,00,AAXX 26161 12455 42682 72702 10222 20138 39893 40126 58002 81178==
12455,2022,07,26,17,00,AAXX 26171 12455 42681 72702 10231 20130 39890 40122 57006 81438==
12455,2022,07,26,18,00,AAXX 26181 12455 12/81 62902 10221 20129 39892 40125 55002 60042 82038 333 10233 20176==
12455,2022,07,26,19,00,AAXX 26191 12455 42/82 62401 10185 20129 39896 40132 53003 85032==
12455,2022,07,26,20,00,AAXX 26201 12455 42/75 22301 10172 20129 39897 40134 52007 82030==
12455,2022,07,26,21,00,AAXX 26211 12455 45/75 /2302 10171 20132 39902 40139 52010==
12455,2022,07,26,22,00,AAXX 26221 12455 45980 /2701 10163 20130 39905 40143 52009==
12455,2022,07,26,23,00,AAXX 26231 12455 45980 /2802 10166 20133 39906 40144 51009==
12455,2022,07,27,00,00,AAXX 27001 12455 15/80 /2902 10156 20129 39908 40147 52006 60001==
12455,2022,07,27,01,00,AAXX 27011 12455 45/76 /2801 10146 20126 39911 40151 53006==
12455,2022,07,27,02,00,AAXX 27021 12455 45/64 /2801 10132 20119 39914 40155 52008==
12455,2022,07,27,03,00,AAXX 27031 12455 45562 /2901 10138 20129 39918 40158 52010==
12455,2022,07,27,04,00,AAXX 27041 12455 45960 /3201 10142 20132 39922 40162 52011==
12455,2022,07,27,05,00,AAXX 27051 12455 42/65 73401 10151 20136 39922 40161 51008 8703/==
12455,2022,07,27,06,00,AAXX 27061 12455 12881 70802 10175 20115 39922 40159 51004 60002 8153/ 333 10221 20132 31011 55019 70043==
12455,2022,07,27,07,00,AAXX 27071 12455 42882 71302 10187 20113 39923 40159 53001 8153/==
12455,2022,07,27,08,00,AAXX 27081 12455 42681 71801 10198 20121 39924 40160 53002 8127/==
12455,2022,07,27,09,00,AAXX 27091 12455 42681 72603 10204 20119 39926 40161 52004 8627/==
12455,2022,07,27,10,00,AAXX 27101 12455 42680 52503 10223 20114 39922 40156 58001 83250==
12455,2022,07,27,11,00,AAXX 27111 12455 42682 72603 10238 20118 39920 40152 58004 873//==
12455,2022,07,27,12,00,AAXX 27121 12455 11466 70103 10183 20155 39927 40164 53001 60011 78022 8496/ 333 84916 90760 91109==
12465,2022,07,25,06,00,AAXX 25061 12465 12970 51401 10201 20135 39965 40178 58007 60002 80008 333 10218 20107 30008 55131 20000 91201 93000=
12465,2022,07,25,07,00,AAXX 25071 12465 42970 51602 10218 20129 39951 40162 58024 80008==
12465,2022,07,25,08,00,AAXX 25081 12465 42970 61602 10231 20127 39958 40168 55013 80006==
12465,2022,07,25,09,00,AAXX 25091 12465 42970 61202 10243 20109 39954 40163 56011 80008==
12465,2022,07,25,10,00,AAXX 25101 12465 42970 61702 10260 20106 39949 40157 58002 80008==
12465,2022,07,25,11,00,AAXX 25111 12465 42970 21302 10270 20102 39943 40150 58015 80001==
12465,2022,07,25,12,00,AAXX 25121 12465 12970 13101 10280 20111 39936 40142 58018 60001 80001==
12465,2022,07,25,13,00,AAXX 25131 12465 42970 11802 10288 20105 39928 40134 58021 80001==
12465,2022,07,25,14,00,AAXX 25141 12465 42970 01403 10292 20098 39921 40126 57022==
12465,2022,07,25,15,00,AAXX 25151 12465 42970 11802 10295 20101 39913 40118 57023 80001==
12465,2022,07,25,16,00,AAXX 25161 12465 42970 01203 10292 20098 39907 40112 57021==
12465,2022,07,25,17,00,AAXX 25171 12465 42970 01802 10286 20103 39905 40110 56016==
12465,2022,07,25,18,00,AAXX 25181 12465 12970 11402 10269 20114 39899 40105 57014 60002 80002 333 10297 20201==
12465,2022,07,25,19,00,AAXX 25191 12465 42970 11202 10245 20111 39896 40104 57011 80002==
12465,2022,07,25,20,00,AAXX 25201 12465 42970 11202 10228 20109 39896 40105 56009 80002==
12465,2022,07,25,21,00,AAXX 25211 12465 42970 21002 10200 20112 39897 40108 55002 80002==
12465,2022,07,25,22,00,AAXX 25221 12465 42970 21001 10174 20117 39893 40106 58003 80002==
12465,2022,07,25,23,00,AAXX 25231 12465 42970 21102 10178 20116 39887 40100 58009 80002==
12465,2022,07,26,00,00,AAXX 26001 12465 12970 21002 10167 20118 39880 40093 58017 60001 80001==
12465,2022,07,26,01,00,AAXX 26011 12465 42970 51002 10185 20120 39877 40089 56016 80006==
12465,2022,07,26,02,00,AAXX 26021 12465 42970 60803 10168 20119 39871 40084 57016 80006==
12465,2022,07,26,03,00,AAXX 26031 12465 42970 60903 10173 20124 39868 40081 57012 80008==
12465,2022,07,26,04,00,AAXX 26041 12465 42/70 61002 10178 20127 39864 40076 57013 82058==
12465,2022,07,26,05,00,AAXX 26051 12465 42/70 72101 10186 20137 39867 40079 55004 85072==
12465,2022,07,26,06,00,AAXX 26061 12465 12/70 72101 10195 20139 39873 40084 53005 60002 8707/ 333 10269 20165 30013 55150 20000==
12465,2022,07,26,07,00,AAXX 26071 12465 42/70 73003 10214 20133 39877 40087 52013 8707/==
12465,2022,07,26,08,00,AAXX 26081 12465 41/70 82704 10205 20142 39886 40097 53019 76062 8707/==
12465,2022,07,26,09,00,AAXX 26091 12465 41570 82704 10200 20160 39894 40105 53021 78062 8497/==
12465,2022,07,26,10,00,AAXX 26101 12465 41360 82905 10188 20178 39902 40114 52025 78082 879// 333 84707 87913==
12465,2022,07,26,11,00,AAXX 26111 12465 41250 82803 10186 20179 39908 40121 52022 78088 879// 333 85704 87915==
12465,2022,07,26,12,00,AAXX 26121 12465 11466 82704 10190 20178 39911 40123 51017 60041 78086 8597/ 333 84813==
12465,2022,07,26,13,00,AAXX 26131 12465 41570 82903 10184 20164 39910 40123 50008 72522 8127/==
12465,2022,07,26,14,00,AAXX 26141 12465 42570 82603 10194 20166 39911 40123 52003 8117/==
12465,2022,07,26,15,00,AAXX 26151 12465 41570 82402 10196 20166 39913 40125 53002 70282 8117/==
12465,2022,07,26,16,00,AAXX 26161 12465 41/70 70002 10196 20170 39911 40123 50001 72122 8707/==
12465,2022,07,26,17,00,AAXX 26171 12465 42/70 60002 10202 20170 39910 40121 58001 86070==
12465,2022,07,26,18,00,AAXX 26181 12465 11570 62303 10204 20160 39911 40122 55002 60042 70386 81239 333 10216 20184==
12465,2022,07,26,19,00,AAXX 26191 12465 42670 52401 10182 20160 39912 40125 53001 81208==
12465,2022,07,26,20,00,AAXX 26201 12465 41663 40000 10161 20150 39912 40127 51002 71111 81438==
12465,2022,07,26,21,00,AAXX 26211 12465 41768 42301 10155 20147 39914 40129 52003 71111 83531==
12465,2022,07,26,22,00,AAXX 26221 12465 42770 52803 10163 20140 39918 40133 53006 84531==
12465,2022,07,26,23,00,AAXX 26231 12465 42770 72802 10167 20143 39921 40135 52009 8255/==
12465,2022,07,27,00,00,AAXX 27001 12465 12/70 70002 10171 20144 39925 40139 52011 60001 8703/==
12465,2022,07,27,01,00,AAXX 27011 12465 42/70 43202 10161 20141 39929 40144 52011 84031==
12465,2022,07,27,02,00,AAXX 27021 12465 42670 53002 10152 20134 39932 40148 52011 84501==
12465,2022,07,27,03,00,AAXX 27031 12465 42670 62902 10147 20126 39935 40151 52010 85501==
12465,2022,07,27,04,00,AAXX 27041 12465 42670 33201 10147 20126 39941 40157 53012 81531==
12465,2022,07,27,05,00,AAXX 27051 12465 42770 43301 10160 20124 39940 40155 50008 81551==
12465,2022,07,27,06,00,AAXX 27061 12465 12/70 53601 10168 20109 39943 40158 51008 60002 84051 333 10204 20143 31012 55016 20000 70038==
12465,2022,07,27,07,00,AAXX 27071 12465 42/70 20002 10186 20102 39940 40153 57001 82031==
12465,2022,07,27,08,00,AAXX 27081 12465 42770 40002 10199 20103 39943 40155 52003 81150==
12465,2022,07,27,09,00,AAXX 27091 12465 42670 62803 10203 20104 39945 40157 53002 83150==
12465,2022,07,27,10,00,AAXX 27101 12465 42670 72703 10213 20113 39944 40155 50004 8525/==
12465,2022,07,27,11,00,AAXX 27111 12465 42570 73002 10202 20117 39945 40157 52002 8593/==
12465,2022,07,27,12,00,AAXX 27121 12465 12670 72703 10203 20118 39946 40158 53001 60001 8593/==
12469,2022,07,25,06,00,AAXX 25061 12469 11980 51102 10192 20127 39957 40182 58006 60002 703// 80006 333 10224 20101 30008 50433 55132 91202 96122 93000=
12469,2022,07,25,07,00,AAXX 25071 12469 42980 61302 10214 20123 39954 40177 57010 80006==
12469,2022,07,25,08,00,AAXX 25081 12469 42982 71002 10230 20114 39950 40172 57012 80006==
12469,2022,07,25,09,00,AAXX 25091 12469 42981 70902 10242 20115 39945 40166 58012 80008==
12469,2022,07,25,10,00,AAXX 25101 12469 42982 70803 10259 20105 39941 40160 57013 80008==
12469,2022,07,25,11,00,AAXX 25111 12469 42980 61702 10270 20107 39934 40152 57016 80008==
12469,2022,07,25,12,00,AAXX 25121 12469 12982 41402 10279 20106 39927 40145 58018 60001 80008 333 90760 91107==
12469,2022,07,25,13,00,AAXX 25131 12469 42981 21802 10285 20102 39920 40137 57021 80002==
12469,2022,07,25,14,00,AAXX 25141 12469 42883 21602 10288 20100 39913 40130 57021 81102==
12469,2022,07,25,15,00,AAXX 25151 12469 42982 11003 10291 20107 39907 40123 57020 80001 333 90730 91108==
12469,2022,07,25,16,00,AAXX 25161 12469 42983 00903 10286 20103 39902 40119 56018==
12469,2022,07,25,17,00,AAXX 25171 12469 42984 11203 10278 20100 39899 40116 56014 80001==
12469,2022,07,25,18,00,AAXX 25181 12469 12984 11202 10263 20104 39896 40114 57011 60002 80002 333 10293 20191 90760 91108==
12469,2022,07,25,19,00,AAXX 25191 12469 45/83 /1102 10233 20114 39891 40111 57011==
12469,2022,07,25,20,00,AAXX 25201 12469 45/84 /1402 10213 20119 39889 40111 57010==
12469,2022,07,25,21,00,AAXX 25211 12469 45/84 /1302 10205 20122 39889 40111 56007==
12469,2022,07,25,22,00,AAXX 25221 12469 45/84 /1302 10189 20124 39889 40112 56002==
12469,2022,07,25,23,00,AAXX 25231 12469 45/82 /1302 10181 20123 39883 40107 58006==
12469,2022,07,26,00,00,AAXX 26001 12469 15/83 /1302 10176 20123 39876 40100 58013 60001==
12469,2022,07,26,01,00,AAXX 26011 12469 45/84 /1303 10172 20121 39871 40095 57018==
12469,2022,07,26,02,00,AAXX 26021 12469 45/83 /1302 10159 20119 39864 40089 57019==
12469,2022,07,26,03,00,AAXX 26031 12469 45/82 /1302 10160 20122 39862 40087 56014==
12469,2022,07,26,04,00,AAXX 26041 12469 45/80 /1302 10169 20124 39856 40080 57015==
12469,2022,07,26,05,00,AAXX 26051 12469 45/81 /1502 10188 20128 39855 40078 57009==
12469,2022,07,26,06,00,AAXX 26061 12469 12682 71902 10207 20132 39861 40082 55001 60002 8157/ 333 10263 20156 30014 55150==
12469,2022,07,26,07,00,AAXX 26071 12469 42680 72603 10231 20127 39858 40078 52002 8117/==
12469,2022,07,26,08,00,AAXX 26081 12469 42680 72704 10227 20132 39867 40087 53012 8237/==
12469,2022,07,26,09,00,AAXX 26091 12469 42680 72805 10233 20132 39875 40095 53014 8337/==
12469,2022,07,26,10,00,AAXX 26101 12469 42675 72707 10214 20148 39887 40109 53029 8337/==
12469,2022,07,26,11,00,AAXX 26111 12469 42575 82907 10207 20167 39892 40114 51025 8537/==
12469,2022,07,26,12,00,AAXX 26121 12469 11581 82905 10203 20163 39897 40120 51022 69901 72522 889// 333 90760 91112==
12469,2022,07,26,13,00,AAXX 26131 12469 41580 82905 10196 20159 39897 40120 51010 78082 8597/==
12469,2022,07,26,14,00,AAXX 26141 12469 41570 82604 10194 20164 39905 40128 53013 78082 8497/==
12469,2022,07,26,15,00,AAXX 26151 12469 41580 82702 10193 20160 39904 40128 50007 72582 8227/==
12469,2022,07,26,16,00,AAXX 26161 12469 41580 72503 10195 20154 39902 40125 50005 72522 8217/==
12469,2022,07,26,17,00,AAXX 26171 12469 41/80 72503 10191 20160 39901 40125 57004 72582 8707/==
12469,2022,07,26,18,00,AAXX 26181 12469 11575 72402 10191 20161 39902 40126 55002 69912 70382 81338 333 10237 20190==
12469,2022,07,26,19,00,AAXX 26191 12469 45/67 /2102 10176 20159 39905 40130 53003==
12469,2022,07,26,20,00,AAXX 26201 12469 45/59 /1802 10164 20154 39904 40130 50003==
12469,2022,07,26,21,00,AAXX 26211 12469 47/56 /2002 10159 20153 39906 40132 52004 710//==
12469,2022,07,26,22,00,AAXX 26221 12469 47/50 /2002 10157 20152 39908 40134 53003 710//==
12469,2022,07,26,23,00,AAXX 26231 12469 45/65 /2404 10166 20151 39909 40135 52005==
12469,2022,07,27,00,00,AAXX 27001 12469 15/69 /2603 10162 20146 39912 40138 52006 60001 333 91204 91302 93000=
12469,2022,07,27,01,00,AAXX 27011 12469 45/67 /2702 10152 20137 39915 40142 52007==
12469,2022,07,27,02,00,AAXX 27021 12469 45/62 /2802 10142 20132 39917 40145 52008==
12469,2022,07,27,03,00,AAXX 27031 12469 45/66 /3002 10140 20130 39921 40149 52009==
12469,2022,07,27,04,00,AAXX 27041 12469 45/68 /2802 10142 20134 39929 40157 53014==
12469,2022,07,27,05,00,AAXX 27051 12469 45/81 /3302 10158 20136 39928 40155 50011==
12469,2022,07,27,06,00,AAXX 27061 12469 12781 33503 10176 20109 39931 40156 51010 60002 81531 333 10191 20135 31013 55031 70001==
12469,2022,07,27,07,00,AAXX 27071 12469 42581 43203 10187 20105 39932 40157 53003 81251==
12469,2022,07,27,08,00,AAXX 27081 12469 42681 60102 10198 20097 39931 40155 50003 81251==
12469,2022,07,27,09,00,AAXX 27091 12469 42982 62504 10226 20094 39931 40153 54000 8325/==
12469,2022,07,27,10,00,AAXX 27101 12469 42782 62802 10220 20098 39931 40153 56001 862//==
12469,2022,07,27,11,00,AAXX 27111 12469 42783 62903 10223 20101 39932 40154 53001 8523/==
12469,2022,07,27,12,00,AAXX 27121 12469 12683 72603 10233 20100 39929 40150 58002 60001 8535/==
12488,2022,07,25,06,00,AAXX 25061 12488 12980 11401 10194 20136 30037 40187 58002 60002 80001 333 10212 20094 30009 55104 91201 93000=
12488,2022,07,25,07,00,AAXX 25071 12488 42580 21502 10209 20131 30031 40180 58008 81101==
12488,2022,07,25,08,00,AAXX 25081 12488 42582 42302 10213 20127 30029 40178 57009 83201==
12488,2022,07,25,09,00,AAXX 25091 12488 42582 52101 10233 20123 30025 40173 57012 82102==
12488,2022,07,25,10,00,AAXX 25101 12488 42581 52802 10237 20120 30020 40167 58011 81102==
12488,2022,07,25,11,00,AAXX 25111 12488 42581 53002 10253 20115 30016 40163 57013 81102==
12488,2022,07,25,12,00,AAXX 25121 12488 12581 42502 10263 20120 30008 40154 58017 60001 81101==
12488,2022,07,25,13,00,AAXX 25131 12488 42681 23002 10270 20119 30003 40149 57017 81101==
12488,2022,07,25,14,00,AAXX 25141 12488 42681 20202 10272 20108 39996 40141 57020 81101==
12488,2022,07,25,15,00,AAXX 25151 12488 42681 21102 10277 20117 39991 40136 57017 81101==
12488,2022,07,25,16,00,AAXX 25161 12488 42984 10402 10274 20122 39985 40130 57018 80001==
12488,2022,07,25,17,00,AAXX 25171 12488 42983 10902 10266 20123 39982 40127 57014 80001==
12488,2022,07,25,18,00,AAXX 25181 12488 12980 01301 10254 20136 39977 40123 57014 60002 333 10279 20192==
12488,2022,07,25,19,00,AAXX 25191 12488 42982 01401 10207 20134 39976 40124 57009==
12488,2022,07,25,20,00,AAXX 25201 12488 42981 01501 10181 20132 39974 40124 56008==
12488,2022,07,25,21,00,AAXX 25211 12488 42983 01401 10166 20129 39973 40123 57004==
12488,2022,07,25,22,00,AAXX 25221 12488 42982 01201 10152 20125 39974 40125 55002==
12488,2022,07,25,23,00,AAXX 25231 12488 42980 01201 10142 20122 39970 40122 58004==
12488,2022,07,26,00,00,AAXX 26001 12488 12964 01401 10133 20120 39963 40115 58010 60001==
12488,2022,07,26,01,00,AAXX 26011 12488 42963 01001 10124 20113 39958 40110 57016==
12488,2022,07,26,02,00,AAXX 26021 12488 41958 11402 10119 20111 39954 40107 56016 71000 80004==
12488,2022,07,26,03,00,AAXX 26031 12488 42967 20701 10118 20110 39950 40103 57013 80004==
12488,2022,07,26,04,00,AAXX 26041 12488 42960 31301 10127 20121 39947 40099 57011 80004==
12488,2022,07,26,05,00,AAXX 26051 12488 42981 31101 10182 20143 39941 40090 57013 80001==
12488,2022,07,26,06,00,AAXX 26061 12488 12981 41302 10230 20143 39940 40087 57010 60002 80002 333 10254 20115 30010 55146==
12488,2022,07,26,07,00,AAXX 26071 12488 42/81 71303 10252 20140 39936 40081 57011 83052==
12488,2022,07,26,08,00,AAXX 26081 12488 42783 71502 10261 20139 39933 40078 57008 81232==
12488,2022,07,26,09,00,AAXX 26091 12488 42682 71603 10273 20129 39934 40078 55006 81152==
12488,2022,07,26,10,00,AAXX 26101 12488 42/82 62402 10282 20133 39934 40078 56002 84032==
12488,2022,07,26,11,00,AAXX 26111 12488 42/81 72603 10290 20140 39935 40079 52002 83036==
12488,2022,07,26,12,00,AAXX 26121 12488 12679 72804 10294 20155 39934 40077 54000 60001 8423/==
12488,2022,07,26,13,00,AAXX 26131 12488 42681 72806 10250 20148 39941 40087 53007 83332 333 91012 90710 91112==
12488,2022,07,26,14,00,AAXX 26141 12488 41680 83106 10209 20150 39953 40101 53018 71722 879// 333 90710 91111==
12488,2022,07,26,15,00,AAXX 26151 12488 41556 82902 10185 20177 39960 40109 52026 79522 879// 333 90730 91112==
12488,2022,07,26,16,00,AAXX 26161 12488 41561 82703 10189 20177 39968 40117 51027 79188 879//==
12488,2022,07,26,17,00,AAXX 26171 12488 41567 83003 10180 20163 39970 40120 51017 78088 879//==
12488,2022,07,26,18,00,AAXX 26181 12488 11678 73002 10174 20159 39967 40117 50007 60112 78092 8597/ 333 10297 20174 90760 91112==
12488,2022,07,26,19,00,AAXX 26191 12488 41769 72601 10173 20160 39973 40123 53005 72522 8557/==
12488,2022,07,26,20,00,AAXX 26201 12488 42/65 72601 10171 20160 39972 40122 52002 8707/==
12488,2022,07,26,21,00,AAXX 26211 12488 41650 71501 10166 20158 39976 40126 52009 71082 8553/==
12488,2022,07,26,22,00,AAXX 26221 12488 41623 61701 10159 20151 39977 40128 53004 71022 83531==
12488,2022,07,26,23,00,AAXX 26231 12488 41715 61601 10152 20146 39978 40129 51006 71022 81536==
12488,2022,07,27,00,00,AAXX 27001 12488 11910 50000 10139 20129 39977 40129 50001 69901 71082 81038 333 91202 93097=
12488,2022,07,27,01,00,AAXX 27011 12488 41903 31601 10130 20124 39978 40130 52001 74641 80008==
12488,2022,07,27,02,00,AAXX 27021 12488 41919 32401 10124 20118 39979 40132 53001 72800 80008==
12488,2022,07,27,03,00,AAXX 27031 12488 41456 72902 10149 20144 39982 40133 52005 71041 875//==
12488,2022,07,27,04,00,AAXX 27041 12488 41459 83103 10157 20151 39987 40138 53009 71022 885//==
12488,2022,07,27,05,00,AAXX 27051 12488 42466 73103 10162 20152 39992 40143 52013 875//==
12488,2022,07,27,06,00,AAXX 27061 12488 11480 53103 10164 20148 39998 40149 52016 69902 70141 83630 333 10174 20123 31012 55082 70108==
12488,2022,07,27,07,00,AAXX 27071 12488 42578 43403 10180 20145 39999 40149 51012 84200==
12488,2022,07,27,08,00,AAXX 27081 12488 42681 13103 10190 20118 30002 40152 51010 81100==
12488,2022,07,27,09,00,AAXX 27091 12488 42682 13103 10206 20107 30005 40154 52007 81100==
12488,2022,07,27,10,00,AAXX 27101 12488 42680 13203 10213 20098 30005 40153 51006 81100==
12488,2022,07,27,11,00,AAXX 27111 12488 42681 43103 10223 20108 30005 40153 51003 84200==
12488,2022,07,27,12,00,AAXX 27121 12488 12682 73303 10224 20102 30006 40154 53001 60001 872//==
12495,2022,07,25,06,00,AAXX 25061 12495 11981 11401 10189 20133 39905 40187 54000 60002 702// 80001 333 10191 20119 30009 55094 91203 96122 93000=
12495,2022,07,25,07,00,AAXX 25071 12495 42581 23001 10196 20128 39901 40182 58004 81101==
12495,2022,07,25,08,00,AAXX 25081 12495 42681 43002 10202 20124 39898 40179 58007 83201==
12495,2022,07,25,09,00,AAXX 25091 12495 42682 52802 10209 20118 39896 40176 56009 84201==
12495,2022,07,25,10,00,AAXX 25101 12495 42681 63602 10229 20125 39892 40170 57009 84201==
12495,2022,07,25,11,00,AAXX 25111 12495 42683 60502 10236 20126 39887 40164 58011 84201==
12495,2022,07,25,12,00,AAXX 25121 12495 12782 52302 10244 20127 39881 40157 58015 60001 83201==
12495,2022,07,25,13,00,AAXX 25131 12495 42782 42802 10249 20138 39875 40150 57017 83201==
12495,2022,07,25,14,00,AAXX 25141 12495 42781 30202 10250 20126 39870 40145 57017 83200==
12495,2022,07,25,15,00,AAXX 25151 12495 42682 22802 10259 20131 39866 40140 56015 82100==
12495,2022,07,25,16,00,AAXX 25161 12495 42682 13002 10253 20118 39861 40136 57014 81400==
12495,2022,07,25,17,00,AAXX 25171 12495 42980 03501 10251 20123 39857 40132 57013==
12495,2022,07,25,18,00,AAXX 25181 12495 12984 03401 10231 20136 39855 40132 56011 60002 333 10262 20186==
12495,2022,07,25,19,00,AAXX 25191 12495 42981 10801 10202 20139 39853 40132 56008 80001==
12495,2022,07,25,20,00,AAXX 25201 12495 42981 11101 10192 20134 39850 40130 57007 80001==
12495,2022,07,25,21,00,AAXX 25211 12495 45/83 /1201 10182 20133 39849 40130 57006==
12495,2022,07,25,22,00,AAXX 25221 12495 45/84 /1502 10172 20131 39850 40132 55003==
12495,2022,07,25,23,00,AAXX 25231 12495 45/84 /1401 10163 20128 39847 40130 57003==
12495,2022,07,26,00,00,AAXX 26001 12495 15/84 /1502 10161 20128 39837 40120 58012 60001==
12495,2022,07,26,01,00,AAXX 26011 12495 45/83 /1501 10154 20125 39834 40117 57016==
12495,2022,07,26,02,00,AAXX 26021 12495 45/83 /1401 10150 20125 39833 40117 56014==
12495,2022,07,26,03,00,AAXX 26031 12495 45/81 /1402 10145 20124 39828 40112 57009==
12495,2022,07,26,04,00,AAXX 26041 12495 45/82 /1503 10159 20132 39820 40103 58014==
12495,2022,07,26,05,00,AAXX 26051 12495 42980 21503 10185 20138 39818 40098 56015 80001==
12495,2022,07,26,06,00,AAXX 26061 12495 12980 21604 10217 20141 39816 40093 56012 60002 80001 333 10231 20144 30012 55140 90760 91108==
12495,2022,07,26,07,00,AAXX 26071 12495 42981 71604 10242 20137 39813 40087 57007 80006 333 90710 91108==
12495,2022,07,26,08,00,AAXX 26081 12495 42981 71503 10252 20146 39812 40085 57006 80008 333 90710 91108==
12495,2022,07,26,09,00,AAXX 26091 12495 42980 61504 10282 20141 39808 40079 57008 80008 333 90730 91108==
12495,2022,07,26,10,00,AAXX 26101 12495 42978 21503 10294 20140 39807 40076 57006 80002 333 90710 91108==
12495,2022,07,26,11,00,AAXX 26111 12495 42980 62003 10300 20141 39806 40075 56006 80006 333 90710 91108==
12495,2022,07,26,12,00,AAXX 26121 12495 12880 72403 10298 20135 39802 40071 58006 60001 81248 333 90760 91108==
12495,2022,07,26,13,00,AAXX 26131 12495 42882 72904 10284 20150 39800 40070 57007 872//==
12495,2022,07,26,14,00,AAXX 26141 12495 42680 72806 10270 20163 39803 40074 55003 8235/ 333 91011 90710 91111==
12495,2022,07,26,15,00,AAXX 26151 12495 42677 83108 10216 20147 39816 40093 53014 8297/ 333 91015 90730 91116==
12495,2022,07,26,16,00,AAXX 26161 12495 41536 83107 10177 20169 39830 40111 53030 79582 889// 333 91012 90710 91116==
12495,2022,07,26,17,00,AAXX 26171 12495 41250 83306 10181 20173 39833 40114 51030 79188 889// 333 88906==
12495,2022,07,26,18,00,AAXX 26181 12495 11258 83206 10175 20164 39832 40113 50016 60112 78092 889// 333 10309 20175 88906 90760 91116==
12495,2022,07,26,19,00,AAXX 26191 12495 41580 73305 10165 20143 39840 40123 53010 72582 8553/ 333 90710 91110==
12495,2022,07,26,20,00,AAXX 26201 12495 42664 73003 10161 20148 39841 40124 53008 875//==
12495,2022,07,26,21,00,AAXX 26211 12495 45/62 /3103 10155 20145 39844 40128 51012 333 90730 91110==
12495,2022,07,26,22,00,AAXX 26221 12495 45/59 /2903 10155 20147 39846 40130 52006==
12495,2022,07,26,23,00,AAXX 26231 12495 47/59 /3202 10159 20149 39849 40132 52008 710//==
12495,2022,07,27,00,00,AAXX 27001 12495 17/34 /0000 10152 20146 39848 40132 50004 69911 710// 333 90760 91110==
12495,2022,07,27,01,00,AAXX 27011 12495 47315 /2601 10148 20143 39848 40132 51002 710//==
12495,2022,07,27,02,00,AAXX 27021 12495 47/23 /2902 10147 20144 39847 40132 57002 720//==
12495,2022,07,27,03,00,AAXX 27031 12495 47/10 /2201 10143 20140 39847 40132 57001 734//==
12495,2022,07,27,04,00,AAXX 27041 12495 47122 /2902 10155 20152 39851 40135 53003 720//==
12495,2022,07,27,05,00,AAXX 27051 12495 41002 82801 10153 20150 39852 40136 53005 746// 886// 333 88701==
12495,2022,07,27,06,00,AAXX 27061 12495 11004 83003 10153 20150 39860 40144 53013 69912 742// 886// 333 10175 20141 31012 55083 70114 88701==
12495,2022,07,27,07,00,AAXX 27071 12495 41008 83204 10157 20154 39864 40148 57013 74244 886// 333 88701==
12495,2022,07,27,08,00,AAXX 27081 12495 41256 83304 10168 20163 39866 40149 51014 72822 886// 333 88706==
12495,2022,07,27,09,00,AAXX 27091 12495 41468 73204 10190 20164 39872 40153 52012 70342 872// 333 87810==
12495,2022,07,27,10,00,AAXX 27101 12495 42580 63305 10200 20135 39875 40155 52011 86200==
12495,2022,07,27,11,00,AAXX 27111 12495 42682 53303 10210 20122 39874 40153 50008 85200==
12495,2022,07,27,12,00,AAXX 27121 12495 11681 33304 10220 20117 39872 40150 50000 60001 70141 83201 333 90760 91109==
12497,2022,07,25,06,00,AAXX 25061 12497 11570 13202 10179 20132 39972 40184 57002 60002 703// 81131 333 10205 20123 30011 50523 55095 91203 96122 93000=
12497,2022,07,25,07,00,AAXX 25071 12497 42570 13003 10192 20125 39970 40181 58003 81101==
12497,2022,07,25,08,00,AAXX 25081 12497 42570 63302 10204 20129 39968 40178 57005 86200==
12497,2022,07,25,09,00,AAXX 25091 12497 42670 53103 10219 20133 39965 40174 57007 85200==
12497,2022,07,25,10,00,AAXX 25101 12497 42670 53104 10223 20125 39963 40172 57007 85200==
12497,2022,07,25,11,00,AAXX 25111 12497 42670 53102 10234 20130 39959 40167 57009 84201==
12497,2022,07,25,12,00,AAXX 25121 12497 12670 33203 10238 20127 39952 40160 58013 60001 82201==
12497,2022,07,25,13,00,AAXX 25131 12497 42770 22803 10250 20122 39949 40156 57014 82101 333 90710 91108==
12497,2022,07,25,14,00,AAXX 25141 12497 42770 13103 10251 20120 39943 40150 57016 81101==
12497,2022,07,25,15,00,AAXX 25151 12497 42770 12902 10253 20115 39938 40144 57014 81101 333 90730 91108==
12497,2022,07,25,16,00,AAXX 25161 12497 42770 12101 10251 20109 39933 40139 57016 81101==
12497,2022,07,25,17,00,AAXX 25171 12497 42970 13201 10249 20107 39931 40137 56012 80001==
12497,2022,07,25,18,00,AAXX 25181 12497 12970 13601 10238 20115 39928 40135 57010 60002 80001 333 10256 20179 91108 91203 93000=
12497,2022,07,25,19,00,AAXX 25191 12497 42970 11002 10206 20123 39927 40136 57006 80001==
12497,2022,07,25,20,00,AAXX 25201 12497 42970 11202 10182 20131 39924 40135 57007 80001==
12497,2022,07,25,21,00,AAXX 25211 12497 45/77 /0801 10159 20130 39922 40135 57006==
12497,2022,07,25,22,00,AAXX 25221 12497 45/70 /1801 10147 20127 39923 40137 55004==
12497,2022,07,25,23,00,AAXX 25231 12497 45/80 /1502 10146 20130 39923 40137 56001==
12497,2022,07,26,00,00,AAXX 26001 12497 15/80 /1302 10143 20128 39917 40131 58005 60001==
12497,2022,07,26,01,00,AAXX 26011 12497 45/82 /1402 10141 20121 39911 40125 58012==
12497,2022,07,26,02,00,AAXX 26021 12497 45/81 /1402 10138 20118 39908 40122 56015==
12497,2022,07,26,03,00,AAXX 26031 12497 45/80 /1502 10133 20117 39910 40124 55007==
12497,2022,07,26,04,00,AAXX 26041 12497 45/80 /1402 10147 20126 39903 40116 58008==
12497,2022,07,26,05,00,AAXX 26051 12497 42968 61403 10175 20132 39897 40108 58011 80008==
12497,2022,07,26,06,00,AAXX 26061 12497 12970 61303 10206 20143 39895 40104 56015 60002 80008 333 10238 20132 30011 55133==
12497,2022,07,26,07,00,AAXX 26071 12497 42970 51504 10234 20144 39894 40101 56009 80008==
12497,2022,07,26,08,00,AAXX 26081 12497 42970 51404 10251 20139 39890 40095 57007 80008==
12497,2022,07,26,09,00,AAXX 26091 12497 42/70 61505 10265 20139 39890 40095 56005 81038==
12497,2022,07,26,10,00,AAXX 26101 12497 42970 51504 10272 20139 39886 40090 57008 80008 333 90710 91109==
12497,2022,07,26,11,00,AAXX 26111 12497 42970 51604 10289 20147 39884 40087 58006 80008==
12497,2022,07,26,12,00,AAXX 26121 12497 12/70 61504 10296 20138 39876 40078 58014 60001 81038 333 90760 91110==
12497,2022,07,26,13,00,AAXX 26131 12497 42870 61403 10298 20131 39872 40074 57014 81138==
12497,2022,07,26,14,00,AAXX 26141 12497 42870 71303 10299 20128 39868 40070 56016 81236==
12497,2022,07,26,15,00,AAXX 26151 12497 42770 71503 10301 20142 39865 40067 57011 83238==
12497,2022,07,26,16,00,AAXX 26161 12497 42670 71303 10288 20142 39864 40066 56008 85908==
12497,2022,07,26,17,00,AAXX 26171 12497 42670 73009 10212 20155 39888 40096 53020 879// 333 91014 90710 91115==
12497,2022,07,26,18,00,AAXX 26181 12497 11540 83206 10175 20170 39891 40102 53026 60052 78022 889// 333 10304 20175 90760 91115==
12497,2022,07,26,19,00,AAXX 26191 12497 41560 83103 10177 20175 39895 40106 51031 78088 889//==
12497,2022,07,26,20,00,AAXX 26201 12497 41570 83004 10176 20173 39898 40109 52010 72582 889//==
12497,2022,07,26,21,00,AAXX 26211 12497 45/63 /3103 10177 20174 39899 40110 51008==
12497,2022,07,26,22,00,AAXX 26221 12497 47/61 /2804 10178 20175 39902 40113 52007 710//==
12497,2022,07,26,23,00,AAXX 26231 12497 45/63 /2904 10168 20162 39906 40118 53008==
12497,2022,07,27,00,00,AAXX 27001 12497 15/73 /3004 10166 20158 39909 40121 52010 60031==
12497,2022,07,27,01,00,AAXX 27011 12497 45/80 /3104 10160 20147 39909 40121 51007==
12497,2022,07,27,02,00,AAXX 27021 12497 45/79 /3004 10157 20147 39910 40123 52004==
12497,2022,07,27,03,00,AAXX 27031 12497 45/69 /3003 10152 20144 39910 40123 52001==
12497,2022,07,27,04,00,AAXX 27041 12497 45/65 /3002 10154 20148 39913 40126 52004==
12497,2022,07,27,05,00,AAXX 27051 12497 42470 22903 10167 20154 39918 40130 53008 81139==
12497,2022,07,27,06,00,AAXX 27061 12497 12470 73103 10169 20152 39924 40136 53014 60032 878// 333 10180 20150 32015 55125 70071==
12497,2022,07,27,07,00,AAXX 27071 12497 42470 63403 10184 20155 39926 40137 51013 86801==
12497,2022,07,27,08,00,AAXX 27081 12497 42570 63103 10196 20153 39929 40139 51011 86200==
12497,2022,07,27,09,00,AAXX 27091 12497 42570 62703 10212 20153 39930 40139 52006 86300==
12497,2022,07,27,10,00,AAXX 27101 12497 41570 73005 10194 20161 39933 40143 52007 72522 879//==
12497,2022,07,27,11,00,AAXX 27111 12497 41570 63203 10201 20169 39936 40146 52007 72522 86900 333 90710 91112==
12497,2022,07,27,12,00,AAXX 27121 12497 11670 43105 10221 20137 39935 40144 50005 69951 70181 84200 333 90760 91112==
12500,2022,07,25,06,00,AAXX 25061 12500 11984 70000 10162 20122 39765 40169 58012 60002 702// 80008 333 10249 20089 30007 55137 91201 93000=
12500,2022,07,25,07,00,AAXX 25071 12500 42981 71501 10216 20132 39755 40151 58020 80008==
12500,2022,07,25,08,00,AAXX 25081 12500 42984 71402 10263 20112 39750 40140 57020 80008==
12500,2022,07,25,09,00,AAXX 25091 12500 42980 71203 10282 20113 39747 40134 56018 80008==
12500,2022,07,25,10,00,AAXX 25101 12500 42981 50902 10289 20110 39743 40129 57012 80008==
12500,2022,07,25,11,00,AAXX 25111 12500 42980 12603 10302 20097 39737 40121 58013 80008==
12500,2022,07,25,12,00,AAXX 25121 12500 12984 02202 10306 20100 39730 40114 58017 60001==
12500,2022,07,25,13,00,AAXX 25131 12500 42984 01304 10312 20105 39723 40105 57020==
12500,2022,07,25,14,00,AAXX 25141 12500 42981 01504 10316 20092 39715 40097 57022==
12500,2022,07,25,15,00,AAXX 25151 12500 42980 02002 10314 20096 39708 40090 57022==
12500,2022,07,25,16,00,AAXX 25161 12500 42968 01403 10314 20090 39703 40084 56020==
12500,2022,07,25,17,00,AAXX 25171 12500 42984 21903 10300 20095 39700 40083 56015 80008==
12500,2022,07,25,18,00,AAXX 25181 12500 12984 51501 10258 20126 39694 40082 57014 60002 83056 333 10321 20162 91205 93000=
12500,2022,07,25,19,00,AAXX 25191 12500 42981 71202 10209 20141 39695 40090 55008 80006==
12500,2022,07,25,20,00,AAXX 25201 12500 42981 51002 10199 20131 39693 40089 56007 80008==
12500,2022,07,25,21,00,AAXX 25211 12500 45/80 /0000 10172 20123 39690 40090 58004==
12500,2022,07,25,22,00,AAXX 25221 12500 45/83 /0601 10173 20130 39686 40086 58009==
12500,2022,07,25,23,00,AAXX 25231 12500 45/84 /0101 10166 20129 39684 40085 57009==
12500,2022,07,26,00,00,AAXX 26001 12500 15/83 /1502 10179 20142 39684 40083 56006 69901==
12500,2022,07,26,01,00,AAXX 26011 12500 47/81 /3102 10190 20138 39689 40086 53003 761//==
12500,2022,07,26,02,00,AAXX 26021 12500 47/65 /2905 10211 20159 39703 40098 53019 722// 333 90710 91109==
12500,2022,07,26,03,00,AAXX 26031 12500 45/82 /2905 10202 20164 39716 40113 53032 333 90730 91110==
12500,2022,07,26,04,00,AAXX 26041 12500 45/84 /2904 10195 20154 39718 40116 51029==
12500,2022,07,26,05,00,AAXX 26051 12500 42582 72803 10193 20150 39725 40123 51022 878// 333 90710 91109==
12500,2022,07,26,06,00,AAXX 26061 12500 12584 73003 10195 20141 39729 40127 52013 69902 878// 333 10258 20159 30015 55140 90760 91110==
12500,2022,07,26,07,00,AAXX 26071 12500 42784 73103 10200 20130 39733 40131 51015 8155/==
12500,2022,07,26,08,00,AAXX 26081 12500 42584 83302 10206 20126 39734 40131 51009 83877==
12500,2022,07,26,09,00,AAXX 26091 12500 42684 83003 10212 20126 39735 40131 51006 82277==
12500,2022,07,26,10,00,AAXX 26101 12500 42684 83003 10222 20124 39734 40129 50001 81207==
12500,2022,07,26,11,00,AAXX 26111 12500 42784 72906 10237 20100 39734 40127 54000 82208==
12500,2022,07,26,12,00,AAXX 26121 12500 12784 72807 10246 20097 39735 40127 55000 60001 81208 333 90760 91110==
12500,2022,07,26,13,00,AAXX 26131 12500 42784 73105 10245 20088 39732 40124 58002 84208 333 91011 90710 91111==
12500,2022,07,26,14,00,AAXX 26141 12500 42884 63204 10240 20088 39733 40125 57001 82232 333 90710 91109==
12500,2022,07,26,15,00,AAXX 26151 12500 42784 73104 10238 20098 39734 40127 55001 8123/ 333 90730 91111==
12500,2022,07,26,16,00,AAXX 26161 12500 42784 43105 10242 20090 39735 40127 52003 81230==
12500,2022,07,26,17,00,AAXX 26171 12500 42784 53203 10232 20092 39735 40129 51002 81430==
12500,2022,07,26,18,00,AAXX 26181 12500 12784 33103 10222 20094 39740 40135 53006 60002 81430 333 10257 20195 90760 91111==
12500,2022,07,26,19,00,AAXX 26191 12500 42782 63302 10198 20118 39747 40146 53012 81550 333 90710 91110==
12500,2022,07,26,20,00,AAXX 26201 12500 42784 63202 10189 20117 39752 40152 52017 81530==
12500,2022,07,26,21,00,AAXX 26211 12500 45/84 /3402 10175 20117 39756 40158 51016 333 90730 91110==
12500,2022,07,26,22,00,AAXX 26221 12500 45/84 /1901 10155 20121 39759 40164 51012==
12500,2022,07,26,23,00,AAXX 26231 12500 45/84 /1401 10152 20123 39758 40164 50006==
12500,2022,07,27,00,00,AAXX 27001 12500 15/73 /0000 10148 20125 39757 40163 50001 60001 333 90760 91110==
12500,2022,07,27,01,00,AAXX 27011 12500 45/80 /0000 10143 20127 39757 40164 56002==
12500,2022,07,27,02,00,AAXX 27021 12500 45/80 /0000 10138 20124 39758 40166 55000==
12500,2022,07,27,03,00,AAXX 27031 12500 45/78 /1301 10138 20129 39760 40168 53003==
12500,2022,07,27,04,00,AAXX 27041 12500 45/82 /0101 10143 20127 39759 40166 50002==
12500,2022,07,27,05,00,AAXX 27051 12500 42684 70000 10151 20133 39759 40165 51001 875//==
12500,2022,07,27,06,00,AAXX 27061 12500 12684 73002 10158 20124 39768 40173 53008 60002 875// 333 10222 20137 30013 55070==
12500,2022,07,27,07,00,AAXX 27071 12500 42684 73003 10162 20116 39769 40174 53010 8553/==
12500,2022,07,27,08,00,AAXX 27081 12500 41681 73003 10160 20110 39772 40177 51013 76022 875//==
12500,2022,07,27,09,00,AAXX 27091 12500 41683 73003 10162 20105 39774 40179 52006 72122 875//==
12500,2022,07,27,10,00,AAXX 27101 12500 42582 72803 10170 20101 39774 40178 51005 878//==
12500,2022,07,27,11,00,AAXX 27111 12500 42582 73302 10171 20102 39777 40181 52005 8587/==
12500,2022,07,27,12,00,AAXX 27121 12500 11680 72903 10169 20096 39777 40181 52003 69901 76162 8357/==
12510,2022,07,25,06,00,AAXX 25061 12510 12984 62304 10139 20050 38418 48532 57008 60002 80008 333 10139 20124 30/// 55143 91208 93000=
12510,2022,07,25,07,00,AAXX 25071 12510 42984 62006 10129 20051 38413 48527 57011 80008==
12510,2022,07,25,08,00,AAXX 25081 12510 42984 62009 10125 20049 38410 48524 57010 80008==
12510,2022,07,25,09,00,AAXX 25091 12510 42984 62110 10141 20062 38410 48524 56008 80008==
12510,2022,07,25,10,00,AAXX 25101 12510 42984 42207 10148 20064 38409 48523 57004 84008 333 91012 90710 91112==
12510,2022,07,25,11,00,AAXX 25111 12510 42984 32405 10164 20073 38406 48519 58004 80008 333 91011 90710 91112==
12510,2022,07,25,12,00,AAXX 25121 12510 12984 22108 10173 20062 38401 48514 58009 60001 80001 333 91014 90760 91114==
12510,2022,07,25,13,00,AAXX 25131 12510 42984 22407 10179 20058 38397 48509 57012 80001 333 91013 90710 91113==
12510,2022,07,25,14,00,AAXX 25141 12510 42984 02307 10183 20055 38392 48504 57014 333 91014 90710 91114==
12510,2022,07,25,15,00,AAXX 25151 12510 42384 12211 10188 20049 38387 48499 57014 81555 333 91016 90730 91117==
12510,2022,07,25,16,00,AAXX 25161 12510 42384 12408 10189 20053 38384 48496 57013 81538 333 91015 90710 91116==
12510,2022,07,25,17,00,AAXX 25171 12510 42/84 32406 10188 20053 38381 48493 57011 81046 333 91013 90710 91116==
12510,2022,07,25,18,00,AAXX 25181 12510 12784 42212 10181 20056 38375 48487 58012 60002 82048 333 10190 20124 91117 91212 93000=
12510,2022,07,25,19,00,AAXX 25191 12510 42/84 52408 10177 20059 38377 48489 55007 82046 333 91014 90710 91115==
12510,2022,07,25,20,00,AAXX 25201 12510 42984 32110 10178 20069 38378 48490 55003 80008 333 90710 91113==
12510,2022,07,25,21,00,AAXX 25211 12510 42984 42008 10180 20071 38379 48491 52004 80006 333 90730 91115==
12510,2022,07,25,22,00,AAXX 25221 12510 42984 42008 10181 20081 38374 48486 58003 80008==
12510,2022,07,25,23,00,AAXX 25231 12510 42984 42209 10178 20084 38369 48481 58009 80008==
12510,2022,07,26,00,00,AAXX 26001 12510 12/84 62209 10170 20089 38364 48476 57015 60001 83056 333 90760 91115==
12510,2022,07,26,01,00,AAXX 26011 12510 42/84 63304 10166 20085 38365 48477 55009 83078 333 90710 91113==
12510,2022,07,26,02,00,AAXX 26021 12510 42/84 63311 10129 20097 38356 48470 58013 83078==
12510,2022,07,26,03,00,AAXX 26031 12510 41/84 93317 10117 20117 38355 48470 58009 74722 89/// 333 90730 91121==
12510,2022,07,26,04,00,AAXX 26041 12510 41/00 93316 10103 20103 38354 48470 56011 74544 89/// 333 90710 91122==
12510,2022,07,26,05,00,AAXX 26051 12510 41/09 73214 10085 20085 38361 48477 53005 74144 865//==
12510,2022,07,26,06,00,AAXX 26061 12510 11/09 73313 10085 20085 38364 48480 53009 69932 74122 8257/ 333 10186 20083 31/// 55145 70003 90760 91122==
12510,2022,07,26,07,00,AAXX 26071 12510 41/09 73310 10084 20084 38369 48485 52015 74144 81578==
12510,2022,07,26,08,00,AAXX 26081 12510 41/09 73110 10089 20088 38372 48488 52011 74144 81578 333 91015 90710 91115==
12510,2022,07,26,09,00,AAXX 26091 12510 41/82 73010 10096 20090 38376 48492 52012 72822 82578 333 90730 91115==
12510,2022,07,26,10,00,AAXX 26101 12510 42982 73112 10100 20060 38374 48490 50005 83278 333 91019 90710 91119==
12510,2022,07,26,11,00,AAXX 26111 12510 42082 73007 10109 20072 38382 48497 53010 83278 333 91016 90710 91116==
12510,2022,07,26,12,00,AAXX 26121 12510 11182 73111 10103 20064 38381 48496 52005 60001 70342 862// 333 90760 91119==
12510,2022,07,26,13,00,AAXX 26131 12510 42180 73010 10116 20061 38382 48497 51008 862// 333 90710 91116==
12510,2022,07,26,14,00,AAXX 26141 12510 42180 73011 10117 20051 38382 48497 54000 862// 333 90710 91118==
12510,2022,07,26,15,00,AAXX 26151 12510 42284 63108 10116 20055 38384 48499 52003 8323/ 333 91013 90730 91118==
12510,2022,07,26,16,00,AAXX 26161 12510 42284 63109 10115 20056 38384 48499 52002 83332 333 90710 91114==
12510,2022,07,26,17,00,AAXX 26171 12510 42284 63308 10114 20063 38385 48500 52003 83332==
12510,2022,07,26,18,00,AAXX 26181 12510 12084 63309 10105 20068 38385 48500 52001 60002 82331 333 10125 20082 90760 91118==
12510,2022,07,26,19,00,AAXX 26191 12510 42084 63312 10087 20081 38384 48500 50000 84531==
12510,2022,07,26,20,00,AAXX 26201 12510 41/09 53211 10087 20086 38388 48504 53003 74122 83531==
12510,2022,07,26,21,00,AAXX 26211 12510 41/09 63311 10083 20077 38387 48503 52002 74122 865//==
12510,2022,07,26,22,00,AAXX 26221 12510 41/00 93209 10081 20081 38388 48504 51004 74744 89///==
12510,2022,07,26,23,00,AAXX 26231 12510 41/00 93309 10077 20077 38387 48503 57001 74544 89///==
12510,2022,07,27,00,00,AAXX 27001 12510 11/00 93209 10077 20077 38386 48502 58001 60001 74544 89///==
12510,2022,07,27,01,00,AAXX 27011 12510 41/00 93209 10075 20075 38385 48501 57003 74544 89///==
12510,2022,07,27,02,00,AAXX 27021 12510 41/84 93208 10075 20075 38385 48501 56002 74544 89///==
12510,2022,07,27,03,00,AAXX 27031 12510 41/00 93309 10072 20072 38384 48501 57002 74544 89///==
12510,2022,07,27,04,00,AAXX 27041 12510 41/00 93108 10073 20073 38383 48500 58002 74544 89///==
12510,2022,07,27,05,00,AAXX 27051 12510 41/84 93106 10071 20071 38384 48501 55001 74544 89///==
12510,2022,07,27,06,00,AAXX 27061 12510 11/00 92906 10073 20073 38390 48506 53006 60002 74544 89/// 333 10105 20069 30/// 55064==
12510,2022,07,27,07,00,AAXX 27071 12510 41/00 92602 10078 20078 38392 48508 52009 74544 89///==
12510,2022,07,27,08,00,AAXX 27081 12510 41/00 92802 10083 20083 38393 48509 51009 74544 89///==
12510,2022,07,27,09,00,AAXX 27091 12510 41/00 72606 10082 20082 38393 48509 51003 74144 865//==
12510,2022,07,27,10,00,AAXX 27101 12510 41/00 92703 10083 20083 38394 48510 52002 74744 89/// 333 90710 91108==
12510,2022,07,27,11,00,AAXX 27111 12510 41/00 92706 10072 20072 38396 48512 53003 74544 89/// 333 90710 91109==
12510,2022,07,27,12,00,AAXX 27121 12510 11/00 93205 10064 20064 38397 48514 52004 69941 76044 89/// 333 90760 91109==
12520,2022,07,25,06,00,AAXX 25061 12520 11982 72201 10151 20122 39760 40182 57009 60002 702// 80008 333 10241 20097 37008 50453 55138 91201 96122 93000=
12520,2022,07,25,07,00,AAXX 25071 12520 42982 71801 10193 20118 39755 40171 57012 80008==
12520,2022,07,25,08,00,AAXX 25081 12520 42982 71603 10236 20119 39748 40158 58015 80008==
12520,2022,07,25,09,00,AAXX 25091 12520 42984 71606 10267 20104 39743 40148 57017 80008==
12520,2022,07,25,10,00,AAXX 25101 12520 42984 61705 10271 20099 39738 40142 57017 80008==
12520,2022,07,25,11,00,AAXX 25111 12520 42984 31705 10287 20104 39732 40134 57016 80008 333 90710 91110==
12520,2022,07,25,12,00,AAXX 25121 12520 12984 11505 10290 20097 39724 40125 58019 60001 80001 333 90760 91110==
12520,2022,07,25,13,00,AAXX 25131 12520 42984 11704 10295 20101 39716 40116 57022 80001 333 90710 91109==
12520,2022,07,25,14,00,AAXX 25141 12520 42983 01505 10306 20105 39708 40106 57024 333 91010 90710 91110==
12520,2022,07,25,15,00,AAXX 25151 12520 42982 11604 10307 20096 39700 40098 57024 80002 333 91009 90730 91110==
12520,2022,07,25,16,00,AAXX 25161 12520 42982 11604 10304 20098 39693 40091 57023 80002==
12520,2022,07,25,17,00,AAXX 25171 12520 42983 11704 10297 20108 39691 40090 56017 80002==
12520,2022,07,25,18,00,AAXX 25181 12520 12984 11703 10265 20110 39688 40091 56012 60002 80002 333 10310 20151 91110 91206 93000=
12520,2022,07,25,19,00,AAXX 25191 12520 42982 21503 10235 20115 39684 40091 58009 80005==
12520,2022,07,25,20,00,AAXX 25201 12520 42983 51702 10212 20121 39685 40095 55006 80006==
12520,2022,07,25,21,00,AAXX 25211 12520 45/84 /1602 10204 20126 39682 40093 57006==
12520,2022,07,25,22,00,AAXX 25221 12520 45/82 /0301 10199 20124 39679 40091 58005==
12520,2022,07,25,23,00,AAXX 25231 12520 45/82 /3201 10185 20120 39676 40090 57009==
12520,2022,07,26,00,00,AAXX 26001 12520 15/81 /0201 10189 20124 39675 40088 57007 60001==
12520,2022,07,26,01,00,AAXX 26011 12520 45982 /3401 10187 20127 39668 40081 58011==
12520,2022,07,26,02,00,AAXX 26021 12520 45983 /1503 10202 20143 39665 40076 57011==
12520,2022,07,26,03,00,AAXX 26031 12520 45983 /3402 10195 20132 39673 40085 55002==
12520,2022,07,26,04,00,AAXX 26041 12520 45964 /3002 10210 20151 39687 40098 53019==
12520,2022,07,26,05,00,AAXX 26051 12520 42570 83304 10206 20156 39699 40111 53034 8117/ 333 91009 90710 91109==
12520,2022,07,26,06,00,AAXX 26061 12520 12581 83102 10206 20152 39705 40117 51032 60002 8587/ 333 10265 20182 39016 55143 81826 85656 90760 91109==
12520,2022,07,26,07,00,AAXX 26071 12520 41770 73102 10205 20139 39713 40125 51026 71522 8697/ 333 86950==
12520,2022,07,26,08,00,AAXX 26081 12520 42681 73002 10205 20132 39718 40131 52019 875// 333 87646==
12520,2022,07,26,09,00,AAXX 26091 12520 42582 73402 10217 20123 39717 40128 50012 8387/==
12520,2022,07,26,10,00,AAXX 26101 12520 42582 73201 10217 20114 39721 40132 52008 8687/==
12520,2022,07,26,11,00,AAXX 26111 12520 42683 73201 10221 20115 39722 40133 53004 8657/==
12520,2022,07,26,12,00,AAXX 26121 12520 12683 70702 10225 20121 39721 40131 50004 60001 84208==
12520,2022,07,26,13,00,AAXX 26131 12520 42683 60101 10229 20119 39718 40127 58003 84332==
12520,2022,07,26,14,00,AAXX 26141 12520 41783 73401 10229 20122 39719 40128 55003 72522 85332==
12520,2022,07,26,15,00,AAXX 26151 12520 41783 63203 10239 20091 39718 40126 57003 70182 84332==
12520,2022,07,26,16,00,AAXX 26161 12520 42784 53403 10237 20089 39717 40125 58001 84230==
12520,2022,07,26,17,00,AAXX 26171 12520 42783 40102 10238 20098 39717 40125 56002 82231==
12520,2022,07,26,18,00,AAXX 26181 12520 11784 40202 10221 20112 39720 40130 53002 69902 70181 81232 333 10247 20202==
12520,2022,07,26,19,00,AAXX 26191 12520 42783 30000 10198 20121 39725 40139 53008 81432==
12520,2022,07,26,20,00,AAXX 26201 12520 42/83 33101 10173 20118 39730 40148 52013 83050==
12520,2022,07,26,21,00,AAXX 26211 12520 45982 /0000 10160 20118 39735 40155 52015==
12520,2022,07,26,22,00,AAXX 26221 12520 45/81 /1901 10142 20114 39738 40161 52013==
12520,2022,07,26,23,00,AAXX 26231 12520 45/82 /1401 10133 20110 39739 40163 51009==
12520,2022,07,27,00,00,AAXX 27001 12520 15/81 /1802 10122 20104 39740 40166 52005 60001==
12520,2022,07,27,01,00,AAXX 27011 12520 45874 /1401 10122 20109 39741 40167 52003==
12520,2022,07,27,02,00,AAXX 27021 12520 45876 /2201 10121 20112 39743 40169 52004==
12520,2022,07,27,03,00,AAXX 27031 12520 45880 /0000 10127 20118 39744 40169 52004==
12520,2022,07,27,04,00,AAXX 27041 12520 45870 /3101 10130 20119 39745 40170 52004==
12520,2022,07,27,05,00,AAXX 27051 12520 41580 81602 10131 20122 39742 40167 58001 760// 875// 333 87633==
12520,2022,07,27,06,00,AAXX 27061 12520 11681 73601 10140 20129 39747 40170 53003 69902 721// 875// 333 10221 20115 30010 55029==
12520,2022,07,27,07,00,AAXX 27071 12520 42683 60000 10167 20145 39748 40167 53003 85831 333 81841 85641==
12520,2022,07,27,08,00,AAXX 27081 12520 42684 60702 10192 20129 39748 40164 51006 85830 333 82844 85656==
12520,2022,07,27,09,00,AAXX 27091 12520 42583 51202 10203 20125 39745 40159 58002 84331 333 84933==
12520,2022,07,27,10,00,AAXX 27101 12520 41684 60302 10207 20124 39743 40156 58005 78022 86931 333 86940==
12520,2022,07,27,11,00,AAXX 27111 12520 41683 70203 10195 20120 39747 40162 55001 78082 879// 333 87938 90710 91109==
12520,2022,07,27,12,00,AAXX 27121 12520 11582 70602 10195 20143 39747 40162 51002 69941 78082 879// 333 87926 90760 91109==
12530,2022,07,25,06,00,AAXX 25061 12530 11980 41102 10190 20116 39982 40175 58008 60002 703// 80002 333 10247 20109 30010 55141 91202 93000=
12530,2022,07,25,07,00,AAXX 25071 12530 42980 61402 10229 20113 39978 40168 57012 80002==
12530,2022,07,25,08,00,AAXX 25081 12530 42980 71902 10258 20100 39973 40161 58013 80008==
12530,2022,07,25,09,00,AAXX 25091 12530 42980 71604 10267 20086 39970 40157 57012 80008==
12530,2022,07,25,10,00,AAXX 25101 12530 42980 71502 10281 20089 39965 40151 57013 80008==
12530,2022,07,25,11,00,AAXX 25111 12530 42980 61903 10294 20084 39958 40144 58015 80008==
12530,2022,07,25,12,00,AAXX 25121 12530 12980 31403 10297 20081 39948 40133 58022 60001 80002==
12530,2022,07,25,13,00,AAXX 25131 12530 42980 11503 10309 20074 39941 40125 57024 80002==
12530,2022,07,25,14,00,AAXX 25141 12530 42980 11503 10313 20070 39932 40116 57026 80001==
12530,2022,07,25,15,00,AAXX 25151 12530 42980 01603 10313 20070 39924 40108 57024==
12530,2022,07,25,16,00,AAXX 25161 12530 42980 01404 10315 20079 39918 40101 56023==
12530,2022,07,25,17,00,AAXX 25171 12530 42980 01303 10312 20088 39913 40097 56019 333 90710 91108==
12530,2022,07,25,18,00,AAXX 25181 12530 12980 01203 10295 20091 39910 40095 56014 60002 333 10324 20190 90760 91108==
12530,2022,07,25,19,00,AAXX 25191 12530 42980 11102 10261 20099 39908 40095 56010 80001==
12530,2022,07,25,20,00,AAXX 25201 12530 42970 11001 10234 20104 39908 40096 56005 80001==
12530,2022,07,25,21,00,AAXX 25211 12530 45/70 /1201 10222 20110 39906 40095 57004==
12530,2022,07,25,22,00,AAXX 25221 12530 45/70 /1301 10212 20118 39903 40093 58005==
12530,2022,07,25,23,00,AAXX 25231 12530 45/70 /1601 10201 20118 39895 40085 58013==
12530,2022,07,26,00,00,AAXX 26001 12530 15/70 /1401 10201 20126 39893 40083 57013 60001==
12530,2022,07,26,01,00,AAXX 26011 12530 45/70 /0902 10187 20124 39887 40078 57016==
12530,2022,07,26,02,00,AAXX 26021 12530 45/70 /1001 10184 20126 39882 40073 58013==
12530,2022,07,26,03,00,AAXX 26031 12530 45970 /0802 10180 20135 39878 40069 56015==
12530,2022,07,26,04,00,AAXX 26041 12530 45870 /3003 10212 20134 39890 40079 53003 333 90710 91112==
12530,2022,07,26,05,00,AAXX 26051 12530 41570 82502 10189 20170 39908 40099 53026 795// 889//==
12530,2022,07,26,06,00,AAXX 26061 12530 11565 82904 10195 20182 39913 40104 51035 60112 729// 889// 333 10295 20176 32017 55149 70110 90760 91112==
12530,2022,07,26,07,00,AAXX 26071 12530 42465 82904 10201 20180 39922 40113 51032 8217/ 333 82816==
12530,2022,07,26,08,00,AAXX 26081 12530 41570 82803 10197 20173 39932 40123 53024 78022 889//==
12530,2022,07,26,09,00,AAXX 26091 12530 41570 83102 10190 20164 39938 40130 51025 72522 889//==
12530,2022,07,26,10,00,AAXX 26101 12530 42570 82301 10201 20169 39943 40134 51021 8217/==
12530,2022,07,26,11,00,AAXX 26111 12530 42680 83002 10211 20159 39943 40134 51011 8117/==
12530,2022,07,26,12,00,AAXX 26121 12530 11680 83201 10218 20154 39941 40131 50003 60031 70282 8117/==
12530,2022,07,26,13,00,AAXX 26131 12530 41580 83101 10215 20151 39942 40132 55001 72522 889//==
12530,2022,07,26,14,00,AAXX 26141 12530 41680 72501 10225 20151 39942 40132 56001 70182 84938==
12530,2022,07,26,15,00,AAXX 26151 12530 41680 72202 10233 20137 39941 40130 50000 70182 8225/==
12530,2022,07,26,16,00,AAXX 26161 12530 42680 70601 10236 20135 39940 40129 58002 84238==
12530,2022,07,26,17,00,AAXX 26171 12530 42780 71902 10236 20135 39937 40126 58005 83238==
12530,2022,07,26,18,00,AAXX 26181 12530 11770 71502 10211 20173 39940 40130 55001 60032 70182 84432 333 10240 20189==
12530,2022,07,26,19,00,AAXX 26191 12530 42770 11902 10197 20165 39945 40136 53005 81400==
12530,2022,07,26,20,00,AAXX 26201 12530 42/70 11802 10186 20164 39947 40139 52010 81030==
12530,2022,07,26,21,00,AAXX 26211 12530 45860 /2002 10179 20162 39949 40142 51009==
12530,2022,07,26,22,00,AAXX 26221 12530 47/58 /2502 10171 20161 39954 40147 53009 710//==
12530,2022,07,26,23,00,AAXX 26231 12530 47/50 /3001 10162 20154 39955 40149 52008 710//==
12530,2022,07,27,00,00,AAXX 27001 12530 15/68 /2902 10159 20146 39957 40151 51008 60001==
12530,2022,07,27,01,00,AAXX 27011 12530 45/70 /3002 10158 20135 39960 40154 53006==
12530,2022,07,27,02,00,AAXX 27021 12530 45/70 /2802 10149 20131 39961 40156 52006==
12530,2022,07,27,03,00,AAXX 27031 12530 45970 /2802 10149 20134 39964 40159 52007==
12530,2022,07,27,04,00,AAXX 27041 12530 45970 /3001 10153 20140 39966 40161 52006==
12530,2022,07,27,05,00,AAXX 27051 12530 42565 73501 10163 20148 39967 40161 51006 875//==
12530,2022,07,27,06,00,AAXX 27061 12530 12570 70301 10163 20145 39970 40164 52006 60002 8483/ 333 10211 20147 31015 55022 70031==
12530,2022,07,27,07,00,AAXX 27071 12530 42570 71601 10165 20147 39972 40166 52006 8383/==
12530,2022,07,27,08,00,AAXX 27081 12530 42670 71501 10175 20144 39974 40168 51007 8253/==
12530,2022,07,27,09,00,AAXX 27091 12530 42575 61701 10199 20140 39973 40165 50003 8113/==
12530,2022,07,27,10,00,AAXX 27101 12530 42580 52001 10218 20134 39969 40160 58003 82230==
12530,2022,07,27,11,00,AAXX 27111 12530 42580 40501 10237 20138 39969 40158 56005 83230==
12530,2022,07,27,12,00,AAXX 27121 12530 12680 43402 10251 20130 39964 40152 57009 60001 84200==
12540,2022,07,25,06,00,AAXX 25061 12540 11981 51501 10173 20130 39937 40181 57007 60002 700// 80002 333 10241 20106 30009 55144 91203 96122 93000=
12540,2022,07,25,07,00,AAXX 25071 12540 42981 61402 10207 20121 39933 40174 57009 80008==
12540,2022,07,25,08,00,AAXX 25081 12540 42980 71402 10235 20122 39929 40168 57010 80008==
12540,2022,07,25,09,00,AAXX 25091 12540 42/83 61503 10257 20107 39924 40161 57013 81038==
12540,2022,07,25,10,00,AAXX 25101 12540 42984 51403 10267 20104 39918 40154 58015 80008==
12540,2022,07,25,11,00,AAXX 25111 12540 42984 50902 10274 20101 39912 40147 57017 80008==
12540,2022,07,25,12,00,AAXX 25121 12540 12984 30602 10289 20115 39902 40136 58022 60001 80001==
12540,2022,07,25,13,00,AAXX 25131 12540 42984 11003 10295 20106 39894 40127 57024 80001==
12540,2022,07,25,14,00,AAXX 25141 12540 42984 10903 10301 20101 39887 40120 56025 80001==
12540,2022,07,25,15,00,AAXX 25151 12540 42984 00903 10304 20109 39878 40110 57024==
12540,2022,07,25,16,00,AAXX 25161 12540 42984 01003 10304 20109 39871 40103 57023==
12540,2022,07,25,17,00,AAXX 25171 12540 42984 01103 10299 20123 39868 40100 56019==
12540,2022,07,25,18,00,AAXX 25181 12540 12984 01201 10278 20137 39866 40100 56012 60002 333 10306 20173==
12540,2022,07,25,19,00,AAXX 25191 12540 45/81 /1402 10251 20127 39862 40098 57009==
12540,2022,07,25,20,00,AAXX 25201 12540 45/70 /1501 10222 20141 39865 40103 55003==
12540,2022,07,25,21,00,AAXX 25211 12540 45/82 /1302 10218 20134 39861 40100 57005==
12540,2022,07,25,22,00,AAXX 25221 12540 45/81 /1302 10213 20135 39859 40098 58003==
12540,2022,07,25,23,00,AAXX 25231 12540 45/81 /1602 10198 20142 39854 40094 57011==
12540,2022,07,26,00,00,AAXX 26001 12540 15/80 /1502 10195 20141 39853 40093 57008 60001==
12540,2022,07,26,01,00,AAXX 26011 12540 45/80 /1403 10187 20142 39847 40088 57012==
12540,2022,07,26,02,00,AAXX 26021 12540 45/77 /1503 10185 20142 39843 40084 58011==
12540,2022,07,26,03,00,AAXX 26031 12540 45977 /1503 10184 20145 39840 40081 56013==
12540,2022,07,26,04,00,AAXX 26041 12540 45975 /1603 10189 20146 39837 40077 57010==
12540,2022,07,26,05,00,AAXX 26051 12540 47667 /3109 10207 20159 39857 40096 53014 761// 333 91013 90710 91113==
12540,2022,07,26,06,00,AAXX 26061 12540 11563 83004 10193 20174 39872 40113 53032 69942 795// 889// 333 10278 20181 31016 55149 70004 90760 91113==
12540,2022,07,26,07,00,AAXX 26071 12540 41440 83006 10189 20177 39880 40121 51043 79298 889// 333 82813==
12540,2022,07,26,08,00,AAXX 26081 12540 41562 83106 10186 20171 39878 40120 50021 78088 8697/==
12540,2022,07,26,09,00,AAXX 26091 12540 41464 82904 10189 20170 39889 40131 53017 78098 8697/==
12540,2022,07,26,10,00,AAXX 26101 12540 41460 83003 10173 20160 39898 40141 53018 78188 8697/==
12540,2022,07,26,11,00,AAXX 26111 12540 41664 83202 10180 20163 39896 40139 50018 76188 8452/==
12540,2022,07,26,12,00,AAXX 26121 12540 11667 82101 10190 20162 39899 40141 51010 60141 76198 8252/==
12540,2022,07,26,13,00,AAXX 26131 12540 41665 81602 10188 20166 39898 40140 54000 76166 8152/==
12540,2022,07,26,14,00,AAXX 26141 12540 41570 71803 10189 20165 39900 40142 52004 78062 8497/==
12540,2022,07,26,15,00,AAXX 26151 12540 41470 71804 10195 20169 39900 40141 51001 72562 8397/ 333 81813==
12540,2022,07,26,16,00,AAXX 26161 12540 42670 71803 10190 20162 39898 40140 50000 8127/==
12540,2022,07,26,17,00,AAXX 26171 12540 42670 61703 10194 20161 39897 40138 58003 81438==
12540,2022,07,26,18,00,AAXX 26181 12540 11/80 31603 10189 20158 39896 40138 57004 60142 70186 81032 333 10195 20171==
12540,2022,07,26,19,00,AAXX 26191 12540 45/62 /1802 10171 20154 39899 40142 53001==
12540,2022,07,26,20,00,AAXX 26201 12540 47/57 /2102 10155 20145 39902 40147 53005 710//==
12540,2022,07,26,21,00,AAXX 26211 12540 45/63 /2202 10153 20142 39903 40148 52007==
12540,2022,07,26,22,00,AAXX 26221 12540 45/62 /1901 10148 20138 39905 40151 52006==
12540,2022,07,26,23,00,AAXX 26231 12540 47/57 /1201 10140 20135 39906 40152 52004 710//==
12540,2022,07,27,00,00,AAXX 27001 12540 17/58 /1902 10137 20132 39907 40154 52004 60001 710// 333 91203 91302 93000=
12540,2022,07,27,01,00,AAXX 27011 12540 47/50 /2301 10133 20127 39910 40157 52005 710//==
12540,2022,07,27,02,00,AAXX 27021 12540 45/63 /2801 10138 20129 39912 40159 52006==
12540,2022,07,27,03,00,AAXX 27031 12540 45/61 /2801 10128 20120 39914 40162 52007==
12540,2022,07,27,04,00,AAXX 27041 12540 45961 /2602 10138 20133 39915 40162 52005==
12540,2022,07,27,05,00,AAXX 27051 12540 45967 /3501 10150 20137 39917 40163 52005==
12540,2022,07,27,06,00,AAXX 27061 12540 12470 73302 10160 20147 39922 40167 53008 60002 8553/ 333 10190 20125 31010 55019 70141 85611==
12540,2022,07,27,07,00,AAXX 27071 12540 42470 73101 10166 20146 39925 40170 52010 875// 333 87611==
12540,2022,07,27,08,00,AAXX 27081 12540 42470 73501 10178 20152 39924 40167 50007 8623/ 333 81812 85612==
12540,2022,07,27,09,00,AAXX 27091 12540 42470 73202 10184 20153 39924 40167 51002 8483/==
12540,2022,07,27,10,00,AAXX 27101 12540 42575 63501 10198 20154 39922 40164 57003 82831==
12540,2022,07,27,11,00,AAXX 27111 12540 42575 73601 10213 20145 39922 40163 57002 81881==
12540,2022,07,27,12,00,AAXX 27121 12540 12576 60102 10223 20128 39916 40156 58008 60001 81938==
12550,2022,07,25,06,00,AAXX 25061 12550 11980 21602 10191 20116 39834 40180 57008 60002 700// 80002 333 10228 20130 30011 55133 91202 93000=
12550,2022,07,25,07,00,AAXX 25071 12550 42982 51601 10220 20108 39830 40172 58009 80006==
12550,2022,07,25,08,00,AAXX 25081 12550 42982 51102 10236 20103 39828 40168 57010 80008==
12550,2022,07,25,09,00,AAXX 25091 12550 42981 61102 10247 20102 39825 40164 57009 80008==
12550,2022,07,25,10,00,AAXX 25101 12550 42982 61403 10256 20106 39821 40159 58009 80008==
12550,2022,07,25,11,00,AAXX 25111 12550 42980 61402 10266 20085 39817 40153 57011 80008==
12550,2022,07,25,12,00,AAXX 25121 12550 12980 31401 10274 20097 39808 40143 58017 60001 80002==
12550,2022,07,25,13,00,AAXX 25131 12550 42980 11102 10285 20097 39801 40135 58020 80001==
12550,2022,07,25,14,00,AAXX 25141 12550 45/80 /1302 10286 20088 39793 40126 57024==
12550,2022,07,25,15,00,AAXX 25151 12550 45/81 /1201 10291 20087 39787 40120 57021==
12550,2022,07,25,16,00,AAXX 25161 12550 45/81 /1703 10287 20099 39780 40113 57021==
12550,2022,07,25,17,00,AAXX 25171 12550 45/83 /1302 10276 20099 39777 40111 56016==
12550,2022,07,25,18,00,AAXX 25181 12550 15/83 /1402 10263 20096 39775 40110 56012 60002 333 10292 20191 91203 91302 93000=
12550,2022,07,25,19,00,AAXX 25191 12550 45/83 /1001 10247 20109 39768 40105 58012==
12550,2022,07,25,20,00,AAXX 25201 12550 45/83 /1302 10233 20093 39767 40105 57010==
12550,2022,07,25,21,00,AAXX 25211 12550 45/83 /1402 10216 20095 39768 40108 55007==
12550,2022,07,25,22,00,AAXX 25221 12550 45/83 /1402 10207 20099 39764 40105 58004==
12550,2022,07,25,23,00,AAXX 25231 12550 45/84 /1502 10197 20101 39758 40100 58009==
12550,2022,07,26,00,00,AAXX 26001 12550 15/84 /1502 10189 20107 39752 40095 57016 60001==
12550,2022,07,26,01,00,AAXX 26011 12550 45/84 /1502 10186 20104 39749 40092 56015==
12550,2022,07,26,02,00,AAXX 26021 12550 45/84 /1503 10186 20109 39742 40085 57016==
12550,2022,07,26,03,00,AAXX 26031 12550 45/82 /1502 10181 20112 39738 40082 57014==
12550,2022,07,26,04,00,AAXX 26041 12550 45/82 /1502 10183 20114 39734 40077 56015==
12550,2022,07,26,05,00,AAXX 26051 12550 45/81 /1902 10197 20122 39738 40080 55004==
12550,2022,07,26,06,00,AAXX 26061 12550 12580 82501 10207 20129 39745 40086 53007 60002 8237/ 333 10263 20178 30017 55142==
12550,2022,07,26,07,00,AAXX 26071 12550 42575 82702 10188 20145 39757 40100 53023 8597/==
12550,2022,07,26,08,00,AAXX 26081 12550 41560 82702 10176 20161 39767 40112 53029 78082 8597/ 333 90710 91108==
12550,2022,07,26,09,00,AAXX 26091 12550 41550 82401 10181 20173 39774 40119 51029 78082 8697/ 333 90730 91108==
12550,2022,07,26,10,00,AAXX 26101 12550 41550 82904 10184 20172 39781 40126 51024 78088 889// 333 90710 91108==
12550,2022,07,26,11,00,AAXX 26111 12550 41556 83104 10179 20171 39782 40127 51015 78088 889// 333 90710 91109==
12550,2022,07,26,12,00,AAXX 26121 12550 11558 82702 10182 20170 39790 40135 52016 60051 72582 889// 333 90760 91109==
12550,2022,07,26,13,00,AAXX 26131 12550 41558 82701 10186 20169 39790 40135 51009 78022 889//==
12550,2022,07,26,14,00,AAXX 26141 12550 47/65 /2601 10187 20165 39791 40136 51009 722//==
12550,2022,07,26,15,00,AAXX 26151 12550 47/60 /2401 10189 20170 39791 40136 52001 781//==
12550,2022,07,26,16,00,AAXX 26161 12550 47/63 /2201 10194 20172 39790 40134 50000 723//==
12550,2022,07,26,17,00,AAXX 26171 12550 45/71 /2301 10196 20170 39787 40131 58004==
12550,2022,07,26,18,00,AAXX 26181 12550 15/68 /1901 10191 20169 39788 40132 55003 60052 333 10207 20175==
12550,2022,07,26,19,00,AAXX 26191 12550 47/58 /2001 10180 20170 39791 40137 53001 710//==
12550,2022,07,26,20,00,AAXX 26201 12550 47/50 /1901 10172 20167 39793 40140 52006 710//==
12550,2022,07,26,21,00,AAXX 26211 12550 47/24 /2101 10167 20164 39795 40142 52007 710//==
12550,2022,07,26,22,00,AAXX 26221 12550 47/31 /1901 10161 20158 39798 40146 52007 710//==
12550,2022,07,26,23,00,AAXX 26231 12550 47/46 /2101 10156 20151 39798 40147 51005 710//==
12550,2022,07,27,00,00,AAXX 27001 12550 17/40 /2301 10151 20146 39799 40148 52004 60001 710//==
12550,2022,07,27,01,00,AAXX 27011 12550 47/24 /2301 10146 20141 39801 40151 53003 710//==
12550,2022,07,27,02,00,AAXX 27021 12550 47/58 /2902 10142 20136 39802 40153 52004 710//==
12550,2022,07,27,03,00,AAXX 27031 12550 45/66 /3003 10144 20134 39805 40156 52006==
12550,2022,07,27,04,00,AAXX 27041 12550 45/62 /3002 10141 20133 39810 40161 53009==
12550,2022,07,27,05,00,AAXX 27051 12550 45/66 /3403 10148 20133 39810 40160 51008==
12550,2022,07,27,06,00,AAXX 27061 12550 12470 63502 10163 20136 39814 40162 52009 69912 8213/ 333 10191 20140 31013 55024 70049==
12550,2022,07,27,07,00,AAXX 27071 12550 42482 63302 10175 20126 39815 40162 53005 8213/==
12550,2022,07,27,08,00,AAXX 27081 12550 42581 63401 10184 20126 39817 40163 52007 8223/==
12550,2022,07,27,09,00,AAXX 27091 12550 42581 72101 10193 20130 39817 40162 51003 8125/==
12550,2022,07,27,10,00,AAXX 27101 12550 42580 52102 10209 20123 39815 40158 50000 84230==
12550,2022,07,27,11,00,AAXX 27111 12550 42580 53002 10211 20114 39816 40159 55001 84230==
12550,2022,07,27,12,00,AAXX 27121 12550 12580 43002 10224 20115 39813 40154 57004 60001 83230==
12560,2022,07,25,06,00,AAXX 25061 12560 11980 61401 10183 20123 39853 40182 58007 60002 703// 80002 333 10241 20109 30009 55131 91201 93000=
12560,2022,07,25,07,00,AAXX 25071 12560 42981 71102 10210 20122 39849 40175 58008 80002==
12560,2022,07,25,08,00,AAXX 25081 12560 42981 71002 10233 20117 39846 40169 56012 80002==
12560,2022,07,25,09,00,AAXX 25091 12560 42981 71702 10241 20111 39844 40166 56009 80006==
12560,2022,07,25,10,00,AAXX 25101 12560 42981 61403 10251 20090 39840 40161 57009 80008==
12560,2022,07,25,11,00,AAXX 25111 12560 42982 51203 10260 20089 39835 40155 58011 80002==
12560,2022,07,25,12,00,AAXX 25121 12560 12980 50502 10268 20078 39826 40144 58018 60001 80002==
12560,2022,07,25,13,00,AAXX 25131 12560 42982 21003 10278 20091 39819 40136 58021 80002==
12560,2022,07,25,14,00,AAXX 25141 12560 42982 11203 10281 20094 39813 40130 56022 80002==
12560,2022,07,25,15,00,AAXX 25151 12560 42982 01203 10281 20089 39805 40121 57021==
12560,2022,07,25,16,00,AAXX 25161 12560 42982 01102 10283 20096 39798 40114 57021==
12560,2022,07,25,17,00,AAXX 25171 12560 42984 01002 10278 20105 39795 40111 56018==
12560,2022,07,25,18,00,AAXX 25181 12560 12984 01001 10254 20133 39792 40111 56013 60002 333 10286 20183==
12560,2022,07,25,19,00,AAXX 25191 12560 42982 01002 10230 20123 39788 40109 57010==
12560,2022,07,25,20,00,AAXX 25201 12560 45/81 /1003 10221 20112 39785 40107 57010==
12560,2022,07,25,21,00,AAXX 25211 12560 45/83 /0902 10209 20118 39785 40109 56007==
12560,2022,07,25,22,00,AAXX 25221 12560 45/83 /0701 10204 20119 39783 40107 57005==
12560,2022,07,25,23,00,AAXX 25231 12560 45/83 /0000 10199 20119 39775 40099 58010==
12560,2022,07,26,00,00,AAXX 26001 12560 15/84 /1401 10196 20116 39774 40099 57011 60001==
12560,2022,07,26,01,00,AAXX 26011 12560 45/83 /1202 10190 20120 39770 40095 56013==
12560,2022,07,26,02,00,AAXX 26021 12560 45/82 /1302 10185 20123 39764 40090 58011==
12560,2022,07,26,03,00,AAXX 26031 12560 45/82 /0901 10186 20126 39760 40085 57014==
12560,2022,07,26,04,00,AAXX 26041 12560 45/82 /0601 10190 20130 39757 40082 56013==
12560,2022,07,26,05,00,AAXX 26051 12560 42781 73601 10198 20137 39761 40085 55003 8257/==
12560,2022,07,26,06,00,AAXX 26061 12560 12780 72203 10211 20145 39769 40092 53009 60002 8537/ 333 10254 20181 30016 55145==
12560,2022,07,26,07,00,AAXX 26071 12560 42570 72605 10212 20164 39779 40102 53022 83138 333 91010 90710 91110==
12560,2022,07,26,08,00,AAXX 26081 12560 42465 82703 10200 20172 39791 40116 53030 889// 333 86611 90710 91112==
12560,2022,07,26,09,00,AAXX 26091 12560 41465 83002 10199 20175 39795 40120 51026 72522 889// 333 86610 91008 90730 91112==
12560,2022,07,26,10,00,AAXX 26101 12560 41465 82702 10203 20175 39804 40129 52025 78022 889// 333 86612 90710 91108==
12560,2022,07,26,11,00,AAXX 26111 12560 41365 82604 10190 20170 39809 40135 52018 78088 889// 333 85708==
12560,2022,07,26,12,00,AAXX 26121 12560 11358 82902 10181 20171 39808 40135 50013 60051 78082 889// 333 84708 90760 91112==
12560,2022,07,26,13,00,AAXX 26131 12560 41360 82802 10182 20164 39812 40139 52008 76188 8477/ 333 84709==
12560,2022,07,26,14,00,AAXX 26141 12560 41465 82901 10184 20162 39812 40139 51003 76166 8587/ 333 81816==
12560,2022,07,26,15,00,AAXX 26151 12560 41465 82202 10185 20168 39815 40142 52007 76188 8587/ 333 81815==
12560,2022,07,26,16,00,AAXX 26161 12560 41470 71903 10189 20169 39812 40139 50000 72122 8487/ 333 83815==
12560,2022,07,26,17,00,AAXX 26171 12560 42470 61802 10184 20166 39812 40139 54000 84238 333 84814==
12560,2022,07,26,18,00,AAXX 26181 12560 11565 71803 10178 20167 39812 40140 56003 60062 70186 8355/ 333 10222 20178==
12560,2022,07,26,19,00,AAXX 26191 12560 42/60 52002 10165 20155 39814 40144 53002 82038==
12560,2022,07,26,20,00,AAXX 26201 12560 42960 32101 10159 20153 39817 40147 53005 80002==
12560,2022,07,26,21,00,AAXX 26211 12560 47/04 /1801 10151 20146 39818 40149 52006 734//==
12560,2022,07,26,22,00,AAXX 26221 12560 47/06 /1401 10140 20137 39820 40153 52006 731//==
12560,2022,07,26,23,00,AAXX 26231 12560 47/50 /0000 10137 20134 39820 40153 51003 720//==
12560,2022,07,27,00,00,AAXX 27001 12560 17/19 /1501 10129 20126 39820 40154 51002 60001 720// 333 91203 91301 93000=
12560,2022,07,27,01,00,AAXX 27011 12560 47/50 /0000 10131 20128 39821 40155 53001 710//==
12560,2022,07,27,02,00,AAXX 27021 12560 47/49 /1801 10123 20120 39822 40157 53002 731//==
12560,2022,07,27,03,00,AAXX 27031 12560 47/14 /2201 10124 20121 39826 40161 53006 720//==
12560,2022,07,27,04,00,AAXX 27041 12560 47/45 /3101 10136 20134 39827 40160 52006 720//==
12560,2022,07,27,05,00,AAXX 27051 12560 42365 23201 10160 20154 39829 40160 51007 81630 333 81707==
12560,2022,07,27,06,00,AAXX 27061 12560 12470 70402 10168 20144 39832 40162 53006 69912 8625/ 333 10178 20118 31010 55013 70060 86811==
12560,2022,07,27,07,00,AAXX 27071 12560 42470 71301 10176 20147 39835 40164 52008 8523/ 333 85812==
12560,2022,07,27,08,00,AAXX 27081 12560 42465 72002 10177 20155 39838 40167 52009 8623/ 333 86816==
12560,2022,07,27,09,00,AAXX 27091 12560 42465 71702 10183 20157 39838 40166 51006 8523/ 333 85811==
12560,2022,07,27,10,00,AAXX 27101 12560 42465 71901 10190 20159 39836 40163 50001 8423/ 333 84815==
12560,2022,07,27,11,00,AAXX 27111 12560 42570 61301 10211 20154 39835 40160 58003 81230==
12560,2022,07,27,12,00,AAXX 27121 12560 12581 62402 10220 20149 39833 40157 57005 60001 83238==
12566,2022,07,25,06,00,AAXX 25061 12566 12984 20601 10180 20124 39902 40187 58005 60002 80001 333 10233 20113 31009 91202 96122 93000=
12566,2022,07,25,07,00,AAXX 25071 12566 42984 31001 10207 20129 39897 40179 57010 80002==
12566,2022,07,25,08,00,AAXX 25081 12566 42984 51501 10229 20134 39895 40175 57009 80002==
12566,2022,07,25,09,00,AAXX 25091 12566 42984 60902 10241 20104 39891 40169 57011 80002==
12566,2022,07,25,10,00,AAXX 25101 12566 42984 60301 10250 20112 39888 40166 57009 80002==
12566,2022,07,25,11,00,AAXX 25111 12566 42984 53602 10257 20118 39882 40159 57013 80002==
12566,2022,07,25,12,00,AAXX 25121 12566 12984 21502 10269 20101 39874 40149 58017 60001 80002==
12566,2022,07,25,13,00,AAXX 25131 12566 42984 12302 10277 20095 39868 40142 57020 80001==
12566,2022,07,25,14,00,AAXX 25141 12566 42984 12301 10284 20086 39861 40135 57021 80001==
12566,2022,07,25,15,00,AAXX 25151 12566 42984 00102 10281 20084 39853 40127 58021==
12566,2022,07,25,16,00,AAXX 25161 12566 42984 00502 10284 20091 39847 40120 57021==
12566,2022,07,25,17,00,AAXX 25171 12566 42984 00703 10277 20108 39844 40118 56017==
12566,2022,07,25,18,00,AAXX 25181 12566 12984 00703 10256 20121 39841 40117 56012 60002 333 10288 20180==
12566,2022,07,25,19,00,AAXX 25191 12566 42984 00202 10229 20122 39839 40117 57008==
12566,2022,07,25,20,00,AAXX 25201 12566 42984 00103 10202 20124 39836 40117 57008==
12566,2022,07,25,21,00,AAXX 25211 12566 42984 03603 10197 20117 39834 40115 57007==
12566,2022,07,25,22,00,AAXX 25221 12566 42982 00102 10183 20121 39834 40116 56005==
12566,2022,07,25,23,00,AAXX 25231 12566 42983 00102 10171 20124 39828 40111 58008==
12566,2022,07,26,00,00,AAXX 26001 12566 12982 10102 10164 20120 39826 40110 58008 60001 80002==
12566,2022,07,26,01,00,AAXX 26011 12566 42982 20000 10155 20119 39822 40107 57012 80002==
12566,2022,07,26,02,00,AAXX 26021 12566 42982 60201 10146 20117 39816 40102 58012 80002==
12566,2022,07,26,03,00,AAXX 26031 12566 42982 60202 10149 20120 39812 40097 57014 80002==
12566,2022,07,26,04,00,AAXX 26041 12566 42982 70302 10153 20128 39807 40092 57015 80006==
12566,2022,07,26,05,00,AAXX 26051 12566 42782 60602 10178 20141 39807 40089 56009 81208==
12566,2022,07,26,06,00,AAXX 26061 12566 12782 60701 10216 20147 39810 40089 55002 60002 83238 333 10256 20145 30012==
12566,2022,07,26,07,00,AAXX 26071 12566 42/82 52307 10247 20153 39815 40091 53008 81038==
12566,2022,07,26,08,00,AAXX 26081 12566 42782 52610 10258 20166 39823 40098 53016 81208==
12566,2022,07,26,09,00,AAXX 26091 12566 42684 72409 10224 20171 39834 40112 53024 83236==
12566,2022,07,26,10,00,AAXX 26101 12566 42584 72508 10225 20168 39841 40120 52026 83838==
12566,2022,07,26,11,00,AAXX 26111 12566 42582 72707 10208 20166 39848 40128 51025 878//==
12566,2022,07,26,12,00,AAXX 26121 12566 11470 82503 10207 20175 39848 40129 51014 69901 72582 875//==
12566,2022,07,26,13,00,AAXX 26131 12566 41460 82904 10198 20179 39847 40128 50006 78082 879//==
12566,2022,07,26,14,00,AAXX 26141 12566 41460 82704 10185 20163 39855 40138 53007 78088 879// 333 83915==
12566,2022,07,26,15,00,AAXX 26151 12566 41470 82203 10187 20172 39857 40140 53009 72582 8257/ 333 82610==
12566,2022,07,26,16,00,AAXX 26161 12566 42375 82504 10188 20168 39859 40142 51012 8257/ 333 81708 82612==
12566,2022,07,26,17,00,AAXX 26171 12566 42370 72103 10185 20170 39858 40141 50003 8167/ 333 81709==
12566,2022,07,26,18,00,AAXX 26181 12566 11365 72204 10179 20166 39860 40144 52003 60032 70382 82636 333 10258 20179 82709==
12566,2022,07,26,19,00,AAXX 26191 12566 42/65 72203 10172 20159 39861 40145 53002 83038==
12566,2022,07,26,20,00,AAXX 26201 12566 41/58 72503 10160 20150 39861 40147 51003 71022 82038==
12566,2022,07,26,21,00,AAXX 26211 12566 42/65 32001 10158 20145 39863 40149 52003 82032==
12566,2022,07,26,22,00,AAXX 26221 12566 41958 12202 10155 20145 39866 40152 53005 71200 80002==
12566,2022,07,26,23,00,AAXX 26231 12566 41956 12302 10143 20135 39865 40152 50004 71200 80002==
12566,2022,07,27,00,00,AAXX 27001 12566 11950 02003 10144 20138 39867 40154 52004 60001 71211==
12566,2022,07,27,01,00,AAXX 27011 12566 41904 02002 10132 20127 39866 40155 54000 74740==
12566,2022,07,27,02,00,AAXX 27021 12566 41/30 12201 10122 20117 39867 40157 52002 72800 81030==
12566,2022,07,27,03,00,AAXX 27031 12566 41/56 22302 10124 20119 39869 40158 53002 71040 82030==
12566,2022,07,27,04,00,AAXX 27041 12566 41/57 22103 10130 20125 39872 40161 53006 71000 82030==
12566,2022,07,27,05,00,AAXX 27051 12566 42/60 21702 10146 20141 39873 40160 52006 81031==
12566,2022,07,27,06,00,AAXX 27061 12566 11360 71903 10158 20145 39877 40163 52008 60002 70341 876// 333 10179 20117 31011 70033 87707==
12566,2022,07,27,07,00,AAXX 27071 12566 41458 72204 10164 20149 39880 40166 52008 71022 875// 333 87610==
12566,2022,07,27,08,00,AAXX 27081 12566 42465 62004 10176 20150 39884 40169 52011 83550 333 83612==
12566,2022,07,27,09,00,AAXX 27091 12566 42470 62002 10196 20155 39883 40166 50006 82550 333 82615==
12566,2022,07,27,10,00,AAXX 27101 12566 42575 62502 10206 20156 39881 40163 50001 82230==
12566,2022,07,27,11,00,AAXX 27111 12566 42581 71502 10226 20149 39880 40160 57004 8325/==
12566,2022,07,27,12,00,AAXX 27121 12566 12581 61902 10232 20142 39875 40154 58008 60001 82232==
12570,2022,07,25,06,00,AAXX 25061 12570 11981 41301 10190 20125 39882 40188 58003 60002 700// 80008 333 10218 20098 30009 55117 91201 93000=
12570,2022,07,25,07,00,AAXX 25071 12570 42682 61602 10206 20112 39877 40182 58008 81106==
12570,2022,07,25,08,00,AAXX 25081 12570 42682 71201 10227 20123 39873 40175 58010 81106==
12570,2022,07,25,09,00,AAXX 25091 12570 42683 72302 10236 20129 39870 40171 56012 82208==
12570,2022,07,25,10,00,AAXX 25101 12570 42782 72202 10249 20111 39865 40165 57012 81108==
12570,2022,07,25,11,00,AAXX 25111 12570 42782 71403 10255 20101 39860 40159 57013 81108==
12570,2022,07,25,12,00,AAXX 25121 12570 12882 72202 10273 20109 39853 40150 57017 60001 81108==
12570,2022,07,25,13,00,AAXX 25131 12570 42883 31802 10271 20103 39847 40144 57018 81108==
12570,2022,07,25,14,00,AAXX 25141 12570 42882 11503 10277 20108 39842 40138 56018 81102==
12570,2022,07,25,15,00,AAXX 25151 12570 42982 11902 10278 20105 39835 40131 57018 80001==
12570,2022,07,25,16,00,AAXX 25161 12570 42983 01902 10275 20098 39830 40126 57017==
12570,2022,07,25,17,00,AAXX 25171 12570 42984 01602 10268 20109 39826 40123 56016==
12570,2022,07,25,18,00,AAXX 25181 12570 12984 01503 10247 20113 39824 40123 56011 60002 333 10281 20189==
12570,2022,07,25,19,00,AAXX 25191 12570 45/84 /1402 10221 20115 39821 40122 57009==
12570,2022,07,25,20,00,AAXX 25201 12570 45/84 /0601 10194 20117 39819 40123 57007==
12570,2022,07,25,21,00,AAXX 25211 12570 45/81 /0802 10177 20117 39818 40124 56006==
12570,2022,07,25,22,00,AAXX 25221 12570 45/82 /0501 10169 20114 39818 40125 56003==
12570,2022,07,25,23,00,AAXX 25231 12570 45/83 /0901 10165 20116 39813 40120 58006==
12570,2022,07,26,00,00,AAXX 26001 12570 15/83 /0702 10165 20123 39806 40113 58012 60001==
12570,2022,07,26,01,00,AAXX 26011 12570 45/83 /0601 10155 20119 39803 40111 57015==
12570,2022,07,26,02,00,AAXX 26021 12570 45/84 /0702 10157 20119 39796 40103 57017==
12570,2022,07,26,03,00,AAXX 26031 12570 45/84 /0801 10158 20120 39793 40100 57013==
12570,2022,07,26,04,00,AAXX 26041 12570 45/81 /0601 10158 20120 39789 40096 56014==
12570,2022,07,26,05,00,AAXX 26051 12570 45/83 /1101 10197 20132 39786 40089 57010==
12570,2022,07,26,06,00,AAXX 26061 12570 12/81 71402 10217 20136 39785 40086 56008 60002 81088 333 10247 20152 30013 55144==
12570,2022,07,26,07,00,AAXX 26071 12570 42/81 71602 10231 20138 39783 40082 57006 83088==
12570,2022,07,26,08,00,AAXX 26081 12570 42/80 72302 10260 20141 39785 40081 55001 82088==
12570,2022,07,26,09,00,AAXX 26091 12570 42/80 72703 10266 20147 39788 40084 53003 81048==
12570,2022,07,26,10,00,AAXX 26101 12570 42/79 73004 10255 20149 39795 40092 53012 81038==
12570,2022,07,26,11,00,AAXX 26111 12570 42580 73004 10253 20138 39799 40096 52014 8135/ 333 91010 90710 91110==
12570,2022,07,26,12,00,AAXX 26121 12570 11581 83005 10223 20144 39805 40106 52017 69901 78022 8237/ 333 91010 90760 91110==
12570,2022,07,26,13,00,AAXX 26131 12570 41558 83101 10193 20174 39815 40119 53020 78188 889// 333 90710 91110==
12570,2022,07,26,14,00,AAXX 26141 12570 41457 83106 10191 20176 39817 40121 51018 76388 8552/ 333 85616==
12570,2022,07,26,15,00,AAXX 26151 12570 41665 83206 10184 20160 39817 40122 51012 76188 8452/ 333 90730 91110==
12570,2022,07,26,16,00,AAXX 26161 12570 41474 82902 10180 20165 39822 40128 53007 76166 8357/ 333 83616==
12570,2022,07,26,17,00,AAXX 26171 12570 41/80 72901 10180 20163 39823 40129 53006 76066 8707/==
12570,2022,07,26,18,00,AAXX 26181 12570 11/70 72602 10181 20163 39827 40133 52010 60042 72186 8707/ 333 10273 20179 90760 91110==
12570,2022,07,26,19,00,AAXX 26191 12570 47957 /2001 10170 20159 39828 40135 52006 710//==
12570,2022,07,26,20,00,AAXX 26201 12570 47933 /0000 10165 20157 39829 40136 51006 710//==
12570,2022,07,26,21,00,AAXX 26211 12570 47932 /2401 10163 20155 39831 40139 52004 710//==
12570,2022,07,26,22,00,AAXX 26221 12570 47123 /0000 10163 20157 39833 40141 52005 720//==
12570,2022,07,26,23,00,AAXX 26231 12570 47225 /2801 10165 20159 39833 40141 51004 710//==
12570,2022,07,27,00,00,AAXX 27001 12570 17222 /3301 10156 20150 39834 40143 52003 60001 710//==
12570,2022,07,27,01,00,AAXX 27011 12570 47337 /2801 10162 20154 39834 40142 52001 710//==
12570,2022,07,27,02,00,AAXX 27021 12570 47340 /3001 10162 20152 39835 40143 52002 710//==
12570,2022,07,27,03,00,AAXX 27031 12570 47935 /3002 10156 20148 39835 40144 52001 710//==
12570,2022,07,27,04,00,AAXX 27041 12570 47957 /3203 10160 20147 39840 40148 53006 710//==
12570,2022,07,27,05,00,AAXX 27051 12570 45971 /3503 10161 20139 39842 40150 53007==
12570,2022,07,27,06,00,AAXX 27061 12570 12480 23503 10176 20131 39846 40153 52011 60002 81231 333 10181 20155 30015 55063 70043==
12570,2022,07,27,07,00,AAXX 27071 12570 42582 20203 10190 20125 39847 40152 52007 81201==
12570,2022,07,27,08,00,AAXX 27081 12570 42582 33203 10196 20116 39852 40157 52010 82202==
12570,2022,07,27,09,00,AAXX 27091 12570 42683 43502 10201 20116 39855 40159 52009 84201==
12570,2022,07,27,10,00,AAXX 27101 12570 42683 52901 10216 20119 39854 40157 50007 84231==
12570,2022,07,27,11,00,AAXX 27111 12570 42683 53303 10216 20107 39852 40155 50000 83251==
12570,2022,07,27,12,00,AAXX 27121 12570 12783 63002 10226 20113 39853 40155 55002 60001 85232==
12575,2022,07,25,06,00,AAXX 25061 12575 11975 10000 10199 20138 39940 40187 58004 60002 700// 80001 333 10227 20117 31011 55094 91201 96122 93000=
12575,2022,07,25,07,00,AAXX 25071 12575 42975 21501 10221 20126 39937 40182 57008 80001==
12575,2022,07,25,08,00,AAXX 25081 12575 42673 51301 10233 20126 39933 40177 57010 81102==
12575,2022,07,25,09,00,AAXX 25091 12575 42777 51401 10245 20114 39931 40174 57009 81102==
12575,2022,07,25,10,00,AAXX 25101 12575 42970 60901 10255 20116 39926 40168 57011 80002==
12575,2022,07,25,11,00,AAXX 25111 12575 42980 61402 10266 20099 39919 40160 58014 80002==
12575,2022,07,25,12,00,AAXX 25121 12575 12975 53601 10271 20112 39913 40153 57018 60001 80002==
12575,2022,07,25,13,00,AAXX 25131 12575 42978 33501 10278 20105 39906 40145 57020 80001==
12575,2022,07,25,14,00,AAXX 25141 12575 45/80 /0802 10283 20100 39900 40139 57019==
12575,2022,07,25,15,00,AAXX 25151 12575 45/73 /1002 10287 20099 39894 40132 57019==
12575,2022,07,25,16,00,AAXX 25161 12575 45/76 /0702 10286 20103 39887 40125 57019==
12575,2022,07,25,17,00,AAXX 25171 12575 45/79 /0902 10277 20100 39884 40123 56016==
12575,2022,07,25,18,00,AAXX 25181 12575 15/76 /1001 10252 20117 39882 40123 56012 60002 333 10292 20199 91202 91301 93000=
12575,2022,07,25,19,00,AAXX 25191 12575 45/72 /0901 10227 20126 39881 40124 56006==
12575,2022,07,25,20,00,AAXX 25201 12575 45/75 /1201 10213 20127 39876 40120 58008==
12575,2022,07,25,21,00,AAXX 25211 12575 45/80 /1201 10197 20122 39875 40120 57007==
12575,2022,07,25,22,00,AAXX 25221 12575 45/80 /1301 10196 20128 39874 40119 56007==
12575,2022,07,25,23,00,AAXX 25231 12575 45/80 /1201 10194 20131 39868 40113 58008==
12575,2022,07,26,00,00,AAXX 26001 12575 15/77 /0901 10183 20129 39862 40108 58013 60001==
12575,2022,07,26,01,00,AAXX 26011 12575 45/77 /1401 10172 20127 39859 40106 56015==
12575,2022,07,26,02,00,AAXX 26021 12575 45/80 /0000 10158 20122 39855 40103 57013==
12575,2022,07,26,03,00,AAXX 26031 12575 45/79 /0000 10153 20119 39850 40098 58012==
12575,2022,07,26,04,00,AAXX 26041 12575 45/73 /0000 10156 20125 39845 40093 57014==
12575,2022,07,26,05,00,AAXX 26051 12575 45/76 /0000 10187 20142 39844 40089 56011==
12575,2022,07,26,06,00,AAXX 26061 12575 12972 60000 10225 20143 39846 40088 55004 60002 80008 333 10252 20150 31014 55136==
12575,2022,07,26,07,00,AAXX 26071 12575 42670 61801 10257 20145 39844 40083 57001 81208==
12575,2022,07,26,08,00,AAXX 26081 12575 42775 52802 10281 20143 39847 40085 52003 81202==
12575,2022,07,26,09,00,AAXX 26091 12575 42770 62703 10286 20155 39852 40089 53006 81232 333 90730 91108==
12575,2022,07,26,10,00,AAXX 26101 12575 42670 72603 10266 20162 39858 40097 53014 8227/ 333 90710 91110==
12575,2022,07,26,11,00,AAXX 26111 12575 42565 72604 10250 20175 39866 40107 53019 8227/ 333 91009 90710 91109==
12575,2022,07,26,12,00,AAXX 26121 12575 12565 72702 10234 20174 39872 40114 52020 60001 8487/ 333 91008 90760 91110==
12575,2022,07,26,13,00,AAXX 26131 12575 41460 82902 10208 20184 39873 40117 51015 78182 8537/ 333 90710 91108==
12575,2022,07,26,14,00,AAXX 26141 12575 47/56 /3101 10207 20192 39879 40123 52013 761//==
12575,2022,07,26,15,00,AAXX 26151 12575 47/57 /3201 10204 20187 39881 40126 52009 781// 333 90730 91108==
12575,2022,07,26,16,00,AAXX 26161 12575 47/58 /3302 10180 20162 39887 40134 52014 762// 333 91007 90710 91107==
12575,2022,07,26,17,00,AAXX 26171 12575 47/64 /2901 10173 20160 39890 40138 52011 761//==
12575,2022,07,26,18,00,AAXX 26181 12575 17/60 /2701 10173 20163 39892 40140 51011 60032 761// 333 10293 20173 90760 91108==
12575,2022,07,26,19,00,AAXX 26191 12575 47/57 /0000 10172 20161 39894 40142 52007 723//==
12575,2022,07,26,20,00,AAXX 26201 12575 47/50 /2601 10171 20163 39893 40141 50003 710//==
12575,2022,07,26,21,00,AAXX 26211 12575 47/34 /0000 10167 20159 39895 40143 52003 710//==
12575,2022,07,26,22,00,AAXX 26221 12575 47/27 /0000 10163 20155 39897 40146 53003 710//==
12575,2022,07,26,23,00,AAXX 26231 12575 47/25 /0000 10160 20152 39897 40146 51004 710//==
12575,2022,07,27,00,00,AAXX 27001 12575 17/31 /2601 10155 20149 39898 40147 52003 69921 710//==
12575,2022,07,27,01,00,AAXX 27011 12575 47/28 /0000 10147 20139 39898 40148 52001 710//==
12575,2022,07,27,02,00,AAXX 27021 12575 47/48 /2601 10143 20137 39899 40150 52002 710//==
12575,2022,07,27,03,00,AAXX 27031 12575 47/23 /0000 10133 20125 39898 40149 54000 710//==
12575,2022,07,27,04,00,AAXX 27041 12575 45/61 /2701 10139 20134 39904 40155 53006==
12575,2022,07,27,05,00,AAXX 27051 12575 45/61 /2601 10156 20145 39904 40153 51005==
12575,2022,07,27,06,00,AAXX 27061 12575 15/62 /2901 10167 20151 39908 40157 52010 69932 333 10174 20131 3/012 55054 70034==
12575,2022,07,27,07,00,AAXX 27071 12575 45/61 /3502 10177 20153 39910 40158 53006==
12575,2022,07,27,08,00,AAXX 27081 12575 45/62 /3002 10184 20153 39914 40161 52010==
12575,2022,07,27,09,00,AAXX 27091 12575 45/66 /3201 10210 20168 39916 40161 52008==
12575,2022,07,27,10,00,AAXX 27101 12575 45/68 /3201 10218 20154 39915 40159 50005==
12575,2022,07,27,11,00,AAXX 27111 12575 45/71 /2902 10236 20154 39912 40155 58002==
12575,2022,07,27,12,00,AAXX 27121 12575 15/72 /3101 10235 20150 39910 40153 57006 60001==
12580,2022,07,25,06,00,AAXX 25061 12580 12980 11701 10192 20138 39932 40187 58003 60002 80001 333 10221 20115 31011 91202 93000=
12580,2022,07,25,07,00,AAXX 25071 12580 42680 11002 10210 20137 39930 40184 57006 81101==
12580,2022,07,25,08,00,AAXX 25081 12580 42680 30602 10221 20132 39927 40180 57007 81101==
12580,2022,07,25,09,00,AAXX 25091 12580 42680 31301 10233 20126 39923 40174 57009 81101==
12580,2022,07,25,10,00,AAXX 25101 12580 42780 30501 10240 20126 39920 40171 57010 81101==
12580,2022,07,25,11,00,AAXX 25111 12580 42780 41303 10247 20123 39913 40163 57014 81101 333 90710 91107==
12580,2022,07,25,12,00,AAXX 25121 12580 12780 51302 10263 20131 39908 40157 57015 60001 81102 333 90760 91107==
12580,2022,07,25,13,00,AAXX 25131 12580 42780 51101 10262 20119 39902 40150 57018 81102==
12580,2022,07,25,14,00,AAXX 25141 12580 42880 31003 10264 20121 39896 40144 57017 81102==
12580,2022,07,25,15,00,AAXX 25151 12580 42980 11002 10269 20110 39891 40139 57017 80002==
12580,2022,07,25,16,00,AAXX 25161 12580 42980 11102 10266 20115 39885 40133 57017 80002==
12580,2022,07,25,17,00,AAXX 25171 12580 42980 01102 10260 20114 39881 40129 57015==
12580,2022,07,25,18,00,AAXX 25181 12580 12980 00902 10248 20103 39879 40128 56012 60002 333 10276 20192==
12580,2022,07,25,19,00,AAXX 25191 12580 42980 00402 10211 20122 39879 40131 56006==
12580,2022,07,25,20,00,AAXX 25201 12580 42980 00702 10195 20130 39876 40130 57005==
12580,2022,07,25,21,00,AAXX 25211 12580 42980 00702 10181 20130 39874 40129 58005 333 90730 91107==
12580,2022,07,25,22,00,AAXX 25221 12580 42980 00602 10169 20130 39874 40130 56005==
12580,2022,07,25,23,00,AAXX 25231 12580 42980 00501 10161 20130 39869 40125 57007==
12580,2022,07,26,00,00,AAXX 26001 12580 12980 00801 10148 20125 39863 40120 58011 60001 333 90760 91107==
12580,2022,07,26,01,00,AAXX 26011 12580 42980 00702 10148 20128 39856 40113 57018==
12580,2022,07,26,02,00,AAXX 26021 12580 42980 00702 10145 20129 39853 40110 57016==
12580,2022,07,26,03,00,AAXX 26031 12580 42980 31002 10136 20125 39849 40107 57014 80002==
12580,2022,07,26,04,00,AAXX 26041 12580 42980 60903 10150 20135 39844 40101 57012 80002==
12580,2022,07,26,05,00,AAXX 26051 12580 42980 60902 10169 20145 39841 40096 57012 80002==
12580,2022,07,26,06,00,AAXX 26061 12580 12980 61001 10201 20147 39842 40094 55007 60002 80002 333 10248 20134 31013==
12580,2022,07,26,07,00,AAXX 26071 12580 42980 61601 10236 20149 39841 40090 58003 80002==
12580,2022,07,26,08,00,AAXX 26081 12580 42980 61501 10259 20131 39839 40086 58002 80002==
12580,2022,07,26,09,00,AAXX 26091 12580 42/80 52402 10283 20134 39841 40086 55001 81032==
12580,2022,07,26,10,00,AAXX 26101 12580 42/80 52505 10301 20142 39840 40084 58001 81032==
12580,2022,07,26,11,00,AAXX 26111 12580 42780 62607 10298 20155 39841 40085 53002 81232==
12580,2022,07,26,12,00,AAXX 26121 12580 12780 62510 10285 20154 39842 40087 53001 60001 81232==
12580,2022,07,26,13,00,AAXX 26131 12580 42780 72609 10271 20173 39845 40091 52005 82232==
12580,2022,07,26,14,00,AAXX 26141 12580 42780 72511 10242 20174 39854 40103 53013 8225/==
12580,2022,07,26,15,00,AAXX 26151 12580 41540 72707 10200 20190 39861 40114 53019 78122 8437/==
12580,2022,07,26,16,00,AAXX 26161 12580 41360 72805 10197 20187 39865 40118 51020 78088 8437/ 333 84908==
12580,2022,07,26,17,00,AAXX 26171 12580 41260 72704 10198 20188 39867 40120 51013 78088 8437/ 333 84906==
12580,2022,07,26,18,00,AAXX 26181 12580 11156 82805 10189 20181 39871 40125 52010 60022 78082 879// 333 10305 20189 87903==
12580,2022,07,26,19,00,AAXX 26191 12580 41580 82805 10182 20172 39877 40132 53012 72582 873//==
12580,2022,07,26,20,00,AAXX 26201 12580 41670 82703 10175 20164 39876 40131 50009 78022 8397/==
12580,2022,07,26,21,00,AAXX 26211 12580 41365 82604 10171 20163 39880 40136 53009 78082 8497/ 333 84907==
12580,2022,07,26,22,00,AAXX 26221 12580 41370 72704 10168 20160 39881 40137 53004 72582 8277/ 333 82707==
12580,2022,07,26,23,00,AAXX 26231 12580 42/65 72603 10159 20153 39882 40139 51006 8707/==
12580,2022,07,27,00,00,AAXX 27001 12580 11250 52201 10152 20147 39883 40141 52003 60001 71082 85600 333 85704==
12580,2022,07,27,01,00,AAXX 27011 12580 41145 82604 10156 20151 39884 40141 52003 71022 886// 333 88703==
12580,2022,07,27,02,00,AAXX 27021 12580 41245 72604 10151 20148 39882 40140 50000 71022 876// 333 87705==
12580,2022,07,27,03,00,AAXX 27031 12580 41240 62603 10150 20145 39883 40141 55000 71022 86500 333 83705==
12580,2022,07,27,04,00,AAXX 27041 12580 41256 22202 10149 20144 39887 40145 53003 71011 82600==
12580,2022,07,27,05,00,AAXX 27051 12580 41258 72803 10155 20147 39891 40149 53009 71011 876// 333 87706==
12580,2022,07,27,06,00,AAXX 27061 12580 11257 82703 10158 20150 39893 40150 52010 60002 71011 886// 333 10189 20146 31013 70021 88705==
12580,2022,07,27,07,00,AAXX 27071 12580 41257 82802 10165 20154 39896 40153 52009 71022 886// 333 88706==
12580,2022,07,27,08,00,AAXX 27081 12580 41358 82603 10170 20155 39898 40154 52007 71022 886// 333 88707==
12580,2022,07,27,09,00,AAXX 27091 12580 42360 82603 10178 20151 39906 40162 52013 886// 333 88709==
12580,2022,07,27,10,00,AAXX 27101 12580 42470 63002 10207 20157 39905 40158 50009 86200 333 86816==
12580,2022,07,27,11,00,AAXX 27111 12580 42580 62903 10223 20152 39903 40155 50005 86200==
12580,2022,07,27,12,00,AAXX 27121 12580 12680 63203 10238 20142 39900 40150 57006 60001 86200==
12585,2022,07,25,06,00,AAXX 25061 12585 11978 10201 10188 20141 39931 40188 55001 60002 700// 80001 333 10210 20135 30012 55105 91203 96122 93000=
12585,2022,07,25,07,00,AAXX 25071 12585 42980 20501 10204 20145 39927 40183 57005 81101==
12585,2022,07,25,08,00,AAXX 25081 12585 42582 43401 10205 20144 39924 40180 58006 81205==
12585,2022,07,25,09,00,AAXX 25091 12585 42581 71401 10219 20135 39921 40175 57010 81208==
12585,2022,07,25,10,00,AAXX 25101 12585 42674 71902 10227 20140 39918 40172 57009 81208==
12585,2022,07,25,11,00,AAXX 25111 12585 42682 72302 10235 20137 39913 40166 57011 81102==
12585,2022,07,25,12,00,AAXX 25121 12585 12681 72402 10244 20124 39908 40160 57013 60001 81102==
12585,2022,07,25,13,00,AAXX 25131 12585 42676 52102 10251 20130 39900 40151 58018 81102==
12585,2022,07,25,14,00,AAXX 25141 12585 45/82 /0101 10258 20136 39896 40146 57017==
12585,2022,07,25,15,00,AAXX 25151 12585 45/81 /0201 10259 20134 39890 40140 57018==
12585,2022,07,25,16,00,AAXX 25161 12585 45/82 /1201 10258 20119 39883 40133 58017==
12585,2022,07,25,17,00,AAXX 25171 12585 45/81 /0902 10254 20116 39880 40130 56016==
12585,2022,07,25,18,00,AAXX 25181 12585 15/60 /0501 10244 20120 39876 40127 56014 60002 333 10263 20184 91202 91301 93000=
12585,2022,07,25,19,00,AAXX 25191 12585 45/84 /1102 10226 20110 39875 40128 57008==
12585,2022,07,25,20,00,AAXX 25201 12585 45/84 /1202 10223 20117 39871 40124 57009==
12585,2022,07,25,21,00,AAXX 25211 12585 45/84 /1302 10214 20114 39869 40123 57007==
12585,2022,07,25,22,00,AAXX 25221 12585 45/84 /1502 10202 20122 39869 40124 56006==
12585,2022,07,25,23,00,AAXX 25231 12585 45/82 /1503 10192 20125 39865 40120 57006==
12585,2022,07,26,00,00,AAXX 26001 12585 15/83 /1102 10184 20124 39859 40115 58010 60001==
12585,2022,07,26,01,00,AAXX 26011 12585 45/77 /0802 10163 20130 39853 40111 57016==
12585,2022,07,26,02,00,AAXX 26021 12585 45/77 /1003 10158 20127 39852 40110 56013==
12585,2022,07,26,03,00,AAXX 26031 12585 45/80 /0902 10154 20127 39845 40103 57014==
12585,2022,07,26,04,00,AAXX 26041 12585 45/80 /1003 10161 20128 39840 40098 58013==
12585,2022,07,26,05,00,AAXX 26051 12585 45/80 /1102 10182 20139 39837 40093 56015==
12585,2022,07,26,06,00,AAXX 26061 12585 15/80 /1602 10196 20146 39839 40093 55006 60002 333 10244 20153 3/014 55144==
12585,2022,07,26,07,00,AAXX 26071 12585 45/81 /1502 10219 20145 39834 40086 57006==
12585,2022,07,26,08,00,AAXX 26081 12585 45/80 /1802 10235 20155 39833 40084 58004==
12585,2022,07,26,09,00,AAXX 26091 12585 45/80 /1803 10246 20163 39836 40086 55003==
12585,2022,07,26,10,00,AAXX 26101 12585 45/79 /2003 10266 20171 39834 40082 54000==
12585,2022,07,26,11,00,AAXX 26111 12585 45879 /1902 10284 20179 39834 40081 51001==
12585,2022,07,26,12,00,AAXX 26121 12585 15880 /2503 10278 20167 39832 40079 57004 60001==
12585,2022,07,26,13,00,AAXX 26131 12585 47771 /2706 10235 20168 39838 40089 53004 761// 333 90710 91109==
12585,2022,07,26,14,00,AAXX 26141 12585 47719 /2905 10196 20172 39849 40104 53015 782// 333 91011 90710 91111==
12585,2022,07,26,15,00,AAXX 26151 12585 47464 /2803 10196 20183 39861 40116 53029 781// 333 90730 91111==
12585,2022,07,26,16,00,AAXX 26161 12585 47460 /3003 10195 20185 39859 40114 50021 781//==
12585,2022,07,26,17,00,AAXX 26171 12585 47976 /3104 10177 20159 39865 40122 51016 752// 333 90710 91111==
12585,2022,07,26,18,00,AAXX 26181 12585 17980 /3103 10173 20156 39869 40126 53008 60052 723// 333 10297 20173 90760 91111==
12585,2022,07,26,19,00,AAXX 26191 12585 45981 /2702 10169 20151 39874 40132 52015==
12585,2022,07,26,20,00,AAXX 26201 12585 45981 /2602 10164 20149 39872 40130 50007==
12585,2022,07,26,21,00,AAXX 26211 12585 45968 /2702 10167 20156 39873 40131 51004==
12585,2022,07,26,22,00,AAXX 26221 12585 47/57 /2503 10165 20159 39877 40135 53003 710//==
12585,2022,07,26,23,00,AAXX 26231 12585 47/48 /2602 10162 20157 39877 40135 51005 710//==
12585,2022,07,27,00,00,AAXX 27001 12585 17748 /2702 10164 20159 39875 40133 50002 69901 710//==
12585,2022,07,27,01,00,AAXX 27011 12585 47/46 /2703 10164 20158 39876 40134 55001 710//==
12585,2022,07,27,02,00,AAXX 27021 12585 47/33 /2502 10159 20153 39875 40134 57002 710//==
12585,2022,07,27,03,00,AAXX 27031 12585 47/23 /2702 10151 20145 39878 40137 52003 710//==
12585,2022,07,27,04,00,AAXX 27041 12585 47/50 /2902 10157 20151 39880 40139 53004 710//==
12585,2022,07,27,05,00,AAXX 27051 12585 47257 /3204 10162 20154 39884 40143 52009 710//==
12585,2022,07,27,06,00,AAXX 27061 12585 11259 83305 10164 20153 39888 40147 52010 69902 710// 886// 333 10173 20149 31015 55081 70048==
12585,2022,07,27,07,00,AAXX 27071 12585 42267 83305 10168 20153 39891 40149 52011 886//==
12585,2022,07,27,08,00,AAXX 27081 12585 42480 53504 10187 20159 39893 40150 51009 85200==
12585,2022,07,27,09,00,AAXX 27091 12585 42580 53304 10207 20150 39900 40155 53012 85200==
12585,2022,07,27,10,00,AAXX 27101 12585 42580 63303 10213 20149 39900 40154 51009 862//==
12585,2022,07,27,11,00,AAXX 27111 12585 42680 63103 10217 20133 39899 40153 50006 85201==
12585,2022,07,27,12,00,AAXX 27121 12585 12676 63102 10227 20129 39899 40152 57001 60001 84208==
12595,2022,07,25,06,00,AAXX 25061 12595 11970 10201 10177 20136 39925 40188 56001 60002 702// 80001 333 10199 20113 31011 70042 91202 93000=
12595,2022,07,25,07,00,AAXX 25071 12595 42570 20000 10199 20131 39922 40183 58003 81101==
12595,2022,07,25,08,00,AAXX 25081 12595 42670 33401 10211 20135 39920 40180 58005 83200==
12595,2022,07,25,09,00,AAXX 25091 12595 42670 43402 10214 20128 39916 40175 57009 83201==
12595,2022,07,25,10,00,AAXX 25101 12595 42670 43202 10227 20135 39912 40170 57010 83201==
12595,2022,07,25,11,00,AAXX 25111 12595 42670 43601 10235 20137 39907 40164 57013 82102==
12595,2022,07,25,12,00,AAXX 25121 12595 12670 43202 10243 20116 39902 40158 57014 60001 82102==
12595,2022,07,25,13,00,AAXX 25131 12595 42670 43302 10251 20133 39897 40153 57015 83102==
12595,2022,07,25,14,00,AAXX 25141 12595 42770 33103 10253 20118 39891 40146 57016 83100==
12595,2022,07,25,15,00,AAXX 25151 12595 42770 22503 10259 20120 39887 40142 57015 82100==
12595,2022,07,25,16,00,AAXX 25161 12595 42770 20301 10257 20115 39883 40138 57014 82100 333 90710 91106==
12595,2022,07,25,17,00,AAXX 25171 12595 42770 12401 10258 20112 39878 40132 57013 81400==
12595,2022,07,25,18,00,AAXX 25181 12595 12970 00901 10239 20137 39876 40132 57011 60002 333 10264 20177 91106 91203 93000=
12595,2022,07,25,19,00,AAXX 25191 12595 45/70 /1301 10205 20135 39876 40135 56007==
12595,2022,07,25,20,00,AAXX 25201 12595 45/70 /1201 10179 20144 39876 40137 56002==
12595,2022,07,25,21,00,AAXX 25211 12595 45/70 /1201 10166 20135 39873 40135 58003==
12595,2022,07,25,22,00,AAXX 25221 12595 45/70 /1102 10167 20130 39873 40135 57003 333 90710 91107==
12595,2022,07,25,23,00,AAXX 25231 12595 45/70 /0000 10160 20129 39871 40134 57005==
12595,2022,07,26,00,00,AAXX 26001 12595 15/70 /1101 10158 20131 39866 40129 58007 60001 333 90760 91107==
12595,2022,07,26,01,00,AAXX 26011 12595 45/70 /1802 10159 20128 39860 40123 58013==
12595,2022,07,26,02,00,AAXX 26021 12595 45/70 /1301 10148 20127 39856 40120 57015==
12595,2022,07,26,03,00,AAXX 26031 12595 45/70 /1002 10139 20125 39857 40122 55009==
12595,2022,07,26,04,00,AAXX 26041 12595 45/70 /0901 10152 20136 39851 40114 57009==
12595,2022,07,26,05,00,AAXX 26051 12595 45/70 /0901 10179 20152 39846 40107 58010==
12595,2022,07,26,06,00,AAXX 26061 12595 12970 21404 10216 20135 39843 40100 56014 60002 80002 333 10239 20136 30012 90760 91107==
12595,2022,07,26,07,00,AAXX 26071 12595 42970 21304 10237 20138 39839 40094 57012 80002==
12595,2022,07,26,08,00,AAXX 26081 12595 42970 21404 10258 20143 39838 40091 57008 80002==
12595,2022,07,26,09,00,AAXX 26091 12595 42970 41503 10272 20152 39835 40087 57008 80002==
12595,2022,07,26,10,00,AAXX 26101 12595 42/70 51503 10285 20147 39834 40085 57005 81032==
12595,2022,07,26,11,00,AAXX 26111 12595 42/70 51403 10291 20137 39829 40079 57009 81032==
12595,2022,07,26,12,00,AAXX 26121 12595 12770 52402 10300 20137 39827 40077 57008 60001 81132==
12595,2022,07,26,13,00,AAXX 26131 12595 42770 62204 10315 20128 39820 40068 57014 82232==
12595,2022,07,26,14,00,AAXX 26141 12595 42770 72002 10300 20137 39820 40069 56009 85202==
12595,2022,07,26,15,00,AAXX 26151 12595 42770 72609 10281 20170 39824 40075 55003 872// 333 91014 90730 91114==
12595,2022,07,26,16,00,AAXX 26161 12595 42663 73011 10230 20163 39839 40095 53019 8537/==
12595,2022,07,26,17,00,AAXX 26171 12595 42670 83006 10203 20163 39848 40106 53028 8537/==
12595,2022,07,26,18,00,AAXX 26181 12595 11570 82705 10192 20168 39853 40113 51029 69902 78022 889// 333 10320 20192 90760 91114==
12595,2022,07,26,19,00,AAXX 26191 12595 47/70 /3205 10187 20174 39854 40114 51015 781//==
12595,2022,07,26,20,00,AAXX 26201 12595 47/56 /2904 10183 20173 39858 40119 52010 761//==
12595,2022,07,26,21,00,AAXX 26211 12595 47/63 /3105 10175 20164 39860 40121 52007 761//==
12595,2022,07,26,22,00,AAXX 26221 12595 47/70 /2804 10164 20151 39865 40127 52011 781//==
12595,2022,07,26,23,00,AAXX 26231 12595 47/70 /2804 10160 20152 39866 40129 52008 761//==
12595,2022,07,27,00,00,AAXX 27001 12595 17/70 /3004 10159 20148 39866 40129 51006 60011 781//==
12595,2022,07,27,01,00,AAXX 27011 12595 45/66 /2803 10152 20142 39866 40130 51001==
12595,2022,07,27,02,00,AAXX 27021 12595 47/58 /2803 10148 20143 39867 40131 53001 710//==
12595,2022,07,27,03,00,AAXX 27031 12595 47/57 /2803 10151 20148 39869 40133 53003 710//==
12595,2022,07,27,04,00,AAXX 27041 12595 47/56 /2803 10160 20157 39871 40134 52005 710//==
12595,2022,07,27,05,00,AAXX 27051 12595 47/57 /2803 10166 20158 39874 40136 52007 710//==
12595,2022,07,27,06,00,AAXX 27061 12595 11359 73004 10170 20155 39879 40141 53010 60022 710// 876// 333 10192 20146 31014 70015==
12595,2022,07,27,07,00,AAXX 27071 12595 42462 72703 10180 20160 39880 40141 52009 875//==
12595,2022,07,27,08,00,AAXX 27081 12595 42464 73004 10187 20158 39884 40145 52010 875//==
12595,2022,07,27,09,00,AAXX 27091 12595 42464 73204 10199 20161 39888 40148 53009 8623/==
12595,2022,07,27,10,00,AAXX 27101 12595 42464 73106 10189 20158 39895 40156 53015 872//==
12595,2022,07,27,11,00,AAXX 27111 12595 42565 52805 10206 20156 39896 40155 51012 85200==
12595,2022,07,27,12,00,AAXX 27121 12595 12670 43004 10215 20153 39890 40148 50002 60001 84200==
12600,2022,07,25,06,00,AAXX 25061 12600 11984 50901 10192 20110 39716 40181 57004 60002 703// 80004 333 10226 20116 30010 55110 91204 96122 93000=
12600,2022,07,25,07,00,AAXX 25071 12600 42984 60702 10205 20111 39712 40174 57008 80001==
12600,2022,07,25,08,00,AAXX 25081 12600 42984 60802 10228 20102 39709 40168 57009 80001==
12600,2022,07,25,09,00,AAXX 25091 12600 42984 60301 10245 20084 39706 40162 57010 80008==
12600,2022,07,25,10,00,AAXX 25101 12600 42984 60101 10255 20093 39703 40157 57009 80008==
12600,2022,07,25,11,00,AAXX 25111 12600 42984 41901 10264 20088 39697 40149 58012 80001==
12600,2022,07,25,12,00,AAXX 25121 12600 12984 43402 10270 20102 39690 40141 58016 60001 80001==
12600,2022,07,25,13,00,AAXX 25131 12600 42984 20801 10277 20108 39684 40134 57019 80001==
12600,2022,07,25,14,00,AAXX 25141 12600 42984 13502 10283 20109 39676 40125 57021 80001==
12600,2022,07,25,15,00,AAXX 25151 12600 42984 00202 10280 20111 39669 40118 57021==
12600,2022,07,25,16,00,AAXX 25161 12600 42984 03603 10279 20114 39664 40113 56020==
12600,2022,07,25,17,00,AAXX 25171 12600 42984 00303 10272 20124 39661 40111 56015==
12600,2022,07,25,18,00,AAXX 25181 12600 12984 00503 10260 20121 39658 40109 56011 60002 333 10286 20191 91204 93000=
12600,2022,07,25,19,00,AAXX 25191 12600 42982 01002 10213 20135 39655 40113 57009==
12600,2022,07,25,20,00,AAXX 25201 12600 42782 11004 10214 20123 39651 40109 58010 81500==
12600,2022,07,25,21,00,AAXX 25211 12600 45/84 /1002 10200 20120 39651 40111 56007==
12600,2022,07,25,22,00,AAXX 25221 12600 45/84 /0902 10186 20123 39650 40113 56005==
12600,2022,07,25,23,00,AAXX 25231 12600 45/84 /1004 10190 20127 39643 40105 58008==
12600,2022,07,26,00,00,AAXX 26001 12600 15/84 /1003 10189 20119 39642 40104 57009 60001==
12600,2022,07,26,01,00,AAXX 26011 12600 45/84 /1303 10204 20113 39637 40096 57013==
12600,2022,07,26,02,00,AAXX 26021 12600 45/84 /1705 10234 20111 39631 40085 58012 333 90710 91108==
12600,2022,07,26,03,00,AAXX 26031 12600 45/84 /1706 10257 20118 39627 40077 57015 333 90730 91108==
12600,2022,07,26,04,00,AAXX 26041 12600 45882 /1807 10258 20126 39622 40072 57015==
12600,2022,07,26,05,00,AAXX 26051 12600 42682 71807 10256 20134 39624 40074 55007 83208 333 90710 91112==
12600,2022,07,26,06,00,AAXX 26061 12600 12682 62506 10247 20136 39639 40091 53012 60002 83208 333 10260 20182 30015 55139 90760 91115==
12600,2022,07,26,07,00,AAXX 26071 12600 42680 62608 10219 20155 39655 40113 53033 83208 333 90710 91115==
12600,2022,07,26,08,00,AAXX 26081 12600 42570 82705 10202 20164 39660 40120 51036 889// 333 91010 90710 91113==
12600,2022,07,26,09,00,AAXX 26091 12600 42470 82505 10192 20162 39667 40129 51028 889// 333 90730 91115==
12600,2022,07,26,10,00,AAXX 26101 12600 41465 82803 10191 20160 39673 40136 52018 78082 889//==
12600,2022,07,26,11,00,AAXX 26111 12600 41457 82403 10180 20168 39676 40141 51016 78088 889//==
12600,2022,07,26,12,00,AAXX 26121 12600 11140 82603 10169 20161 39678 40145 51011 60061 78122 889// 333 90760 91115==
12600,2022,07,26,13,00,AAXX 26131 12600 41456 82404 10162 20154 39683 40151 52010 78088 889//==
12600,2022,07,26,14,00,AAXX 26141 12600 41680 82202 10169 20147 39680 40147 50004 72582 8557/==
12600,2022,07,26,15,00,AAXX 26151 12600 41670 82801 10172 20148 39682 40148 51004 72582 8117/==
12600,2022,07,26,16,00,AAXX 26161 12600 41682 81501 10170 20150 39680 40147 57003 78022 8497/==
12600,2022,07,26,17,00,AAXX 26171 12600 41680 81501 10165 20147 39679 40146 58001 72522 8117/==
12600,2022,07,26,18,00,AAXX 26181 12600 11782 71401 10157 20137 39681 40150 55001 60152 70182 81532 333 10247 20157==
12600,2022,07,26,19,00,AAXX 26191 12600 42784 61103 10155 20132 39680 40149 54000 81532==
12600,2022,07,26,20,00,AAXX 26201 12600 42982 31003 10147 20120 39680 40150 51001 80002==
12600,2022,07,26,21,00,AAXX 26211 12600 45/84 /1102 10136 20109 39682 40154 53001==
12600,2022,07,26,22,00,AAXX 26221 12600 45/82 /1002 10132 20109 39684 40157 53004==
12600,2022,07,26,23,00,AAXX 26231 12600 45/60 /1202 10123 20114 39685 40160 52005==
12600,2022,07,27,00,00,AAXX 27001 12600 15/61 /1202 10119 20111 39686 40162 52004 60001==
12600,2022,07,27,01,00,AAXX 27011 12600 45/63 /1103 10120 20114 39686 40161 51002==
12600,2022,07,27,02,00,AAXX 27021 12600 45/60 /1002 10116 20108 39686 40162 51001==
12600,2022,07,27,03,00,AAXX 27031 12600 47/56 /2201 10111 20105 39691 40168 53005 710//==
12600,2022,07,27,04,00,AAXX 27041 12600 45/83 /2302 10144 20123 39693 40165 53007==
12600,2022,07,27,05,00,AAXX 27051 12600 42460 42601 10148 20133 39694 40165 51008 84500==
12600,2022,07,27,06,00,AAXX 27061 12600 12460 52702 10163 20136 39696 40165 52005 60002 84101 333 10165 20108 31010 55014 70149==
12600,2022,07,27,07,00,AAXX 27071 12600 42462 72802 10173 20138 39700 40167 53007 8623/==
12600,2022,07,27,08,00,AAXX 27081 12600 42565 73202 10182 20137 39700 40166 51006 85231==
12600,2022,07,27,09,00,AAXX 27091 12600 42565 70402 10193 20145 39700 40164 51004 8423/==
12600,2022,07,27,10,00,AAXX 27101 12600 42565 60201 10203 20137 39697 40159 58003 8423/==
12600,2022,07,27,11,00,AAXX 27111 12600 42570 63202 10214 20143 39698 40158 55002 8423/==
12600,2022,07,27,12,00,AAXX 27121 12600 12575 60101 10211 20133 39694 40155 57006 60001 82238==
12625,2022,07,25,06,00,AAXX 25061 12625 11980 13601 10158 20095 39215 42821 58007 60002 703// 80001 333 10184 20089 31008 50213 55065 91201 93000=
12625,2022,07,25,07,00,AAXX 25071 12625 42980 53601 10190 20068 39212 42818 57011 80006==
12625,2022,07,25,08,00,AAXX 25081 12625 42940 60302 10204 20074 39211 42817 56009 80006==
12625,2022,07,25,09,00,AAXX 25091 12625 42982 60102 10216 20104 39208 42814 57007 80008==
12625,2022,07,25,10,00,AAXX 25101 12625 42982 60602 10229 20113 39206 42812 57006 80008==
12625,2022,07,25,11,00,AAXX 25111 12625 42982 63502 10234 20130 39202 42808 57009 80008==
12625,2022,07,25,12,00,AAXX 25121 12625 12782 33502 10238 20098 39198 42804 57010 60001 81101==
12625,2022,07,25,13,00,AAXX 25131 12625 42982 33101 10250 20085 39192 42798 57014 80001==
12625,2022,07,25,14,00,AAXX 25141 12625 42982 30102 10255 20080 39186 42793 57016 80001==
12625,2022,07,25,15,00,AAXX 25151 12625 42982 00702 10258 20078 39182 42789 57016==
12625,2022,07,25,16,00,AAXX 25161 12625 42982 00302 10257 20087 39178 42785 57014==
12625,2022,07,25,17,00,AAXX 25171 12625 42984 00301 10253 20092 39175 42782 57011==
12625,2022,07,25,18,00,AAXX 25181 12625 12984 01502 10218 20093 39174 42782 56008 60002 333 10263 20158==
12625,2022,07,25,19,00,AAXX 25191 12625 45/82 /1701 10185 20098 39172 40135 57006==
12625,2022,07,25,20,00,AAXX 25201 12625 45/80 /1901 10169 20103 39170 40138 57005==
12625,2022,07,25,21,00,AAXX 25211 12625 45/83 /1501 10156 20106 39167 40140 57007==
12625,2022,07,25,22,00,AAXX 25221 12625 45/82 /0000 10144 20102 39168 40145 55004==
12625,2022,07,25,23,00,AAXX 25231 12625 45/80 /1801 10140 20102 39166 40144 57004==
12625,2022,07,26,00,00,AAXX 26001 12625 15/81 /1601 10132 20104 39166 40147 56001 60001==
12625,2022,07,26,01,00,AAXX 26011 12625 45/82 /1801 10130 20098 39161 40142 58007==
12625,2022,07,26,02,00,AAXX 26021 12625 45/82 /1601 10127 20095 39157 40139 58009==
12625,2022,07,26,03,00,AAXX 26031 12625 45/82 /1601 10124 20094 39155 40138 56011==
12625,2022,07,26,04,00,AAXX 26041 12625 45981 /1601 10132 20102 39149 40128 57012==
12625,2022,07,26,05,00,AAXX 26051 12625 45/71 /0000 10154 20122 39147 40118 57010==
12625,2022,07,26,06,00,AAXX 26061 12625 12775 73201 10196 20133 39146 42756 56009 60002 85206 333 10218 20124 30011 55136==
12625,2022,07,26,07,00,AAXX 26071 12625 42770 71901 10227 20137 39146 42755 56003 82206==
12625,2022,07,26,08,00,AAXX 26081 12625 42780 72904 10219 20113 39152 42761 53005 873// 333 91010 90710 91110==
12625,2022,07,26,09,00,AAXX 26091 12625 42775 82802 10211 20130 39162 42771 53016 889// 333 90730 91110==
12625,2022,07,26,10,00,AAXX 26101 12625 41565 82702 10200 20137 39167 42776 52021 78182 889//==
12625,2022,07,26,11,00,AAXX 26111 12625 41658 82601 10181 20159 39170 42779 51018 78188 889//==
12625,2022,07,26,12,00,AAXX 26121 12625 11660 82701 10185 20159 39169 42778 50007 60031 78082 889// 333 90760 91110==
12625,2022,07,26,13,00,AAXX 26131 12625 41560 83302 10181 20154 39167 42777 50000 72582 889//==
12625,2022,07,26,14,00,AAXX 26141 12625 41560 80302 10168 20150 39170 42780 55000 78022 889//==
12625,2022,07,26,15,00,AAXX 26151 12625 41331 80101 10162 20149 39173 42783 53004 78182 889//==
12625,2022,07,26,16,00,AAXX 26161 12625 41431 82401 10144 20129 39182 42791 53015 78188 889// 333 90710 91108==
12625,2022,07,26,17,00,AAXX 26171 12625 41560 81602 10144 20129 39182 42791 51012 78088 889//==
12625,2022,07,26,18,00,AAXX 26181 12625 11775 72101 10134 20113 39179 42789 50006 60312 72582 8246/ 333 10234 20134 90760 91108==
12625,2022,07,26,19,00,AAXX 26191 12625 45969 /1801 10127 20113 39181 40166 55001==
12625,2022,07,26,20,00,AAXX 26201 12625 45870 /1601 10120 20106 39184 40171 53002==
12625,2022,07,26,21,00,AAXX 26211 12625 45869 /1801 10119 20105 39182 40170 50003==
12625,2022,07,26,22,00,AAXX 26221 12625 45880 /1902 10121 20102 39183 40170 52002==
12625,2022,07,26,23,00,AAXX 26231 12625 45873 /1702 10119 20103 39186 40174 53002==
12625,2022,07,27,00,00,AAXX 27001 12625 15661 /1501 10110 20099 39187 40178 52005 69911 333 91202 91301 93091=
12625,2022,07,27,01,00,AAXX 27011 12625 45561 /1801 10110 20101 39187 40178 51004==
12625,2022,07,27,02,00,AAXX 27021 12625 47/57 /0000 10110 20099 39184 40175 58002 710//==
12625,2022,07,27,03,00,AAXX 27031 12625 47548 /1801 10105 20097 39186 40179 55001 710//==
12625,2022,07,27,04,00,AAXX 27041 12625 47/50 /1401 10106 20098 39186 40179 56001 710//==
12625,2022,07,27,05,00,AAXX 27051 12625 45/77 /0000 10126 20112 39187 40173 52003==
12625,2022,07,27,06,00,AAXX 27061 12625 12780 53501 10151 20119 39188 42797 53002 69912 83306 333 10151 20104 31009 55029 70312==
12625,2022,07,27,07,00,AAXX 27071 12625 42781 41501 10177 20103 39188 42796 51002 83208==
12625,2022,07,27,08,00,AAXX 27081 12625 42780 31201 10190 20108 39190 42798 52003 83201==
12625,2022,07,27,09,00,AAXX 27091 12625 42782 33602 10196 20126 39191 42799 53003 83202==
12625,2022,07,27,10,00,AAXX 27101 12625 42740 53602 10191 20121 39191 42799 51003 84206==
12625,2022,07,27,11,00,AAXX 27111 12625 42680 71101 10199 20103 39192 42799 52002 84206==
12625,2022,07,27,12,00,AAXX 27121 12625 12681 53202 10208 20109 39188 42796 58003 60001 84208==
12650,2022,07,25,06,00,AAXX 25061 12650 12984 23601 10114 21035 38052 48539 58001 60002 80008 333 10120 20078 30/// 55074 91204 93000=
12650,2022,07,25,07,00,AAXX 25071 12650 42984 52701 10119 21047 38053 48540 55001 80006==
12650,2022,07,25,08,00,AAXX 25081 12650 42984 70101 10135 20008 38053 48537 54000 80006==
12650,2022,07,25,09,00,AAXX 25091 12650 42984 60101 10146 20040 38052 48534 50000 80008==
12650,2022,07,25,10,00,AAXX 25101 12650 42984 60201 10156 20058 38053 48534 54000 80008==
12650,2022,07,25,11,00,AAXX 25111 12650 42584 63001 10156 20076 38053 48534 54000 81108==
12650,2022,07,25,12,00,AAXX 25121 12650 12584 43602 10165 20092 38051 48530 58001 60001 81108==
12650,2022,07,25,13,00,AAXX 25131 12650 42984 53202 10167 20084 38049 48528 58004 80006==
12650,2022,07,25,14,00,AAXX 25141 12650 42984 32902 10169 20064 38046 48524 57007 80008==
12650,2022,07,25,15,00,AAXX 25151 12650 42984 12803 10172 20058 38043 48521 57008 80001==
12650,2022,07,25,16,00,AAXX 25161 12650 42984 13103 10170 20065 38041 48519 57008 80001==
12650,2022,07,25,17,00,AAXX 25171 12650 42984 12603 10165 20054 38038 48516 57008 80001==
12650,2022,07,25,18,00,AAXX 25181 12650 12984 02505 10154 20050 38036 48516 57007 60002 333 10176 20114 91205 93000=
12650,2022,07,25,19,00,AAXX 25191 12650 42984 12106 10140 20054 38033 48515 57008 80002==
12650,2022,07,25,20,00,AAXX 25201 12650 42984 12008 10136 20060 38029 48512 58009 80002==
12650,2022,07,25,21,00,AAXX 25211 12650 42984 12108 10131 20062 38027 48510 57009 80002==
12650,2022,07,25,22,00,AAXX 25221 12650 42984 22008 10132 20058 38027 48510 56006 80005==
12650,2022,07,25,23,00,AAXX 25231 12650 42984 22008 10130 20044 38024 48507 57005 80008==
12650,2022,07,26,00,00,AAXX 26001 12650 12984 21910 10127 20046 38022 48506 58005 60001 80008==
12650,2022,07,26,01,00,AAXX 26011 12650 42984 22009 10128 20055 38018 48501 57009 80008==
12650,2022,07,26,02,00,AAXX 26021 12650 42984 42006 10124 20067 38017 48501 57007 80008==
12650,2022,07,26,03,00,AAXX 26031 12650 42/84 52306 10126 20068 38015 48499 57007 84058==
12650,2022,07,26,04,00,AAXX 26041 12650 42/84 72006 10128 20070 38012 48495 58006 83058==
12650,2022,07,26,05,00,AAXX 26051 12650 42480 72206 10126 20081 38010 48493 57007 82556==
12650,2022,07,26,06,00,AAXX 26061 12650 12/80 72206 10137 20095 38010 48491 56005 60002 83236 333 10154 20123 30/// 55148==
12650,2022,07,26,07,00,AAXX 26071 12650 42/80 72105 10135 20095 38010 48492 56002 82258==
12650,2022,07,26,08,00,AAXX 26081 12650 42/70 71902 10140 20096 38012 48493 53002 872//==
12650,2022,07,26,09,00,AAXX 26091 12650 42/65 73402 10144 20102 38015 48495 53005 8627/==
12650,2022,07,26,10,00,AAXX 26101 12650 41/00 82803 10118 20105 38017 48502 52007 78042 889//==
12650,2022,07,26,11,00,AAXX 26111 12650 41/00 83603 10115 20109 38017 48503 51005 78084 889//==
12650,2022,07,26,12,00,AAXX 26121 12650 11/00 83303 10107 20101 38014 48501 58001 60031 78084 889//==
12650,2022,07,26,13,00,AAXX 26131 12650 41/00 90203 10105 20099 38011 48498 58006 74784 89///==
12650,2022,07,26,14,00,AAXX 26141 12650 41/00 90202 10101 20096 38011 48499 56006 74584 89///==
12650,2022,07,26,15,00,AAXX 26151 12650 41/00 90204 10102 20097 38011 48499 56003 78084 89///==
12650,2022,07,26,16,00,AAXX 26161 12650 41/00 90105 10086 20083 38013 48503 53002 78184 89/// 333 90710 91110==
12650,2022,07,26,17,00,AAXX 26171 12650 41/00 90207 10058 20054 38011 48506 54000 78084 89///==
12650,2022,07,26,18,00,AAXX 26181 12650 11/70 70507 10060 20048 38007 48502 58004 60202 72884 8626/ 333 10154 20054 90760 91110==
12650,2022,07,26,19,00,AAXX 26191 12650 42/84 70207 10064 20047 38011 48505 57002 8257/==
12650,2022,07,26,20,00,AAXX 26201 12650 42/84 40307 10064 20042 38012 48506 52001 81530==
12650,2022,07,26,21,00,AAXX 26211 12650 42/82 20207 10066 20049 38013 48507 51006 81530==
12650,2022,07,26,22,00,AAXX 26221 12650 42/82 30206 10062 20052 38013 48508 51002 82530==
12650,2022,07,26,23,00,AAXX 26231 12650 42/82 20207 10058 20046 38014 48509 52002 81530==
12650,2022,07,27,00,00,AAXX 27001 12650 11/00 90205 10060 20054 38014 48509 52001 60001 74700 89///==
12650,2022,07,27,01,00,AAXX 27011 12650 41/00 70305 10058 20054 38013 48508 50000 74144 875//==
12650,2022,07,27,02,00,AAXX 27021 12650 41/00 90307 10057 20053 38010 48505 58004 74544 89///==
12650,2022,07,27,03,00,AAXX 27031 12650 41/00 90307 10058 20054 38012 48507 57002 74544 89///==
12650,2022,07,27,04,00,AAXX 27041 12650 41/82 30406 10055 20051 38013 48509 55000 72800 83500==
12650,2022,07,27,05,00,AAXX 27051 12650 42/82 30504 10068 20054 38015 48509 52005 83500==
12650,2022,07,27,06,00,AAXX 27061 12650 12/82 40304 10075 20048 38018 48510 53006 60002 82502 333 10076 20055 31/// 55037 70195==
12650,2022,07,27,07,00,AAXX 27071 12650 42/82 50402 10075 20055 38021 48514 53008 83202==
12650,2022,07,27,08,00,AAXX 27081 12650 42/82 30202 10098 20056 38026 48515 53011 82202 333 90710 91109==
12650,2022,07,27,09,00,AAXX 27091 12650 42/80 60104 10105 20070 38028 48516 52010 85202 333 90730 91111==
12650,2022,07,27,10,00,AAXX 27101 12650 42/65 70102 10112 20084 38030 48517 51009 872// 333 90710 91108==
12650,2022,07,27,11,00,AAXX 27111 12650 42/70 70103 10122 20088 38032 48517 52006 86202==
12650,2022,07,27,12,00,AAXX 27121 12650 12/82 60102 10127 20082 38031 48515 50003 60001 85202 333 90760 91111==
12660,2022,07,25,06,00,AAXX 25061 12660 11974 22801 10158 20122 39843 40193 58005 60002 700// 80002 333 10229 20114 31011 55085 91201 96122 93000=
12660,2022,07,25,07,00,AAXX 25071 12660 42980 42801 10181 20116 39838 40185 58012 80006==
12660,2022,07,25,08,00,AAXX 25081 12660 42980 53001 10213 20135 39833 40176 57014 80006==
12660,2022,07,25,09,00,AAXX 25091 12660 42981 61401 10238 20115 39829 40168 56014 80006==
12660,2022,07,25,10,00,AAXX 25101 12660 42980 60101 10256 20102 39825 40162 56013 80008==
12660,2022,07,25,11,00,AAXX 25111 12660 42979 53301 10259 20075 39818 40155 58015 80008==
12660,2022,07,25,12,00,AAXX 25121 12660 12979 53101 10268 20068 39811 40146 58018 60001 80008==
12660,2022,07,25,13,00,AAXX 25131 12660 42980 30201 10280 20083 39805 40139 56020 80002==
12660,2022,07,25,14,00,AAXX 25141 12660 45/81 /3301 10283 20105 39798 40131 57020==
12660,2022,07,25,15,00,AAXX 25151 12660 45/81 /3201 10284 20091 39793 40126 57018==
12660,2022,07,25,16,00,AAXX 25161 12660 45/81 /0402 10285 20092 39787 40120 57018==
12660,2022,07,25,17,00,AAXX 25171 12660 45/84 /0702 10274 20106 39784 40118 57014==
12660,2022,07,25,18,00,AAXX 25181 12660 15/83 /0701 10257 20115 39783 40119 56010 60002 333 10288 20158 91203 91301 93000=
12660,2022,07,25,19,00,AAXX 25191 12660 45/81 /0701 10227 20126 39782 40121 57005==
12660,2022,07,25,20,00,AAXX 25201 12660 45/82 /0000 10205 20132 39779 40121 57005==
12660,2022,07,25,21,00,AAXX 25211 12660 45/73 /2201 10190 20136 39779 40122 56004==
12660,2022,07,25,22,00,AAXX 25221 12660 45/75 /2001 10175 20134 39780 40125 55002==
12660,2022,07,25,23,00,AAXX 25231 12660 45/77 /0000 10164 20131 39777 40123 58002==
12660,2022,07,26,00,00,AAXX 26001 12660 15/67 /2401 10155 20137 39772 40119 58007 60001==
12660,2022,07,26,01,00,AAXX 26011 12660 45/73 /1501 10147 20131 39770 40118 57010==
12660,2022,07,26,02,00,AAXX 26021 12660 45/68 /2201 10141 20127 39767 40116 57010==
12660,2022,07,26,03,00,AAXX 26031 12660 45/63 /0000 10139 20128 39764 40113 57008==
12660,2022,07,26,04,00,AAXX 26041 12660 45/71 /0000 10139 20126 39759 40108 57011==
12660,2022,07,26,05,00,AAXX 26051 12660 45/77 /0000 10155 20133 39756 40103 57011==
12660,2022,07,26,06,00,AAXX 26061 12660 12580 62201 10183 20142 39756 40099 56008 60002 81106 333 10257 20138 31013 55147==
12660,2022,07,26,07,00,AAXX 26071 12660 42581 52501 10213 20154 39754 40094 57005 82208==
12660,2022,07,26,08,00,AAXX 26081 12660 42576 50000 10248 20157 39754 40090 56002 82208==
12660,2022,07,26,09,00,AAXX 26091 12660 42581 72301 10269 20156 39758 40091 53002 8427/==
12660,2022,07,26,10,00,AAXX 26101 12660 42570 72905 10252 20158 39766 40102 53012 8427/ 333 91010 90710 91110==
12660,2022,07,26,11,00,AAXX 26111 12660 42571 83203 10223 20166 39774 40113 53020 882// 333 91009 90710 91109==
12660,2022,07,26,12,00,AAXX 26121 12660 11456 83201 10196 20177 39783 40126 53025 60021 78122 883// 333 90760 91110==
12660,2022,07,26,13,00,AAXX 26131 12660 41460 82802 10203 20181 39782 40124 50016 78088 883//==
12660,2022,07,26,14,00,AAXX 26141 12660 47/60 /2902 10201 20177 39784 40126 51010 781//==
12660,2022,07,26,15,00,AAXX 26151 12660 47/46 /3101 10193 20176 39788 40131 53005 781// 333 90730 91106==
12660,2022,07,26,16,00,AAXX 26161 12660 47/56 /0102 10173 20162 39791 40137 52009 762//==
12660,2022,07,26,17,00,AAXX 26171 12660 47/62 /2201 10166 20158 39801 40148 53017 752//==
12660,2022,07,26,18,00,AAXX 26181 12660 17/50 /2501 10161 20153 39799 40147 50011 60112 762// 333 10269 20161 90760 91106==
12660,2022,07,26,19,00,AAXX 26191 12660 47/58 /2101 10160 20155 39800 40148 51009 761//==
12660,2022,07,26,20,00,AAXX 26201 12660 47/61 /1901 10159 20154 39799 40147 57002 723//==
12660,2022,07,26,21,00,AAXX 26211 12660 47/59 /2001 10151 20143 39800 40149 52001 710//==
12660,2022,07,26,22,00,AAXX 26221 12660 47/43 /2401 10143 20135 39801 40151 53001 710//==
12660,2022,07,26,23,00,AAXX 26231 12660 47/34 /1901 10137 20131 39805 40156 53006 710//==
12660,2022,07,27,00,00,AAXX 27001 12660 17/36 /2101 10129 20123 39806 40158 52006 60011 710//==
12660,2022,07,27,01,00,AAXX 27011 12660 47/04 /0000 10124 20118 39807 40159 51006 734//==
12660,2022,07,27,02,00,AAXX 27021 12660 47/50 /1801 10122 20117 39806 40159 50001 731//==
12660,2022,07,27,03,00,AAXX 27031 12660 47/05 /2101 10116 20111 39807 40160 52001 734//==
12660,2022,07,27,04,00,AAXX 27041 12660 47/38 /2201 10117 20112 39809 40162 53002 720//==
12660,2022,07,27,05,00,AAXX 27051 12660 47/47 /2401 10125 20120 39811 40164 52005 720//==
12660,2022,07,27,06,00,AAXX 27061 12660 12563 12501 10147 20139 39812 40162 51005 60012 81500 333 10161 20114 32011 55041 70127==
12660,2022,07,27,07,00,AAXX 27071 12660 42577 32801 10169 20142 39812 40159 51003 81202==
12660,2022,07,27,08,00,AAXX 27081 12660 42573 50301 10198 20150 39813 40157 52002 85200==
12660,2022,07,27,09,00,AAXX 27091 12660 42568 50402 10213 20156 39814 40156 53002 85201==
12660,2022,07,27,10,00,AAXX 27101 12660 42570 63602 10214 20155 39815 40157 52003 86200==
12660,2022,07,27,11,00,AAXX 27111 12660 42670 50502 10225 20146 39813 40153 50000 82256==
12660,2022,07,27,12,00,AAXX 27121 12660 12680 50201 10237 20141 39811 40150 58003 60001 83232==
12670,2022,07,25,06,00,AAXX 25061 12670 11980 10000 10164 20127 39801 40192 58003 60002 702// 80001 333 10217 20114 31010 55084 91202 96122 93000=
12670,2022,07,25,07,00,AAXX 25071 12670 42981 31401 10193 20121 39798 40185 58006 80002==
12670,2022,07,25,08,00,AAXX 25081 12670 42681 42202 10206 20126 39796 40181 57007 81202==
12670,2022,07,25,09,00,AAXX 25091 12670 42681 63301 10224 20129 39792 40174 57009 81202==
12670,2022,07,25,10,00,AAXX 25101 12670 42681 61802 10230 20120 39787 40168 58011 81202==
12670,2022,07,25,11,00,AAXX 25111 12670 42781 60501 10242 20118 39782 40162 57014 81102==
12670,2022,07,25,12,00,AAXX 25121 12670 12781 61902 10247 20102 39776 40155 57016 60001 81106==
12670,2022,07,25,13,00,AAXX 25131 12670 42981 50601 10256 20121 39770 40147 57017 80002==
12670,2022,07,25,14,00,AAXX 25141 12670 42981 33602 10264 20105 39764 40140 57018 80002==
12670,2022,07,25,15,00,AAXX 25151 12670 42981 13301 10269 20110 39758 40133 57018 80001==
12670,2022,07,25,16,00,AAXX 25161 12670 42981 00901 10266 20123 39752 40127 57018==
12670,2022,07,25,17,00,AAXX 25171 12670 42981 00902 10255 20116 39750 40127 56014==
12670,2022,07,25,18,00,AAXX 25181 12670 11950 00902 10239 20116 39748 40127 56010 60002 70411 333 10273 20164==
12670,2022,07,25,19,00,AAXX 25191 12670 42980 00802 10219 20119 39748 40129 56004==
12670,2022,07,25,20,00,AAXX 25201 12670 42981 00903 10202 20124 39744 40127 57006==
12670,2022,07,25,21,00,AAXX 25211 12670 45/81 /0903 10189 20124 39742 40127 58006==
12670,2022,07,25,22,00,AAXX 25221 12670 45/81 /0903 10188 20123 39742 40127 56006==
12670,2022,07,25,23,00,AAXX 25231 12670 45/81 /1004 10177 20126 39738 40124 57006==
12670,2022,07,26,00,00,AAXX 26001 12670 15/81 /1004 10168 20125 39731 40118 58011 60001==
12670,2022,07,26,01,00,AAXX 26011 12670 45/81 /1005 10161 20126 39728 40116 57014==
12670,2022,07,26,02,00,AAXX 26021 12670 45/81 /1004 10150 20119 39723 40113 57015==
12670,2022,07,26,03,00,AAXX 26031 12670 45/81 /0904 10153 20119 39721 40110 57010==
12670,2022,07,26,04,00,AAXX 26041 12670 45/81 /0904 10155 20121 39715 40104 57013==
12670,2022,07,26,05,00,AAXX 26051 12670 42981 70903 10184 20124 39712 40096 57011 80006==
12670,2022,07,26,06,00,AAXX 26061 12670 12981 70902 10210 20127 39714 40095 55007 60002 80008 333 10239 20147 30014 55146==
12670,2022,07,26,07,00,AAXX 26071 12670 42681 71702 10240 20135 39714 40091 56001 81208==
12670,2022,07,26,08,00,AAXX 26081 12670 42681 62003 10259 20120 39714 40089 51002 81202==
12670,2022,07,26,09,00,AAXX 26091 12670 42681 62302 10273 20121 39715 40088 53001 81232==
12670,2022,07,26,10,00,AAXX 26101 12670 42681 72805 10286 20141 39716 40087 53002 81136==
12670,2022,07,26,11,00,AAXX 26111 12670 42778 73006 10280 20150 39716 40088 51002 82236 333 91011 90710 91111==
12670,2022,07,26,12,00,AAXX 26121 12670 12681 72806 10265 20161 39718 40092 52003 60001 82272 333 91011 90760 91114==
12670,2022,07,26,13,00,AAXX 26131 12670 42677 72908 10233 20161 39722 40100 53006 8337/ 333 90710 91113==
12670,2022,07,26,14,00,AAXX 26141 12670 41359 82906 10190 20171 39736 40121 53020 78122 889// 333 88909 90710 91112==
12670,2022,07,26,15,00,AAXX 26151 12670 41240 82904 10189 20182 39738 40123 52020 78122 889// 333 88905 90730 91113==
12670,2022,07,26,16,00,AAXX 26161 12670 41338 82803 10190 20183 39740 40125 51018 78088 889//==
12670,2022,07,26,17,00,AAXX 26171 12670 41337 83003 10190 20183 39739 40124 50003 78088 889// 333 88907==
12670,2022,07,26,18,00,AAXX 26181 12670 11135 83005 10179 20173 39743 40129 52005 60042 78182 889// 333 10292 20179 88902 90760 91113==
12670,2022,07,26,19,00,AAXX 26191 12670 41464 82903 10159 20153 39750 40139 53010 78088 879//==
12670,2022,07,26,20,00,AAXX 26201 12670 41363 82802 10155 20150 39749 40139 50010 78082 879// 333 87908==
12670,2022,07,26,21,00,AAXX 26211 12670 47957 /3002 10153 20148 39750 40140 51007 781//==
12670,2022,07,26,22,00,AAXX 26221 12670 47357 /2902 10151 20148 39753 40144 53003 723//==
12670,2022,07,26,23,00,AAXX 26231 12670 47248 /2802 10151 20148 39755 40146 52006 710//==
12670,2022,07,27,00,00,AAXX 27001 12670 17136 /2802 10149 20146 39754 40145 50004 60011 710// 333 91206 91303 93001=
12670,2022,07,27,01,00,AAXX 27011 12670 47/06 /2902 10142 20139 39755 40147 52002 734//==
12670,2022,07,27,02,00,AAXX 27021 12670 47/02 /3002 10140 20137 39755 40147 54000 733//==
12670,2022,07,27,03,00,AAXX 27031 12670 47/02 /3202 10138 20136 39755 40147 51001 733//==
12670,2022,07,27,04,00,AAXX 27041 12670 47/08 /3001 10138 20136 39759 40152 53004 732//==
12670,2022,07,27,05,00,AAXX 27051 12670 41/57 12701 10144 20141 39761 40153 53006 740// 81031==
12670,2022,07,27,06,00,AAXX 27061 12670 12366 23002 10158 20145 39764 40154 52009 60012 82600 333 10179 20136 31013 55086 70056==
12670,2022,07,27,07,00,AAXX 27071 12670 42466 62903 10170 20148 39764 40152 51005 86600 333 86710==
12670,2022,07,27,08,00,AAXX 27081 12670 42469 63203 10185 20152 39767 40153 52006 86200 333 86814==
12670,2022,07,27,09,00,AAXX 27091 12670 42469 63104 10194 20151 39772 40157 53008 86200==
12670,2022,07,27,10,00,AAXX 27101 12670 42578 43004 10200 20150 39774 40159 52010 84200==
12670,2022,07,27,11,00,AAXX 27111 12670 42580 53303 10207 20143 39773 40157 50006 85200==
12670,2022,07,27,12,00,AAXX 27121 12670 12680 53502 10218 20139 39771 40153 58001 60001 84202==
12690,2022,07,25,06,00,AAXX 25061 12690 11981 00701 10160 20125 39697 40193 58003 60002 702// 333 10207 20106 31011 55065 70003 91202 96122 93000=
12690,2022,07,25,07,00,AAXX 25071 12690 42981 11901 10181 20132 39694 40186 57007 80002==
12690,2022,07,25,08,00,AAXX 25081 12690 42581 20201 10201 20128 39692 40180 57007 81102==
12690,2022,07,25,09,00,AAXX 25091 12690 42681 22702 10213 20124 39690 40176 57007 81102==
12690,2022,07,25,10,00,AAXX 25101 12690 42681 21401 10223 20120 39685 40169 58009 81102==
12690,2022,07,25,11,00,AAXX 25111 12690 42681 21801 10234 20118 39680 40162 58012 81102==
12690,2022,07,25,12,00,AAXX 25121 12690 12681 33402 10244 20114 39674 40154 57016 60001 81102==
12690,2022,07,25,13,00,AAXX 25131 12690 42681 32701 10252 20110 39669 40148 57016 81102==
12690,2022,07,25,14,00,AAXX 25141 12690 42981 23101 10259 20109 39663 40140 57017 80002==
12690,2022,07,25,15,00,AAXX 25151 12690 42981 13102 10257 20103 39658 40135 57016 80002==
12690,2022,07,25,16,00,AAXX 25161 12690 42981 13401 10260 20102 39654 40131 56015 80002==
12690,2022,07,25,17,00,AAXX 25171 12690 42981 03301 10258 20096 39651 40128 56012==
12690,2022,07,25,18,00,AAXX 25181 12690 12981 00803 10227 20129 39649 40131 56009 60002 333 10263 20158==
12690,2022,07,25,19,00,AAXX 25191 12690 42981 01102 10205 20125 39649 40135 56005==
12690,2022,07,25,20,00,AAXX 25201 12690 42981 01801 10187 20124 39647 40136 57004==
12690,2022,07,25,21,00,AAXX 25211 12690 45/81 /1602 10175 20124 39645 40135 58004==
12690,2022,07,25,22,00,AAXX 25221 12690 45/81 /1001 10165 20134 39643 40135 57006==
12690,2022,07,25,23,00,AAXX 25231 12690 45/81 /1402 10149 20119 39640 40135 57007==
12690,2022,07,26,00,00,AAXX 26001 12690 15/81 /1502 10142 20115 39636 40132 58009 60001==
12690,2022,07,26,01,00,AAXX 26011 12690 45/81 /1602 10135 20112 39630 40127 58013==
12690,2022,07,26,02,00,AAXX 26021 12690 45/81 /1402 10135 20114 39627 40124 57013==
12690,2022,07,26,03,00,AAXX 26031 12690 45/81 /1402 10132 20109 39624 40121 56012==
12690,2022,07,26,04,00,AAXX 26041 12690 45/81 /1201 10141 20120 39621 40116 57009==
12690,2022,07,26,05,00,AAXX 26051 12690 42981 51102 10162 20131 39616 40107 58011 80002==
12690,2022,07,26,06,00,AAXX 26061 12690 12981 50901 10201 20140 39615 40100 56009 60002 80002 333 10227 20131 30013 55148==
12690,2022,07,26,07,00,AAXX 26071 12690 42981 50901 10234 20147 39614 40093 56007 80002==
12690,2022,07,26,08,00,AAXX 26081 12690 42981 42901 10255 20152 39614 40089 56002 80002==
12690,2022,07,26,09,00,AAXX 26091 12690 42781 42203 10278 20122 39615 40087 55000 81102==
12690,2022,07,26,10,00,AAXX 26101 12690 42781 61803 10286 20112 39613 40083 58001 81132==
12690,2022,07,26,11,00,AAXX 26111 12690 42781 72403 10293 20131 39613 40082 58001 81136==
12690,2022,07,26,12,00,AAXX 26121 12690 12781 63103 10283 20130 39612 40083 57003 60001 83232==
12690,2022,07,26,13,00,AAXX 26131 12690 42781 62905 10277 20163 39611 40083 58002 83232 333 91010 90710 91110==
12690,2022,07,26,14,00,AAXX 26141 12690 42781 72907 10230 20161 39623 40103 53010 8523/ 333 91013 90710 91113==
12690,2022,07,26,15,00,AAXX 26151 12690 41565 83004 10188 20169 39634 40122 53022 78022 889// 333 90730 91113==
12690,2022,07,26,16,00,AAXX 26161 12690 41350 83005 10181 20173 39633 40122 50022 78088 889// 333 88907 90710 91109==
12690,2022,07,26,17,00,AAXX 26171 12690 41231 82902 10180 20174 39636 40125 52013 78088 889// 333 88906==
12690,2022,07,26,18,00,AAXX 26181 12690 11232 82902 10181 20175 39638 40127 53004 60072 78082 889// 333 10297 20180 88904 90760 91113==
12690,2022,07,26,19,00,AAXX 26191 12690 41234 83001 10181 20175 39641 40130 52008 78088 889// 333 88906==
12690,2022,07,26,20,00,AAXX 26201 12690 41229 83005 10159 20149 39641 40134 51005 78088 889// 333 88906==
12690,2022,07,26,21,00,AAXX 26211 12690 47450 /2902 10155 20147 39645 40139 52007 781//==
12690,2022,07,26,22,00,AAXX 26221 12690 47350 /2902 10153 20147 39648 40142 53007 723//==
12690,2022,07,26,23,00,AAXX 26231 12690 47256 /2701 10152 20146 39650 40145 51009 710//==
12690,2022,07,27,00,00,AAXX 27001 12690 17359 /2801 10150 20142 39652 40147 52007 60041 710// 333 91206 91302 93004=
12690,2022,07,27,01,00,AAXX 27011 12690 47244 /2601 10150 20142 39652 40147 51004 710//==
12690,2022,07,27,02,00,AAXX 27021 12690 47441 /2901 10151 20143 39653 40148 52003 710//==
12690,2022,07,27,03,00,AAXX 27031 12690 47341 /2301 10152 20144 39652 40147 54000 710//==
12690,2022,07,27,04,00,AAXX 27041 12690 47224 /2801 10153 20145 39654 40149 52002 710//==
12690,2022,07,27,05,00,AAXX 27051 12690 41238 82901 10154 20144 39658 40153 53005 710// 886// 333 88704==
12690,2022,07,27,06,00,AAXX 27061 12690 11358 83102 10158 20143 39659 40153 52007 60042 710// 886// 333 10182 20150 32015 55083 70111 88709==
12690,2022,07,27,07,00,AAXX 27071 12690 42464 83102 10164 20141 39661 40154 51007 885// 333 88612==
12690,2022,07,27,08,00,AAXX 27081 12690 42569 72801 10175 20146 39663 40154 52005 875//==
12690,2022,07,27,09,00,AAXX 27091 12690 42576 62701 10191 20150 39667 40156 53008 86200==
12690,2022,07,27,10,00,AAXX 27101 12690 42581 63102 10204 20145 39668 40155 52007 85201==
12690,2022,07,27,11,00,AAXX 27111 12690 42681 63202 10215 20139 39666 40151 50003 85201==
12690,2022,07,27,12,00,AAXX 27121 12690 12781 53203 10216 20140 39665 40149 58002 60001 84201==
12695,2022,07,25,06,00,AAXX 25061 12695 16/70 /9901 10179 20135 39861 40189 57004 60002 333 10216 20130 3/012 55090 70000=
12695,2022,07,25,07,00,AAXX 25071 12695 46/70 /0001 10201 20137 39860 40186 57004==
12695,2022,07,25,08,00,AAXX 25081 12695 46/70 /0001 10213 20131 39858 40182 57004==
12695,2022,07,25,09,00,AAXX 25091 12695 46/70 /0001 10215 20130 39856 40180 57005==
12695,2022,07,25,10,00,AAXX 25101 12695 46/70 /0001 10228 20124 39853 40175 57008==
12695,2022,07,25,11,00,AAXX 25111 12695 46/70 /0001 10237 20128 39847 40168 57011==
12695,2022,07,25,12,00,AAXX 25121 12695 16/70 /0001 10244 20122 39841 40161 57015 60001==
12695,2022,07,25,13,00,AAXX 25131 12695 46/70 /0001 10248 20124 39835 40155 57017==
12695,2022,07,25,14,00,AAXX 25141 12695 46/70 /0001 10260 20121 39829 40147 57018==
12695,2022,07,25,15,00,AAXX 25151 12695 46/70 /0001 10261 20121 39824 40142 57017==
12695,2022,07,25,16,00,AAXX 25161 12695 46/70 /0001 10257 20122 39820 40138 57015==
12695,2022,07,25,17,00,AAXX 25171 12695 46/70 /0002 10243 20122 39817 40137 57011==
12695,2022,07,25,18,00,AAXX 25181 12695 16/67 /0802 10224 20125 39815 40136 57009 60002 333 10264 20178==
12695,2022,07,25,19,00,AAXX 25191 12695 46/70 /0001 10213 20128 39814 40137 57006==
12695,2022,07,25,20,00,AAXX 25201 12695 46/70 /0001 10208 20132 39812 40135 57005==
12695,2022,07,25,21,00,AAXX 25211 12695 46/70 /0002 10199 20132 39809 40133 57006==
12695,2022,07,25,22,00,AAXX 25221 12695 46/70 /0002 10194 20132 39808 40133 57006==
12695,2022,07,25,23,00,AAXX 25231 12695 46/70 /0001 10184 20131 39805 40130 57007==
12695,2022,07,26,00,00,AAXX 26001 12695 16/70 /0001 10168 20132 39798 40126 57010 60001==
12695,2022,07,26,01,00,AAXX 26011 12695 46/70 /0001 10157 20128 39793 40121 57015==
12695,2022,07,26,02,00,AAXX 26021 12695 46/70 /0001 10155 20127 39789 40117 57016==
12695,2022,07,26,03,00,AAXX 26031 12695 46/67 /0001 10139 20123 39786 40117 57012==
12695,2022,07,26,04,00,AAXX 26041 12695 46/70 /0001 10153 20127 39783 40111 57010==
12695,2022,07,26,05,00,AAXX 26051 12695 46/70 /0001 10164 20135 39778 40105 57011==
12695,2022,07,26,06,00,AAXX 26061 12695 16/70 /0001 10183 20139 39778 40103 57008 60002 333 10225 20138 3/013 55132 70000==
12695,2022,07,26,07,00,AAXX 26071 12695 46/70 /0001 10211 20156 39776 40098 57007==
12695,2022,07,26,08,00,AAXX 26081 12695 46/70 /0001 10241 20158 39776 40095 57002==
12695,2022,07,26,09,00,AAXX 26091 12695 46/70 /0001 10264 20165 39776 40092 57002==
12695,2022,07,26,10,00,AAXX 26101 12695 46/70 /0001 10286 20156 39774 40087 57002==
12695,2022,07,26,11,00,AAXX 26111 12695 46/70 /0002 10299 20137 39772 40084 57005==
12695,2022,07,26,12,00,AAXX 26121 12695 16/70 /0003 10308 20142 39767 40078 57009 60001==
12695,2022,07,26,13,00,AAXX 26131 12695 46/70 /0003 10306 20147 39764 40075 57010==
12695,2022,07,26,14,00,AAXX 26141 12695 46/70 /3005 10281 20170 39769 40083 57003==
12695,2022,07,26,15,00,AAXX 26151 12695 46/70 /2805 10246 20173 39778 40096 52011==
12695,2022,07,26,16,00,AAXX 26161 12695 46/61 /2805 10206 20185 39785 40108 52021==
12695,2022,07,26,17,00,AAXX 26171 12695 46/60 /2805 10192 20177 39791 40115 52021==
12695,2022,07,26,18,00,AAXX 26181 12695 16/57 /0003 10189 20178 39799 40124 52020 60012 333 10313 20183==
12695,2022,07,26,19,00,AAXX 26191 12695 46/57 /0003 10188 20179 39801 40126 52015==
12695,2022,07,26,20,00,AAXX 26201 12695 46/58 /0003 10187 20175 39800 40126 52009==
12695,2022,07,26,21,00,AAXX 26211 12695 46/70 /0002 10167 20148 39803 40131 52004==
12695,2022,07,26,22,00,AAXX 26221 12695 46/70 /0003 10167 20147 39808 40136 52007==
12695,2022,07,26,23,00,AAXX 26231 12695 46/70 /0003 10166 20149 39810 40138 52009==
12695,2022,07,27,00,00,AAXX 27001 12695 16/66 /2602 10163 20154 39812 40140 52009 60021=
12695,2022,07,27,01,00,AAXX 27011 12695 46/59 /0002 10162 20155 39812 40140 52004==
12695,2022,07,27,02,00,AAXX 27021 12695 46/47 /2703 10158 20154 39812 40141 52002==
12695,2022,07,27,03,00,AAXX 27031 12695 46/32 /2703 10157 20153 39812 40141 54000==
12695,2022,07,27,04,00,AAXX 27041 12695 46/32 /0002 10159 20154 39815 40144 52004==
12695,2022,07,27,05,00,AAXX 27051 12695 46/50 /0002 10164 20152 39818 40146 52006==
12695,2022,07,27,06,00,AAXX 27061 12695 16/57 /0002 10166 20150 39822 40150 52011 60022 333 10190 20157 3/015 55077 70041==
12695,2022,07,27,07,00,AAXX 27071 12695 46/59 /0001 10172 20148 39824 40151 52008==
12695,2022,07,27,08,00,AAXX 27081 12695 46/61 /0002 10182 20155 39825 40152 52007==
12695,2022,07,27,09,00,AAXX 27091 12695 46/62 /0001 10189 20154 39831 40157 52009==
12695,2022,07,27,10,00,AAXX 27101 12695 46/67 /0002 10201 20156 39833 40158 52009==
12695,2022,07,27,11,00,AAXX 27111 12695 46/62 /0003 10203 20154 39834 40159 52010==
12695,2022,07,27,12,00,AAXX 27121 12695 16/64 /0002 10204 20149 39834 40158 52003 60001==